{
  "type": "Feature",
  "geometry": {
    "type": "LineString",
    "coordinates": [
      [
        -104.6120955,
        38.259
      ],
      [
        -104.6114332,
        38.2580115
      ],
      [
        -104.6112774,
        38.2577456
      ],
      [
        -104.6111381,
        38.257466
      ],
      [
        -104.6109941,
        38.2569825
      ],
      [
        -104.6109553,
        38.2568524
      ],
      [
        -104.6106337,
        38.2558646
      ],
      [
        -104.6105428,
        38.2555999
      ],
      [
        -104.6104677,
        38.255433
      ],
      [
        -104.6104034,
        38.2553196
      ],
      [
        -104.6103166,
        38.2551871
      ],
      [
        -104.6102423,
        38.2550828
      ],
      [
        -104.6101385,
        38.2549709
      ],
      [
        -104.6100169,
        38.2548569
      ],
      [
        -104.6098725,
        38.254732
      ],
      [
        -104.6090891,
        38.2541152
      ],
      [
        -104.6086396,
        38.2537681
      ],
      [
        -104.6084692,
        38.2536248
      ],
      [
        -104.6084003,
        38.2535597
      ],
      [
        -104.6083223,
        38.2534826
      ],
      [
        -104.6081626,
        38.2533059
      ],
      [
        -104.6080839,
        38.2532079
      ],
      [
        -104.6080122,
        38.2530898
      ],
      [
        -104.6079538,
        38.2529869
      ],
      [
        -104.6078865,
        38.2528605
      ],
      [
        -104.6078051,
        38.2526937
      ],
      [
        -104.6077396,
        38.252488
      ],
      [
        -104.6076972,
        38.2523255
      ],
      [
        -104.6076618,
        38.2520698
      ],
      [
        -104.6076565,
        38.2518627
      ],
      [
        -104.6076759,
        38.2516362
      ],
      [
        -104.6077096,
        38.2514639
      ],
      [
        -104.6077697,
        38.2512457
      ],
      [
        -104.6078405,
        38.2510706
      ],
      [
        -104.6079449,
        38.2508705
      ],
      [
        -104.608021,
        38.2507412
      ],
      [
        -104.6081626,
        38.2505453
      ],
      [
        -104.6082511,
        38.2504411
      ],
      [
        -104.6084439,
        38.2502437
      ],
      [
        -104.6086191,
        38.250095
      ],
      [
        -104.6087519,
        38.2500005
      ],
      [
        -104.6088952,
        38.2499019
      ],
      [
        -104.6090438,
        38.2498157
      ],
      [
        -104.6092296,
        38.2497184
      ],
      [
        -104.6099046,
        38.2493776
      ],
      [
        -104.6101261,
        38.2492572
      ],
      [
        -104.6102854,
        38.2491586
      ],
      [
        -104.6104393,
        38.2490516
      ],
      [
        -104.6105809,
        38.2489362
      ],
      [
        -104.6106694,
        38.2488556
      ],
      [
        -104.610772,
        38.2487583
      ],
      [
        -104.6108924,
        38.2486249
      ],
      [
        -104.6110056,
        38.2484887
      ],
      [
        -104.6111153,
        38.2483345
      ],
      [
        -104.6111808,
        38.2482219
      ],
      [
        -104.6112675,
        38.2480537
      ],
      [
        -104.6113383,
        38.2478884
      ],
      [
        -104.6113896,
        38.2477355
      ],
      [
        -104.6114321,
        38.2475743
      ],
      [
        -104.6114639,
        38.2473756
      ],
      [
        -104.6116391,
        38.2459205
      ],
      [
        -104.6116621,
        38.245662
      ],
      [
        -104.6116674,
        38.2453826
      ],
      [
        -104.6116349,
        38.2422725
      ],
      [
        -104.6116225,
        38.2415081
      ],
      [
        -104.6116225,
        38.2411384
      ],
      [
        -104.6116041,
        38.2395927
      ],
      [
        -104.6115924,
        38.238425
      ],
      [
        -104.6115749,
        38.2373559
      ],
      [
        -104.6115749,
        38.2372597
      ],
      [
        -104.611572,
        38.237033
      ],
      [
        -104.6115662,
        38.2364653
      ],
      [
        -104.6115458,
        38.2348191
      ],
      [
        -104.6115374,
        38.2338974
      ],
      [
        -104.6115235,
        38.2324542
      ],
      [
        -104.6115166,
        38.2321425
      ],
      [
        -104.611503,
        38.2311892
      ],
      [
        -104.6114962,
        38.2309267
      ],
      [
        -104.611537,
        38.2303337
      ],
      [
        -104.6115371,
        38.230234
      ],
      [
        -104.6115375,
        38.2299425
      ],
      [
        -104.6115538,
        38.2295823
      ],
      [
        -104.6115778,
        38.2293308
      ],
      [
        -104.6115895,
        38.2290606
      ],
      [
        -104.6115924,
        38.2287584
      ],
      [
        -104.6115866,
        38.2283897
      ],
      [
        -104.6115662,
        38.2281813
      ],
      [
        -104.611537,
        38.2279272
      ],
      [
        -104.6115079,
        38.2275494
      ],
      [
        -104.6114958,
        38.226484
      ],
      [
        -104.6114728,
        38.2261963
      ],
      [
        -104.6114533,
        38.2258988
      ],
      [
        -104.6114529,
        38.2255933
      ],
      [
        -104.6114738,
        38.2252261
      ],
      [
        -104.6114807,
        38.2251205
      ],
      [
        -104.6114879,
        38.2250116
      ],
      [
        -104.6114988,
        38.2248427
      ],
      [
        -104.6115178,
        38.2245476
      ],
      [
        -104.6115579,
        38.2239239
      ],
      [
        -104.6116919,
        38.2219134
      ],
      [
        -104.6117969,
        38.2203516
      ],
      [
        -104.6118581,
        38.2193394
      ],
      [
        -104.6119572,
        38.2179241
      ],
      [
        -104.6120359,
        38.2167585
      ],
      [
        -104.6121933,
        38.2144134
      ],
      [
        -104.6123303,
        38.212272
      ],
      [
        -104.6123916,
        38.2114312
      ],
      [
        -104.6123944,
        38.2113925
      ],
      [
        -104.612409,
        38.2110558
      ],
      [
        -104.612425,
        38.2108301
      ],
      [
        -104.6124228,
        38.2106486
      ],
      [
        -104.6124066,
        38.210284
      ],
      [
        -104.6123907,
        38.2099072
      ],
      [
        -104.6123853,
        38.2097695
      ],
      [
        -104.6123876,
        38.2095452
      ],
      [
        -104.612408,
        38.2090162
      ],
      [
        -104.612488,
        38.207898
      ],
      [
        -104.6125061,
        38.2075403
      ],
      [
        -104.6125075,
        38.2075128
      ],
      [
        -104.6125393,
        38.2070706
      ],
      [
        -104.6125889,
        38.2063559
      ],
      [
        -104.6126207,
        38.2058024
      ],
      [
        -104.6126614,
        38.205217
      ],
      [
        -104.6126915,
        38.2047679
      ],
      [
        -104.6127694,
        38.2035623
      ],
      [
        -104.6128366,
        38.202529
      ],
      [
        -104.6134979,
        38.1924659
      ],
      [
        -104.6137145,
        38.1893224
      ],
      [
        -104.6150798,
        38.1695022
      ],
      [
        -104.6156431,
        38.1604511
      ],
      [
        -104.6156566,
        38.160209
      ],
      [
        -104.6156582,
        38.1601631
      ],
      [
        -104.6157602,
        38.1588494
      ],
      [
        -104.6159099,
        38.1565395
      ],
      [
        -104.6159702,
        38.1559691
      ],
      [
        -104.6161029,
        38.1553238
      ],
      [
        -104.6163486,
        38.1542696
      ],
      [
        -104.6166419,
        38.1531708
      ],
      [
        -104.6169401,
        38.1522316
      ],
      [
        -104.6172853,
        38.1511538
      ],
      [
        -104.6175242,
        38.1502879
      ],
      [
        -104.6177386,
        38.149451
      ],
      [
        -104.6178757,
        38.1490781
      ],
      [
        -104.6180913,
        38.1484234
      ],
      [
        -104.6183385,
        38.1476142
      ],
      [
        -104.6185359,
        38.1469963
      ],
      [
        -104.6187497,
        38.1463876
      ],
      [
        -104.6190251,
        38.1454511
      ],
      [
        -104.6192735,
        38.1447913
      ],
      [
        -104.6193728,
        38.1446128
      ],
      [
        -104.6195793,
        38.144135
      ],
      [
        -104.6196977,
        38.1438758
      ],
      [
        -104.6199612,
        38.1433659
      ],
      [
        -104.6201652,
        38.1430037
      ],
      [
        -104.6204707,
        38.142471
      ],
      [
        -104.6208281,
        38.1419468
      ],
      [
        -104.6210204,
        38.141673
      ],
      [
        -104.6214477,
        38.1411125
      ],
      [
        -104.6216301,
        38.1408836
      ],
      [
        -104.6225263,
        38.1397154
      ],
      [
        -104.6228372,
        38.1393148
      ],
      [
        -104.623102,
        38.1389822
      ],
      [
        -104.6239769,
        38.1378248
      ],
      [
        -104.6248186,
        38.1367108
      ],
      [
        -104.6254942,
        38.1358315
      ],
      [
        -104.6261813,
        38.1349269
      ],
      [
        -104.6267246,
        38.1340707
      ],
      [
        -104.6269622,
        38.1336768
      ],
      [
        -104.6273059,
        38.1330403
      ],
      [
        -104.6277903,
        38.1319962
      ],
      [
        -104.6282004,
        38.1310677
      ],
      [
        -104.6289621,
        38.1293657
      ],
      [
        -104.6295222,
        38.1281092
      ],
      [
        -104.630051,
        38.1269165
      ],
      [
        -104.6306726,
        38.1255158
      ],
      [
        -104.6311753,
        38.124306
      ],
      [
        -104.6317557,
        38.1229982
      ],
      [
        -104.6322558,
        38.1218565
      ],
      [
        -104.6327917,
        38.1206149
      ],
      [
        -104.6331548,
        38.1197908
      ],
      [
        -104.6337072,
        38.1185606
      ],
      [
        -104.6341236,
        38.1175988
      ],
      [
        -104.6345916,
        38.1165137
      ],
      [
        -104.6350162,
        38.1155559
      ],
      [
        -104.6353649,
        38.1147278
      ],
      [
        -104.6357105,
        38.1138182
      ],
      [
        -104.6359507,
        38.1130249
      ],
      [
        -104.6361156,
        38.1124141
      ],
      [
        -104.6362231,
        38.1119322
      ],
      [
        -104.6363246,
        38.1113071
      ],
      [
        -104.636444,
        38.1102214
      ],
      [
        -104.6364725,
        38.1095664
      ],
      [
        -104.6364667,
        38.1086796
      ],
      [
        -104.6364363,
        38.1078995
      ],
      [
        -104.6363706,
        38.1072363
      ],
      [
        -104.6363183,
        38.1068062
      ],
      [
        -104.6362314,
        38.1063142
      ],
      [
        -104.6361012,
        38.1055699
      ],
      [
        -104.6360127,
        38.1051543
      ],
      [
        -104.6358807,
        38.1047152
      ],
      [
        -104.6357531,
        38.104421
      ],
      [
        -104.635572,
        38.1038496
      ],
      [
        -104.6352965,
        38.1029911
      ],
      [
        -104.6350791,
        38.1022984
      ],
      [
        -104.6348877,
        38.1016066
      ],
      [
        -104.6347584,
        38.1011771
      ],
      [
        -104.6345024,
        38.1004305
      ],
      [
        -104.6342526,
        38.0997643
      ],
      [
        -104.6339645,
        38.0988947
      ],
      [
        -104.6333803,
        38.0971917
      ],
      [
        -104.6331446,
        38.0964818
      ],
      [
        -104.6326459,
        38.095016
      ],
      [
        -104.6322722,
        38.0938181
      ],
      [
        -104.6319185,
        38.0926731
      ],
      [
        -104.6318092,
        38.0922884
      ],
      [
        -104.6316901,
        38.0918134
      ],
      [
        -104.631327,
        38.0906909
      ],
      [
        -104.6308864,
        38.0893205
      ],
      [
        -104.6300662,
        38.0868382
      ],
      [
        -104.6297647,
        38.0858955
      ],
      [
        -104.6295912,
        38.0852744
      ],
      [
        -104.62946,
        38.0845275
      ],
      [
        -104.6293707,
        38.0838891
      ],
      [
        -104.6292968,
        38.0831923
      ],
      [
        -104.6292544,
        38.0826917
      ],
      [
        -104.629211,
        38.0814524
      ],
      [
        -104.6291828,
        38.0800571
      ],
      [
        -104.6291909,
        38.0786002
      ],
      [
        -104.6292111,
        38.0775973
      ],
      [
        -104.6291699,
        38.075821
      ],
      [
        -104.6291593,
        38.0739673
      ],
      [
        -104.6291864,
        38.0715832
      ],
      [
        -104.629156,
        38.0704601
      ],
      [
        -104.6291746,
        38.0659981
      ],
      [
        -104.6291563,
        38.0647856
      ],
      [
        -104.629156,
        38.0638196
      ],
      [
        -104.6291536,
        38.0626979
      ],
      [
        -104.6291457,
        38.0616685
      ],
      [
        -104.6291461,
        38.0606392
      ],
      [
        -104.6291439,
        38.0598756
      ],
      [
        -104.6291466,
        38.058453
      ],
      [
        -104.6291361,
        38.0571968
      ],
      [
        -104.6291357,
        38.0562954
      ],
      [
        -104.6291361,
        38.0560424
      ],
      [
        -104.6291367,
        38.0557141
      ],
      [
        -104.6291396,
        38.05494
      ],
      [
        -104.6291325,
        38.0526128
      ],
      [
        -104.6291422,
        38.0523061
      ],
      [
        -104.6291219,
        38.0508486
      ],
      [
        -104.6291156,
        38.049758
      ],
      [
        -104.6291119,
        38.0489429
      ],
      [
        -104.6291135,
        38.0476755
      ],
      [
        -104.629053,
        38.0467923
      ],
      [
        -104.628966,
        38.046095
      ],
      [
        -104.6288255,
        38.0454101
      ],
      [
        -104.6286217,
        38.0446441
      ],
      [
        -104.6284032,
        38.043934
      ],
      [
        -104.6281087,
        38.0431197
      ],
      [
        -104.6279802,
        38.0427887
      ],
      [
        -104.6275139,
        38.0418411
      ],
      [
        -104.6273055,
        38.0413358
      ],
      [
        -104.6267613,
        38.0402511
      ],
      [
        -104.6261905,
        38.0390406
      ],
      [
        -104.6254734,
        38.037548
      ],
      [
        -104.6248174,
        38.036135
      ],
      [
        -104.6243276,
        38.0350975
      ],
      [
        -104.6234284,
        38.0331964
      ],
      [
        -104.6231535,
        38.0326041
      ],
      [
        -104.6230074,
        38.0322596
      ],
      [
        -104.6227318,
        38.0317276
      ],
      [
        -104.6222594,
        38.0307366
      ],
      [
        -104.6220068,
        38.0301512
      ],
      [
        -104.6217106,
        38.0294808
      ],
      [
        -104.6212826,
        38.0286552
      ],
      [
        -104.620841,
        38.0277446
      ],
      [
        -104.6203111,
        38.0266225
      ],
      [
        -104.6199728,
        38.025954
      ],
      [
        -104.6196573,
        38.0254163
      ],
      [
        -104.6193234,
        38.0249422
      ],
      [
        -104.6191454,
        38.0247266
      ],
      [
        -104.6187873,
        38.0243123
      ],
      [
        -104.6183541,
        38.0239049
      ],
      [
        -104.617718,
        38.0233772
      ],
      [
        -104.616001,
        38.0222367
      ],
      [
        -104.6150005,
        38.0215551
      ],
      [
        -104.6146447,
        38.0212827
      ],
      [
        -104.6141714,
        38.020891
      ],
      [
        -104.6138055,
        38.0205296
      ],
      [
        -104.6133292,
        38.0199737
      ],
      [
        -104.6129305,
        38.019445
      ],
      [
        -104.6126057,
        38.0189223
      ],
      [
        -104.6122853,
        38.0182475
      ],
      [
        -104.6120894,
        38.0177203
      ],
      [
        -104.6119551,
        38.0172066
      ],
      [
        -104.6118595,
        38.0166941
      ],
      [
        -104.6117711,
        38.0158453
      ],
      [
        -104.6117373,
        38.0151888
      ],
      [
        -104.6116621,
        38.0143113
      ],
      [
        -104.6115427,
        38.0128676
      ],
      [
        -104.6114839,
        38.0120379
      ],
      [
        -104.6113866,
        38.0107105
      ],
      [
        -104.611329,
        38.0097861
      ],
      [
        -104.6112426,
        38.0087053
      ],
      [
        -104.6110805,
        38.0068007
      ],
      [
        -104.6110134,
        38.0058577
      ],
      [
        -104.6109025,
        38.0045407
      ],
      [
        -104.6108182,
        38.0034295
      ],
      [
        -104.6107366,
        38.0024259
      ],
      [
        -104.610672,
        38.0015087
      ],
      [
        -104.610597,
        38.0005688
      ],
      [
        -104.6104357,
        37.9985282
      ],
      [
        -104.6103641,
        37.9976402
      ],
      [
        -104.6102737,
        37.9964269
      ],
      [
        -104.6101738,
        37.9951881
      ],
      [
        -104.6101577,
        37.9944967
      ],
      [
        -104.6101797,
        37.9939395
      ],
      [
        -104.6102527,
        37.9933026
      ],
      [
        -104.6103796,
        37.9926184
      ],
      [
        -104.6105342,
        37.9920746
      ],
      [
        -104.6108207,
        37.991273
      ],
      [
        -104.6132583,
        37.9845058
      ],
      [
        -104.6138908,
        37.9827432
      ],
      [
        -104.6145276,
        37.9809839
      ],
      [
        -104.6148542,
        37.9800966
      ],
      [
        -104.616137,
        37.976558
      ],
      [
        -104.6165189,
        37.9755062
      ],
      [
        -104.6177616,
        37.972055
      ],
      [
        -104.617921,
        37.9715966
      ],
      [
        -104.6181451,
        37.9709325
      ],
      [
        -104.6183086,
        37.9702634
      ],
      [
        -104.6184057,
        37.9697101
      ],
      [
        -104.6184484,
        37.9693059
      ],
      [
        -104.6184744,
        37.9689167
      ],
      [
        -104.6184846,
        37.968582
      ],
      [
        -104.6184771,
        37.9681065
      ],
      [
        -104.6183896,
        37.9673025
      ],
      [
        -104.6181776,
        37.9662191
      ],
      [
        -104.6178962,
        37.9650049
      ],
      [
        -104.6176665,
        37.9639624
      ],
      [
        -104.6174969,
        37.9632764
      ],
      [
        -104.6172354,
        37.9620827
      ],
      [
        -104.6169101,
        37.9606915
      ],
      [
        -104.6166822,
        37.9596832
      ],
      [
        -104.6163921,
        37.9584166
      ],
      [
        -104.616102,
        37.9571417
      ],
      [
        -104.6157484,
        37.9555997
      ],
      [
        -104.6156238,
        37.9549398
      ],
      [
        -104.6155038,
        37.9540418
      ],
      [
        -104.6154343,
        37.9533168
      ],
      [
        -104.6153997,
        37.952763
      ],
      [
        -104.6153768,
        37.9522455
      ],
      [
        -104.6153793,
        37.9512382
      ],
      [
        -104.6154163,
        37.9504405
      ],
      [
        -104.615474,
        37.9497215
      ],
      [
        -104.6156025,
        37.948836
      ],
      [
        -104.6158039,
        37.9477487
      ],
      [
        -104.6160898,
        37.9466264
      ],
      [
        -104.6161899,
        37.9462675
      ],
      [
        -104.6164782,
        37.9453039
      ],
      [
        -104.6170239,
        37.9434646
      ],
      [
        -104.6175314,
        37.9417684
      ],
      [
        -104.6175774,
        37.941611
      ],
      [
        -104.6177475,
        37.9410264
      ],
      [
        -104.6178274,
        37.940754
      ],
      [
        -104.6179627,
        37.9403318
      ],
      [
        -104.6181439,
        37.9397153
      ],
      [
        -104.6184791,
        37.9385729
      ],
      [
        -104.6187955,
        37.9375343
      ],
      [
        -104.6191308,
        37.9364111
      ],
      [
        -104.619344,
        37.9357034
      ],
      [
        -104.6195894,
        37.9348858
      ],
      [
        -104.6198148,
        37.9341368
      ],
      [
        -104.6201259,
        37.9331067
      ],
      [
        -104.6203163,
        37.9324636
      ],
      [
        -104.6210003,
        37.9301766
      ],
      [
        -104.6212444,
        37.9293706
      ],
      [
        -104.6215294,
        37.9284379
      ],
      [
        -104.6220021,
        37.9269321
      ],
      [
        -104.6221671,
        37.9265207
      ],
      [
        -104.6224152,
        37.9259949
      ],
      [
        -104.6226351,
        37.9255633
      ],
      [
        -104.622796,
        37.925284
      ],
      [
        -104.6233714,
        37.9244451
      ],
      [
        -104.6238005,
        37.9239099
      ],
      [
        -104.6241693,
        37.9235025
      ],
      [
        -104.6247259,
        37.9229662
      ],
      [
        -104.6252409,
        37.9225176
      ],
      [
        -104.6257049,
        37.9221452
      ],
      [
        -104.6262226,
        37.9217792
      ],
      [
        -104.6267013,
        37.9214924
      ],
      [
        -104.6271573,
        37.9212237
      ],
      [
        -104.6277943,
        37.9208969
      ],
      [
        -104.6283858,
        37.9206313
      ],
      [
        -104.6288753,
        37.9204399
      ],
      [
        -104.6293688,
        37.9202558
      ],
      [
        -104.6298194,
        37.9201077
      ],
      [
        -104.6302056,
        37.9199892
      ],
      [
        -104.630726,
        37.9198495
      ],
      [
        -104.6313228,
        37.9197087
      ],
      [
        -104.631831,
        37.9196126
      ],
      [
        -104.6323715,
        37.919531
      ],
      [
        -104.63292,
        37.9194623
      ],
      [
        -104.633372,
        37.9194188
      ],
      [
        -104.6339473,
        37.919384
      ],
      [
        -104.6345414,
        37.9193702
      ],
      [
        -104.6350738,
        37.9193735
      ],
      [
        -104.63557,
        37.9193946
      ],
      [
        -104.6360046,
        37.9194285
      ],
      [
        -104.6365303,
        37.919475
      ],
      [
        -104.6398443,
        37.9199003
      ],
      [
        -104.6423319,
        37.9202092
      ],
      [
        -104.6455479,
        37.920624
      ],
      [
        -104.6471089,
        37.9208229
      ],
      [
        -104.6476668,
        37.9208779
      ],
      [
        -104.6480933,
        37.9209096
      ],
      [
        -104.6486378,
        37.9209202
      ],
      [
        -104.6492399,
        37.9209063
      ],
      [
        -104.6497764,
        37.9208746
      ],
      [
        -104.6502753,
        37.9208175
      ],
      [
        -104.6507809,
        37.9207361
      ],
      [
        -104.6513669,
        37.9206228
      ],
      [
        -104.6519691,
        37.9204674
      ],
      [
        -104.6526074,
        37.9202643
      ],
      [
        -104.6531573,
        37.920059
      ],
      [
        -104.6536669,
        37.9198284
      ],
      [
        -104.6539555,
        37.9196867
      ],
      [
        -104.6541993,
        37.919567
      ],
      [
        -104.6546124,
        37.9193342
      ],
      [
        -104.6565074,
        37.9181885
      ],
      [
        -104.6581931,
        37.917159
      ],
      [
        -104.6591279,
        37.9165804
      ],
      [
        -104.6608257,
        37.9155499
      ],
      [
        -104.6628065,
        37.9143256
      ],
      [
        -104.6636152,
        37.9138274
      ],
      [
        -104.6643461,
        37.9133395
      ],
      [
        -104.664951,
        37.9128602
      ],
      [
        -104.66547,
        37.9123746
      ],
      [
        -104.6659648,
        37.9118255
      ],
      [
        -104.6663712,
        37.9112826
      ],
      [
        -104.6667494,
        37.9106647
      ],
      [
        -104.6670847,
        37.909977
      ],
      [
        -104.6672201,
        37.909595
      ],
      [
        -104.6673435,
        37.9091994
      ],
      [
        -104.6674186,
        37.9088671
      ],
      [
        -104.6674937,
        37.9084841
      ],
      [
        -104.6675608,
        37.9077581
      ],
      [
        -104.6675581,
        37.9073392
      ],
      [
        -104.6675393,
        37.9069053
      ],
      [
        -104.6674883,
        37.9065646
      ],
      [
        -104.6673945,
        37.9060652
      ],
      [
        -104.6670914,
        37.9047234
      ],
      [
        -104.6668714,
        37.9037244
      ],
      [
        -104.6667185,
        37.9030769
      ],
      [
        -104.6664476,
        37.9018938
      ],
      [
        -104.6662867,
        37.9011869
      ],
      [
        -104.6661875,
        37.9006831
      ],
      [
        -104.6661285,
        37.900262
      ],
      [
        -104.6660936,
        37.8998789
      ],
      [
        -104.6660909,
        37.8993879
      ],
      [
        -104.6661392,
        37.8988819
      ],
      [
        -104.6661875,
        37.8984863
      ],
      [
        -104.6662974,
        37.8979952
      ],
      [
        -104.6664342,
        37.897574
      ],
      [
        -104.6666193,
        37.8970682
      ],
      [
        -104.6668956,
        37.89652
      ],
      [
        -104.6672067,
        37.8960014
      ],
      [
        -104.6676922,
        37.8953495
      ],
      [
        -104.668301,
        37.8946827
      ],
      [
        -104.6686766,
        37.8943187
      ],
      [
        -104.669044,
        37.8940202
      ],
      [
        -104.6693753,
        37.8937757
      ],
      [
        -104.6697186,
        37.8935449
      ],
      [
        -104.6699922,
        37.8933777
      ],
      [
        -104.670471,
        37.8931058
      ],
      [
        -104.6729332,
        37.8918273
      ],
      [
        -104.6752238,
        37.8906419
      ],
      [
        -104.6766669,
        37.8898968
      ],
      [
        -104.6781823,
        37.8891178
      ],
      [
        -104.6791211,
        37.8886374
      ],
      [
        -104.6811917,
        37.8875599
      ],
      [
        -104.6833643,
        37.8864359
      ],
      [
        -104.6856724,
        37.8852386
      ],
      [
        -104.6870939,
        37.884502
      ],
      [
        -104.6893215,
        37.8833388
      ],
      [
        -104.6909912,
        37.882476
      ],
      [
        -104.692862,
        37.8815076
      ],
      [
        -104.6938182,
        37.8810174
      ],
      [
        -104.6959362,
        37.8799191
      ],
      [
        -104.697969,
        37.8788675
      ],
      [
        -104.7002301,
        37.8776925
      ],
      [
        -104.7027232,
        37.8764106
      ],
      [
        -104.7037464,
        37.8758634
      ],
      [
        -104.7052552,
        37.8749476
      ],
      [
        -104.7063683,
        37.8742299
      ],
      [
        -104.7072279,
        37.8736382
      ],
      [
        -104.7083169,
        37.8728378
      ],
      [
        -104.7089016,
        37.8723721
      ]
    ]
  },
  "properties": {
    "relation_id": -1,
    "relation_tags": {
      "line_group": "0"
    },
    "length_m": 49114.66687897406,
    "num_vertices": 497,
    "maxspeed_coverage": 1.0,
    "is_service": false,
    "service_kind": null,
    "line_group": 0,
    "group_order": null,
    "used_way_ids": [
      17066097,
      17130106,
      52279516,
      99184667,
      177258314,
      177258315,
      319508772,
      319508773,
      625569373
    ],
    "n_gaps": 0,
    "n_branches": 0,
    "dropped_way_ids": [],
    "order": [],
    "s_m": [
      0.0,
      124.19992522816618,
      156.74603734748226,
      190.13065320822403,
      245.3441410862703,
      260.202014332267,
      373.5731931622157,
      404.0579177941569,
      423.74083030946576,
      437.5438158445972,
      454.11229883122905,
      467.4012136603908,
      482.79501989974665,
      499.3305822006343,
      518.0885759465939,
      614.9552861149796,
      670.0023390896986,
      691.8034743215484,
      701.2160131824901,
      712.1653059662547,
      736.2590942405333,
      749.14211168518,
      763.6903376485461,
      776.2172438729899,
      791.4513964338202,
      811.3140586526123,
      834.8911382645202,
      853.3357496703654,
      881.935871243931,
      904.9690223269573,
      930.2116154949208,
      949.5952067878836,
      974.4190609124707,
      994.8473011007953,
      1018.8926331422878,
      1034.731583460578,
      1059.7794263920791,
      1073.706760300763,
      1101.3698215093914,
      1123.8966190484168,
      1139.5457843016932,
      1156.182853534239,
      1172.315316329772,
      1191.8165701694554,
      1261.89085988367,
      1285.4144756239677,
      1303.1264795730788,
      1321.07564093304,
      1338.895719353873,
      1350.7299443226839,
      1364.7773622338034,
      1382.9590304491444,
      1401.0444193202432,
      1420.6852796719324,
      1434.4504850253873,
      1454.6278163716877,
      1474.0203376316526,
      1491.6023617485762,
      1509.907202247295,
      1532.175495584243,
      1694.6972177152018,
      1723.511236870828,
      1754.5825897565283,
      2100.4220555290844,
      2185.426473245427,
      2226.535294407792,
      2398.41704202769,
      2528.263557998937,
      2647.152043219189,
      2657.849009937037,
      2683.058207052812,
      2746.1856866168964,
      2929.2436990025562,
      3031.7348304610327,
      3192.2161626924544,
      3226.880908649004,
      3332.8898344181034,
      3362.084585461958,
      3428.1195014201753,
      3439.2056543604476,
      3471.6190390794773,
      3511.6968047148553,
      3539.7408306970956,
      3569.8031175781525,
      3603.4072255816836,
      3644.407981831923,
      3667.6494477101455,
      3696.0190087595847,
      3738.1053414292987,
      3856.5772947774817,
      3888.6311448684764,
      3921.755506678852,
      3955.725621660375,
      3996.597250620239,
      4008.354910418065,
      4020.48037719993,
      4039.2853469317765,
      4072.140962819909,
      4141.581741949467,
      4365.445701495617,
      4539.352247775451,
      4652.030818445005,
      4809.643168269776,
      4939.434388160032,
      5200.560299732054,
      5438.974088550628,
      5532.620187774591,
      5536.930385398068,
      5574.391493183623,
      5599.527125861481,
      5619.709948244905,
      5660.27637459809,
      5702.197705111827,
      5717.516535003234,
      5742.458401055051,
      5801.307596821399,
      5925.842253200868,
      5965.648161424614,
      5968.708471826288,
      6017.957377597869,
      6097.546582288588,
      6159.155747350688,
      6224.346418246784,
      6274.353339287206,
      6408.582825038442,
      6523.63064748359,
      7644.089102053799,
      7994.143033123324,
      10201.280391511831,
      11208.922326337115,
      11235.868518303272,
      11240.974289224914,
      11387.323238799678,
      11644.50603947042,
      11708.15047466749,
      11780.836711361977,
      11900.01095642453,
      12024.854632756835,
      12132.494939159305,
      12256.083762249282,
      12354.60770324309,
      12449.53657877804,
      12492.69956751935,
      12567.900601423973,
      12660.439826596341,
      12731.282523591257,
      12801.501707175668,
      12908.384509343934,
      12984.899264028141,
      13006.564064113567,
      13062.678227963168,
      13093.303422213801,
      13154.505556801554,
      13198.554779762382,
      13263.53477100579,
      13329.674454067668,
      13364.455641270944,
      13437.124933334007,
      13467.163032925184,
      13618.874926455748,
      13671.062415176057,
      13714.698319198133,
      13864.423812109126,
      14008.517939551437,
      14122.759348976626,
      14239.930570871396,
      14346.335478424471,
      14394.815096017644,
      14471.710271597161,
      14595.298102929413,
      14704.59624218109,
      14905.234731254188,
      15053.291756691548,
      15193.748709691221,
      15358.717586849934,
      15500.245929526443,
      15654.274779793042,
      15788.552331853703,
      15934.354213540622,
      16031.339068798045,
      16176.416030614802,
      16289.397023820295,
      16416.81188323643,
      16529.606477923946,
      16626.608880718057,
      16732.17442859823,
      16822.854067797805,
      16892.28734993871,
      16946.69136841258,
      17016.764371342364,
      17137.939991412404,
      17210.815440367656,
      17309.42454324507,
      17396.208594293745,
      17470.176874275727,
      17518.22029868059,
      17573.454110923685,
      17656.996967325016,
      17703.85390653599,
      17754.02710022417,
      17788.59341605165,
      17854.076451073204,
      17952.53404989736,
      18031.873078032633,
      18110.599840348685,
      18159.67997583518,
      18245.66727815396,
      18322.90301634075,
      18422.830542564105,
      18618.974681401683,
      18700.56217518636,
      18869.293161620924,
      19006.449454357586,
      19137.47632588296,
      19181.309431627997,
      19235.145663077477,
      19363.943501949994,
      19521.128132596652,
      19806.32882355176,
      19914.422626151412,
      19985.13551863492,
      20068.97717879611,
      20140.393081982187,
      20218.143311556858,
      20273.931133625127,
      20411.787540556554,
      20566.957668034607,
      20728.95933180328,
      20840.490893358714,
      21038.039633783683,
      21244.164042354725,
      21509.274846726923,
      21634.1863915976,
      22130.34151141136,
      22265.175064279,
      22372.589514995267,
      22497.317213469432,
      22611.78351859176,
      22726.236620034448,
      22811.145401766884,
      22969.331699536222,
      23109.017984492766,
      23209.249235933446,
      23237.381613032445,
      23273.88699567281,
      23359.963481790386,
      23618.7374192421,
      23652.85152486072,
      23814.928101478446,
      23936.198710672976,
      24026.83439963424,
      24167.76311396492,
      24266.113398246453,
      24344.023101419418,
      24421.16802001002,
      24508.19304272332,
      24589.437944608868,
      24683.585227041618,
      24722.072613449283,
      24835.077071616943,
      24894.15360380245,
      25023.84107497899,
      25167.42524548136,
      25344.879476249364,
      25512.17255089832,
      25635.25463424436,
      25860.8408746971,
      25930.964622254545,
      25971.35202654851,
      26035.243074100294,
      26152.94912979923,
      26221.69986773403,
      26300.630480878528,
      26399.792261193008,
      26508.182836832955,
      26641.30806701708,
      26721.330550622017,
      26787.19790185422,
      26847.48509242004,
      26876.08289333174,
      26931.815986528814,
      26990.90956094478,
      27071.827229426264,
      27268.55925291809,
      27384.425882508905,
      27427.886738664878,
      27488.019753328936,
      27539.422557732585,
      27613.999503048402,
      27682.38037568039,
      27747.09259886389,
      27827.204637202045,
      27888.286945086962,
      27946.60686312727,
      28004.206431161918,
      28098.905988953047,
      28171.965587444705,
      28269.76141689996,
      28430.63418618953,
      28523.036447909864,
      28670.882747680076,
      28773.795280244325,
      28894.21307943216,
      29106.470896035844,
      29211.492535363024,
      29358.25845790108,
      29482.039001905214,
      29593.863186454815,
      29696.008264836524,
      29800.726925550935,
      30028.07136596765,
      30127.011718624028,
      30262.157063303726,
      30400.18341136719,
      30477.076633788907,
      30539.064518423864,
      30610.17299295512,
      30687.061096229772,
      30749.028112651766,
      30841.630585377174,
      31623.84587741708,
      31827.526887121727,
      32030.958264705903,
      32133.69029316888,
      32542.91435773515,
      32664.565439733025,
      33063.48186358236,
      33116.33407725915,
      33192.746896897,
      33268.51537487083,
      33330.625601984204,
      33375.7262461005,
      33419.0633447117,
      33456.291077262256,
      33509.168425338394,
      33598.89771674965,
      33720.79153296024,
      33858.03973969061,
      33975.696597488466,
      34053.41194709675,
      34188.11071382612,
      34345.41213236822,
      34459.296504267346,
      34602.41423802893,
      34746.44037168991,
      34920.68334445152,
      34994.86973922956,
      35095.27569089875,
      35176.1220990642,
      35237.776615747534,
      35295.355089306155,
      35407.36210811744,
      35496.12173257847,
      35576.23091394112,
      35675.33673119701,
      35797.522072490436,
      35924.80945571173,
      35965.671239165844,
      36075.76074782548,
      36285.80527921726,
      36479.59367877808,
      36497.55462819707,
      36564.24876587915,
      36595.338156624144,
      36643.76085448107,
      36714.13019990827,
      36844.51628697028,
      36963.290055375495,
      37091.599272996435,
      37172.48280708558,
      37265.90856138939,
      37351.507495386344,
      37469.25428427891,
      37542.687673404114,
      37803.97087413104,
      37896.115754152604,
      38002.79725565621,
      38175.29154237227,
      38223.271851490776,
      38285.65663927925,
      38337.37926885487,
      38371.492265884524,
      38477.55193235441,
      38547.96668964753,
      38603.63195843815,
      38680.70195892552,
      38747.99870774266,
      38806.06077662829,
      38867.03947949055,
      38919.7667907399,
      38969.69284406495,
      39036.34566475121,
      39096.047138688395,
      39143.97014187882,
      39191.855272056804,
      39234.6744892688,
      39271.023669982416,
      39319.243053297934,
      39373.88456327505,
      39419.72612094126,
      39467.99862083185,
      39516.71516387335,
      39556.65814570963,
      39607.27110382405,
      39659.40764493345,
      39706.11077197777,
      39749.70020508597,
      39788.00884364307,
      39834.41173304485,
      40128.9333773335,
      40349.82838677621,
      40635.6749911318,
      40774.376760724845,
      40823.69496236665,
      40861.27210301707,
      40909.04872967299,
      40961.885945531474,
      41009.07813252645,
      41053.29853956098,
      41098.562708796926,
      41151.48660426549,
      41207.06470782144,
      41267.43811320304,
      41320.80354828502,
      41372.337040147184,
      41402.15553985103,
      41427.34507011427,
      41471.87818307715,
      41681.31060930883,
      41868.31493391455,
      41972.5442395319,
      42160.45936527109,
      42381.20171617614,
      42471.21207636951,
      42555.20334092377,
      42630.41256193696,
      42701.04275200989,
      42775.957473258255,
      42846.067377974374,
      42922.366592514445,
      43004.29814109906,
      43048.40436371582,
      43093.70574094882,
      43131.23868470729,
      43174.33304710896,
      43255.27503276664,
      43301.855254196606,
      43350.13098446218,
      43388.27846849334,
      43444.415775929076,
      43595.96866606791,
      43708.71707679972,
      43781.95501878549,
      43915.63986030095,
      43995.501363588075,
      44052.19358340675,
      44099.30312678965,
      44142.01188287164,
      44196.609181250955,
      44253.033274635534,
      44297.22572976904,
      44352.67852642812,
      44401.027629567965,
      44459.56828159684,
      44525.16978065863,
      44588.970423459774,
      44673.050134277786,
      44764.43546206938,
      44816.632074381465,
      44862.903536580365,
      44902.7066940174,
      44942.28090656093,
      44972.64634364138,
      45024.40867874916,
      45283.04491408359,
      45523.41464802301,
      45674.74688750688,
      45833.45361830466,
      45931.64101530804,
      46149.2945637084,
      46377.27047383529,
      46619.662557539574,
      46768.89901601524,
      47003.31020427928,
      47178.46010829698,
      47374.80952471588,
      47474.87827941797,
      47697.29408008469,
      47910.61134402896,
      48148.21174393609,
      48409.36196456414,
      48517.84018687786,
      48684.895537875855,
      48811.046277833666,
      48911.15403736598,
      49041.75951985558,
      49114.66687897406
    ],
    "way_id": [
      625569373,
      625569373,
      625569373,
      625569373,
      625569373,
      625569373,
      52279516,
      17130106,
      17130106,
      17130106,
      17130106,
      17130106,
      17130106,
      17130106,
      17130106,
      17130106,
      177258315,
      177258314,
      177258314,
      177258314,
      177258314,
      177258314,
      177258314,
      177258314,
      177258314,
      177258314,
      177258314,
      177258314,
      177258314,
      177258314,
      177258314,
      177258314,
      177258314,
      177258314,
      177258314,
      177258314,
      177258314,
      177258314,
      177258314,
      177258314,
      177258314,
      177258314,
      177258314,
      177258314,
      177258314,
      177258314,
      177258314,
      177258314,
      177258314,
      177258314,
      177258314,
      177258314,
      177258314,
      177258314,
      177258314,
      177258314,
      177258314,
      177258314,
      177258314,
      177258314,
      177258314,
      177258314,
      177258314,
      177258314,
      177258314,
      177258314,
      177258314,
      99184667,
      99184667,
      319508772,
      319508773,
      319508773,
      319508773,
      319508773,
      319508773,
      319508773,
      319508773,
      319508773,
      319508773,
      319508773,
      319508773,
      319508773,
      319508773,
      319508773,
      319508773,
      319508773,
      319508773,
      319508773,
      319508773,
      319508773,
      319508773,
      319508773,
      319508773,
      319508773,
      319508773,
      319508773,
      319508773,
      319508773,
      319508773,
      319508773,
      319508773,
      319508773,
      319508773,
      319508773,
      319508773,
      319508773,
      319508773,
      319508773,
      319508773,
      319508773,
      319508773,
      319508773,
      319508773,
      319508773,
      319508773,
      319508773,
      319508773,
      319508773,
      319508773,
      319508773,
      319508773,
      319508773,
      319508773,
      319508773,
      319508773,
      319508773,
      17066097,
      17066097,
      17066097,
      17066097,
      17066097,
      17066097,
      17066097,
      17066097,
      17066097,
      17066097,
      17066097,
      17066097,
      17066097,
      17066097,
      17066097,
      17066097,
      17066097,
      17066097,
      17066097,
      17066097,
      17066097,
      17066097,
      17066097,
      17066097,
      17066097,
      17066097,
      17066097,
      17066097,
      17066097,
      17066097,
      17066097,
      17066097,
      17066097,
      17066097,
      17066097,
      17066097,
      17066097,
      17066097,
      17066097,
      17066097,
      17066097,
      17066097,
      17066097,
      17066097,
      17066097,
      17066097,
      17066097,
      17066097,
      17066097,
      17066097,
      17066097,
      17066097,
      17066097,
      17066097,
      17066097,
      17066097,
      17066097,
      17066097,
      17066097,
      17066097,
      17066097,
      17066097,
      17066097,
      17066097,
      17066097,
      17066097,
      17066097,
      17066097,
      17066097,
      17066097,
      17066097,
      17066097,
      17066097,
      17066097,
      17066097,
      17066097,
      17066097,
      17066097,
      17066097,
      17066097,
      17066097,
      17066097,
      17066097,
      17066097,
      17066097,
      17066097,
      17066097,
      17066097,
      17066097,
      17066097,
      17066097,
      17066097,
      17066097,
      17066097,
      17066097,
      17066097,
      17066097,
      17066097,
      17066097,
      17066097,
      17066097,
      17066097,
      17066097,
      17066097,
      17066097,
      17066097,
      17066097,
      17066097,
      17066097,
      17066097,
      17066097,
      17066097,
      17066097,
      17066097,
      17066097,
      17066097,
      17066097,
      17066097,
      17066097,
      17066097,
      17066097,
      17066097,
      17066097,
      17066097,
      17066097,
      17066097,
      17066097,
      17066097,
      17066097,
      17066097,
      17066097,
      17066097,
      17066097,
      17066097,
      17066097,
      17066097,
      17066097,
      17066097,
      17066097,
      17066097,
      17066097,
      17066097,
      17066097,
      17066097,
      17066097,
      17066097,
      17066097,
      17066097,
      17066097,
      17066097,
      17066097,
      17066097,
      17066097,
      17066097,
      17066097,
      17066097,
      17066097,
      17066097,
      17066097,
      17066097,
      17066097,
      17066097,
      17066097,
      17066097,
      17066097,
      17066097,
      17066097,
      17066097,
      17066097,
      17066097,
      17066097,
      17066097,
      17066097,
      17066097,
      17066097,
      17066097,
      17066097,
      17066097,
      17066097,
      17066097,
      17066097,
      17066097,
      17066097,
      17066097,
      17066097,
      17066097,
      17066097,
      17066097,
      17066097,
      17066097,
      17066097,
      17066097,
      17066097,
      17066097,
      17066097,
      17066097,
      17066097,
      17066097,
      17066097,
      17066097,
      17066097,
      17066097,
      17066097,
      17066097,
      17066097,
      17066097,
      17066097,
      17066097,
      17066097,
      17066097,
      17066097,
      17066097,
      17066097,
      17066097,
      17066097,
      17066097,
      17066097,
      17066097,
      17066097,
      17066097,
      17066097,
      17066097,
      17066097,
      17066097,
      17066097,
      17066097,
      17066097,
      17066097,
      17066097,
      17066097,
      17066097,
      17066097,
      17066097,
      17066097,
      17066097,
      17066097,
      17066097,
      17066097,
      17066097,
      17066097,
      17066097,
      17066097,
      17066097,
      17066097,
      17066097,
      17066097,
      17066097,
      17066097,
      17066097,
      17066097,
      17066097,
      17066097,
      17066097,
      17066097,
      17066097,
      17066097,
      17066097,
      17066097,
      17066097,
      17066097,
      17066097,
      17066097,
      17066097,
      17066097,
      17066097,
      17066097,
      17066097,
      17066097,
      17066097,
      17066097,
      17066097,
      17066097,
      17066097,
      17066097,
      17066097,
      17066097,
      17066097,
      17066097,
      17066097,
      17066097,
      17066097,
      17066097,
      17066097,
      17066097,
      17066097,
      17066097,
      17066097,
      17066097,
      17066097,
      17066097,
      17066097,
      17066097,
      17066097,
      17066097,
      17066097,
      17066097,
      17066097,
      17066097,
      17066097,
      17066097,
      17066097,
      17066097,
      17066097,
      17066097,
      17066097,
      17066097,
      17066097,
      17066097,
      17066097,
      17066097,
      17066097,
      17066097,
      17066097,
      17066097,
      17066097,
      17066097,
      17066097,
      17066097,
      17066097,
      17066097,
      17066097,
      17066097,
      17066097,
      17066097,
      17066097,
      17066097,
      17066097,
      17066097,
      17066097,
      17066097,
      17066097,
      17066097,
      17066097,
      17066097,
      17066097,
      17066097,
      17066097,
      17066097,
      17066097,
      17066097,
      17066097,
      17066097,
      17066097,
      17066097,
      17066097,
      17066097,
      17066097,
      17066097,
      17066097,
      17066097,
      17066097,
      17066097,
      17066097,
      17066097,
      17066097,
      17066097,
      17066097,
      17066097,
      17066097,
      17066097,
      17066097,
      17066097,
      17066097,
      17066097,
      17066097,
      17066097,
      17066097,
      17066097,
      17066097,
      17066097,
      17066097
    ],
    "maxspeed_kph": [
      19.312128,
      19.312128,
      19.312128,
      19.312128,
      19.312128,
      19.312128,
      19.312128,
      19.312128,
      19.312128,
      19.312128,
      19.312128,
      19.312128,
      19.312128,
      19.312128,
      19.312128,
      19.312128,
      19.312128,
      19.312128,
      19.312128,
      19.312128,
      19.312128,
      19.312128,
      19.312128,
      19.312128,
      19.312128,
      19.312128,
      19.312128,
      19.312128,
      19.312128,
      19.312128,
      19.312128,
      19.312128,
      19.312128,
      19.312128,
      19.312128,
      19.312128,
      19.312128,
      19.312128,
      19.312128,
      19.312128,
      19.312128,
      19.312128,
      19.312128,
      19.312128,
      19.312128,
      19.312128,
      19.312128,
      19.312128,
      19.312128,
      19.312128,
      19.312128,
      19.312128,
      19.312128,
      19.312128,
      19.312128,
      19.312128,
      19.312128,
      19.312128,
      19.312128,
      19.312128,
      19.312128,
      19.312128,
      19.312128,
      19.312128,
      19.312128,
      19.312128,
      19.312128,
      19.312128,
      19.312128,
      19.312128,
      19.312128,
      19.312128,
      19.312128,
      19.312128,
      19.312128,
      19.312128,
      19.312128,
      19.312128,
      19.312128,
      19.312128,
      19.312128,
      19.312128,
      19.312128,
      19.312128,
      19.312128,
      19.312128,
      19.312128,
      19.312128,
      19.312128,
      19.312128,
      19.312128,
      19.312128,
      19.312128,
      19.312128,
      19.312128,
      19.312128,
      19.312128,
      19.312128,
      19.312128,
      19.312128,
      19.312128,
      19.312128,
      19.312128,
      19.312128,
      19.312128,
      19.312128,
      19.312128,
      19.312128,
      19.312128,
      19.312128,
      19.312128,
      19.312128,
      19.312128,
      19.312128,
      19.312128,
      19.312128,
      19.312128,
      19.312128,
      19.312128,
      19.312128,
      19.312128,
      19.312128,
      19.312128,
      19.312128,
      19.312128,
      19.312128,
      64.37376,
      64.37376,
      64.37376,
      64.37376,
      64.37376,
      64.37376,
      64.37376,
      64.37376,
      64.37376,
      64.37376,
      64.37376,
      64.37376,
      64.37376,
      64.37376,
      64.37376,
      64.37376,
      64.37376,
      64.37376,
      64.37376,
      64.37376,
      64.37376,
      64.37376,
      64.37376,
      64.37376,
      64.37376,
      64.37376,
      64.37376,
      64.37376,
      64.37376,
      64.37376,
      64.37376,
      64.37376,
      64.37376,
      64.37376,
      64.37376,
      64.37376,
      64.37376,
      64.37376,
      64.37376,
      64.37376,
      64.37376,
      64.37376,
      64.37376,
      64.37376,
      64.37376,
      64.37376,
      64.37376,
      64.37376,
      64.37376,
      64.37376,
      64.37376,
      64.37376,
      64.37376,
      64.37376,
      64.37376,
      64.37376,
      64.37376,
      64.37376,
      64.37376,
      64.37376,
      64.37376,
      64.37376,
      64.37376,
      64.37376,
      64.37376,
      64.37376,
      64.37376,
      64.37376,
      64.37376,
      64.37376,
      64.37376,
      64.37376,
      64.37376,
      64.37376,
      64.37376,
      64.37376,
      64.37376,
      64.37376,
      64.37376,
      64.37376,
      64.37376,
      64.37376,
      64.37376,
      64.37376,
      64.37376,
      64.37376,
      64.37376,
      64.37376,
      64.37376,
      64.37376,
      64.37376,
      64.37376,
      64.37376,
      64.37376,
      64.37376,
      64.37376,
      64.37376,
      64.37376,
      64.37376,
      64.37376,
      64.37376,
      64.37376,
      64.37376,
      64.37376,
      64.37376,
      64.37376,
      64.37376,
      64.37376,
      64.37376,
      64.37376,
      64.37376,
      64.37376,
      64.37376,
      64.37376,
      64.37376,
      64.37376,
      64.37376,
      64.37376,
      64.37376,
      64.37376,
      64.37376,
      64.37376,
      64.37376,
      64.37376,
      64.37376,
      64.37376,
      64.37376,
      64.37376,
      64.37376,
      64.37376,
      64.37376,
      64.37376,
      64.37376,
      64.37376,
      64.37376,
      64.37376,
      64.37376,
      64.37376,
      64.37376,
      64.37376,
      64.37376,
      64.37376,
      64.37376,
      64.37376,
      64.37376,
      64.37376,
      64.37376,
      64.37376,
      64.37376,
      64.37376,
      64.37376,
      64.37376,
      64.37376,
      64.37376,
      64.37376,
      64.37376,
      64.37376,
      64.37376,
      64.37376,
      64.37376,
      64.37376,
      64.37376,
      64.37376,
      64.37376,
      64.37376,
      64.37376,
      64.37376,
      64.37376,
      64.37376,
      64.37376,
      64.37376,
      64.37376,
      64.37376,
      64.37376,
      64.37376,
      64.37376,
      64.37376,
      64.37376,
      64.37376,
      64.37376,
      64.37376,
      64.37376,
      64.37376,
      64.37376,
      64.37376,
      64.37376,
      64.37376,
      64.37376,
      64.37376,
      64.37376,
      64.37376,
      64.37376,
      64.37376,
      64.37376,
      64.37376,
      64.37376,
      64.37376,
      64.37376,
      64.37376,
      64.37376,
      64.37376,
      64.37376,
      64.37376,
      64.37376,
      64.37376,
      64.37376,
      64.37376,
      64.37376,
      64.37376,
      64.37376,
      64.37376,
      64.37376,
      64.37376,
      64.37376,
      64.37376,
      64.37376,
      64.37376,
      64.37376,
      64.37376,
      64.37376,
      64.37376,
      64.37376,
      64.37376,
      64.37376,
      64.37376,
      64.37376,
      64.37376,
      64.37376,
      64.37376,
      64.37376,
      64.37376,
      64.37376,
      64.37376,
      64.37376,
      64.37376,
      64.37376,
      64.37376,
      64.37376,
      64.37376,
      64.37376,
      64.37376,
      64.37376,
      64.37376,
      64.37376,
      64.37376,
      64.37376,
      64.37376,
      64.37376,
      64.37376,
      64.37376,
      64.37376,
      64.37376,
      64.37376,
      64.37376,
      64.37376,
      64.37376,
      64.37376,
      64.37376,
      64.37376,
      64.37376,
      64.37376,
      64.37376,
      64.37376,
      64.37376,
      64.37376,
      64.37376,
      64.37376,
      64.37376,
      64.37376,
      64.37376,
      64.37376,
      64.37376,
      64.37376,
      64.37376,
      64.37376,
      64.37376,
      64.37376,
      64.37376,
      64.37376,
      64.37376,
      64.37376,
      64.37376,
      64.37376,
      64.37376,
      64.37376,
      64.37376,
      64.37376,
      64.37376,
      64.37376,
      64.37376,
      64.37376,
      64.37376,
      64.37376,
      64.37376,
      64.37376,
      64.37376,
      64.37376,
      64.37376,
      64.37376,
      64.37376,
      64.37376,
      64.37376,
      64.37376,
      64.37376,
      64.37376,
      64.37376,
      64.37376,
      64.37376,
      64.37376,
      64.37376,
      64.37376,
      64.37376,
      64.37376,
      64.37376,
      64.37376,
      64.37376,
      64.37376,
      64.37376,
      64.37376,
      64.37376,
      64.37376,
      64.37376,
      64.37376,
      64.37376,
      64.37376,
      64.37376,
      64.37376,
      64.37376,
      64.37376,
      64.37376,
      64.37376,
      64.37376,
      64.37376,
      64.37376,
      64.37376,
      64.37376,
      64.37376,
      64.37376,
      64.37376,
      64.37376,
      64.37376,
      64.37376,
      64.37376,
      64.37376,
      64.37376,
      64.37376,
      64.37376,
      64.37376,
      64.37376,
      64.37376,
      64.37376,
      64.37376,
      64.37376,
      64.37376,
      64.37376,
      64.37376,
      64.37376,
      64.37376,
      64.37376,
      64.37376,
      64.37376,
      64.37376,
      64.37376,
      64.37376,
      64.37376,
      64.37376,
      64.37376,
      64.37376,
      64.37376,
      64.37376,
      64.37376
    ],
    "is_bridge": [
      false,
      false,
      false,
      false,
      false,
      false,
      true,
      false,
      false,
      false,
      false,
      false,
      false,
      false,
      false,
      false,
      true,
      false,
      false,
      false,
      false,
      false,
      false,
      false,
      false,
      false,
      false,
      false,
      false,
      false,
      false,
      false,
      false,
      false,
      false,
      false,
      false,
      false,
      false,
      false,
      false,
      false,
      false,
      false,
      false,
      false,
      false,
      false,
      false,
      false,
      false,
      false,
      false,
      false,
      false,
      false,
      false,
      false,
      false,
      false,
      false,
      false,
      false,
      false,
      false,
      false,
      false,
      false,
      false,
      true,
      false,
      false,
      false,
      false,
      false,
      false,
      false,
      false,
      false,
      false,
      false,
      false,
      false,
      false,
      false,
      false,
      false,
      false,
      false,
      false,
      false,
      false,
      false,
      false,
      false,
      false,
      false,
      false,
      false,
      false,
      false,
      false,
      false,
      false,
      false,
      false,
      false,
      false,
      false,
      false,
      false,
      false,
      false,
      false,
      false,
      false,
      false,
      false,
      false,
      false,
      false,
      false,
      false,
      false,
      false,
      false,
      false,
      false,
      false,
      false,
      false,
      false,
      false,
      false,
      false,
      false,
      false,
      false,
      false,
      false,
      false,
      false,
      false,
      false,
      false,
      false,
      false,
      false,
      false,
      false,
      false,
      false,
      false,
      false,
      false,
      false,
      false,
      false,
      false,
      false,
      false,
      false,
      false,
      false,
      false,
      false,
      false,
      false,
      false,
      false,
      false,
      false,
      false,
      false,
      false,
      false,
      false,
      false,
      false,
      false,
      false,
      false,
      false,
      false,
      false,
      false,
      false,
      false,
      false,
      false,
      false,
      false,
      false,
      false,
      false,
      false,
      false,
      false,
      false,
      false,
      false,
      false,
      false,
      false,
      false,
      false,
      false,
      false,
      false,
      false,
      false,
      false,
      false,
      false,
      false,
      false,
      false,
      false,
      false,
      false,
      false,
      false,
      false,
      false,
      false,
      false,
      false,
      false,
      false,
      false,
      false,
      false,
      false,
      false,
      false,
      false,
      false,
      false,
      false,
      false,
      false,
      false,
      false,
      false,
      false,
      false,
      false,
      false,
      false,
      false,
      false,
      false,
      false,
      false,
      false,
      false,
      false,
      false,
      false,
      false,
      false,
      false,
      false,
      false,
      false,
      false,
      false,
      false,
      false,
      false,
      false,
      false,
      false,
      false,
      false,
      false,
      false,
      false,
      false,
      false,
      false,
      false,
      false,
      false,
      false,
      false,
      false,
      false,
      false,
      false,
      false,
      false,
      false,
      false,
      false,
      false,
      false,
      false,
      false,
      false,
      false,
      false,
      false,
      false,
      false,
      false,
      false,
      false,
      false,
      false,
      false,
      false,
      false,
      false,
      false,
      false,
      false,
      false,
      false,
      false,
      false,
      false,
      false,
      false,
      false,
      false,
      false,
      false,
      false,
      false,
      false,
      false,
      false,
      false,
      false,
      false,
      false,
      false,
      false,
      false,
      false,
      false,
      false,
      false,
      false,
      false,
      false,
      false,
      false,
      false,
      false,
      false,
      false,
      false,
      false,
      false,
      false,
      false,
      false,
      false,
      false,
      false,
      false,
      false,
      false,
      false,
      false,
      false,
      false,
      false,
      false,
      false,
      false,
      false,
      false,
      false,
      false,
      false,
      false,
      false,
      false,
      false,
      false,
      false,
      false,
      false,
      false,
      false,
      false,
      false,
      false,
      false,
      false,
      false,
      false,
      false,
      false,
      false,
      false,
      false,
      false,
      false,
      false,
      false,
      false,
      false,
      false,
      false,
      false,
      false,
      false,
      false,
      false,
      false,
      false,
      false,
      false,
      false,
      false,
      false,
      false,
      false,
      false,
      false,
      false,
      false,
      false,
      false,
      false,
      false,
      false,
      false,
      false,
      false,
      false,
      false,
      false,
      false,
      false,
      false,
      false,
      false,
      false,
      false,
      false,
      false,
      false,
      false,
      false,
      false,
      false,
      false,
      false,
      false,
      false,
      false,
      false,
      false,
      false,
      false,
      false,
      false,
      false,
      false,
      false,
      false,
      false,
      false,
      false,
      false,
      false,
      false,
      false,
      false,
      false,
      false,
      false,
      false,
      false,
      false,
      false,
      false,
      false,
      false,
      false,
      false,
      false,
      false,
      false,
      false,
      false,
      false,
      false,
      false,
      false,
      false,
      false
    ],
    "is_tunnel": [
      false,
      false,
      false,
      false,
      false,
      false,
      false,
      false,
      false,
      false,
      false,
      false,
      false,
      false,
      false,
      false,
      false,
      false,
      false,
      false,
      false,
      false,
      false,
      false,
      false,
      false,
      false,
      false,
      false,
      false,
      false,
      false,
      false,
      false,
      false,
      false,
      false,
      false,
      false,
      false,
      false,
      false,
      false,
      false,
      false,
      false,
      false,
      false,
      false,
      false,
      false,
      false,
      false,
      false,
      false,
      false,
      false,
      false,
      false,
      false,
      false,
      false,
      false,
      false,
      false,
      false,
      false,
      false,
      false,
      false,
      false,
      false,
      false,
      false,
      false,
      false,
      false,
      false,
      false,
      false,
      false,
      false,
      false,
      false,
      false,
      false,
      false,
      false,
      false,
      false,
      false,
      false,
      false,
      false,
      false,
      false,
      false,
      false,
      false,
      false,
      false,
      false,
      false,
      false,
      false,
      false,
      false,
      false,
      false,
      false,
      false,
      false,
      false,
      false,
      false,
      false,
      false,
      false,
      false,
      false,
      false,
      false,
      false,
      false,
      false,
      false,
      false,
      false,
      false,
      false,
      false,
      false,
      false,
      false,
      false,
      false,
      false,
      false,
      false,
      false,
      false,
      false,
      false,
      false,
      false,
      false,
      false,
      false,
      false,
      false,
      false,
      false,
      false,
      false,
      false,
      false,
      false,
      false,
      false,
      false,
      false,
      false,
      false,
      false,
      false,
      false,
      false,
      false,
      false,
      false,
      false,
      false,
      false,
      false,
      false,
      false,
      false,
      false,
      false,
      false,
      false,
      false,
      false,
      false,
      false,
      false,
      false,
      false,
      false,
      false,
      false,
      false,
      false,
      false,
      false,
      false,
      false,
      false,
      false,
      false,
      false,
      false,
      false,
      false,
      false,
      false,
      false,
      false,
      false,
      false,
      false,
      false,
      false,
      false,
      false,
      false,
      false,
      false,
      false,
      false,
      false,
      false,
      false,
      false,
      false,
      false,
      false,
      false,
      false,
      false,
      false,
      false,
      false,
      false,
      false,
      false,
      false,
      false,
      false,
      false,
      false,
      false,
      false,
      false,
      false,
      false,
      false,
      false,
      false,
      false,
      false,
      false,
      false,
      false,
      false,
      false,
      false,
      false,
      false,
      false,
      false,
      false,
      false,
      false,
      false,
      false,
      false,
      false,
      false,
      false,
      false,
      false,
      false,
      false,
      false,
      false,
      false,
      false,
      false,
      false,
      false,
      false,
      false,
      false,
      false,
      false,
      false,
      false,
      false,
      false,
      false,
      false,
      false,
      false,
      false,
      false,
      false,
      false,
      false,
      false,
      false,
      false,
      false,
      false,
      false,
      false,
      false,
      false,
      false,
      false,
      false,
      false,
      false,
      false,
      false,
      false,
      false,
      false,
      false,
      false,
      false,
      false,
      false,
      false,
      false,
      false,
      false,
      false,
      false,
      false,
      false,
      false,
      false,
      false,
      false,
      false,
      false,
      false,
      false,
      false,
      false,
      false,
      false,
      false,
      false,
      false,
      false,
      false,
      false,
      false,
      false,
      false,
      false,
      false,
      false,
      false,
      false,
      false,
      false,
      false,
      false,
      false,
      false,
      false,
      false,
      false,
      false,
      false,
      false,
      false,
      false,
      false,
      false,
      false,
      false,
      false,
      false,
      false,
      false,
      false,
      false,
      false,
      false,
      false,
      false,
      false,
      false,
      false,
      false,
      false,
      false,
      false,
      false,
      false,
      false,
      false,
      false,
      false,
      false,
      false,
      false,
      false,
      false,
      false,
      false,
      false,
      false,
      false,
      false,
      false,
      false,
      false,
      false,
      false,
      false,
      false,
      false,
      false,
      false,
      false,
      false,
      false,
      false,
      false,
      false,
      false,
      false,
      false,
      false,
      false,
      false,
      false,
      false,
      false,
      false,
      false,
      false,
      false,
      false,
      false,
      false,
      false,
      false,
      false,
      false,
      false,
      false,
      false,
      false,
      false,
      false,
      false,
      false,
      false,
      false,
      false,
      false,
      false,
      false,
      false,
      false,
      false,
      false,
      false,
      false,
      false,
      false,
      false,
      false,
      false,
      false,
      false,
      false,
      false,
      false,
      false,
      false,
      false,
      false,
      false,
      false,
      false,
      false,
      false,
      false,
      false,
      false,
      false,
      false,
      false,
      false,
      false,
      false,
      false,
      false,
      false,
      false
    ],
    "is_cutting": [
      false,
      false,
      false,
      false,
      false,
      false,
      false,
      false,
      false,
      false,
      false,
      false,
      false,
      false,
      false,
      false,
      false,
      false,
      false,
      false,
      false,
      false,
      false,
      false,
      false,
      false,
      false,
      false,
      false,
      false,
      false,
      false,
      false,
      false,
      false,
      false,
      false,
      false,
      false,
      false,
      false,
      false,
      false,
      false,
      false,
      false,
      false,
      false,
      false,
      false,
      false,
      false,
      false,
      false,
      false,
      false,
      false,
      false,
      false,
      false,
      false,
      false,
      false,
      false,
      false,
      false,
      false,
      false,
      false,
      false,
      false,
      false,
      false,
      false,
      false,
      false,
      false,
      false,
      false,
      false,
      false,
      false,
      false,
      false,
      false,
      false,
      false,
      false,
      false,
      false,
      false,
      false,
      false,
      false,
      false,
      false,
      false,
      false,
      false,
      false,
      false,
      false,
      false,
      false,
      false,
      false,
      false,
      false,
      false,
      false,
      false,
      false,
      false,
      false,
      false,
      false,
      false,
      false,
      false,
      false,
      false,
      false,
      false,
      false,
      false,
      false,
      false,
      false,
      false,
      false,
      false,
      false,
      false,
      false,
      false,
      false,
      false,
      false,
      false,
      false,
      false,
      false,
      false,
      false,
      false,
      false,
      false,
      false,
      false,
      false,
      false,
      false,
      false,
      false,
      false,
      false,
      false,
      false,
      false,
      false,
      false,
      false,
      false,
      false,
      false,
      false,
      false,
      false,
      false,
      false,
      false,
      false,
      false,
      false,
      false,
      false,
      false,
      false,
      false,
      false,
      false,
      false,
      false,
      false,
      false,
      false,
      false,
      false,
      false,
      false,
      false,
      false,
      false,
      false,
      false,
      false,
      false,
      false,
      false,
      false,
      false,
      false,
      false,
      false,
      false,
      false,
      false,
      false,
      false,
      false,
      false,
      false,
      false,
      false,
      false,
      false,
      false,
      false,
      false,
      false,
      false,
      false,
      false,
      false,
      false,
      false,
      false,
      false,
      false,
      false,
      false,
      false,
      false,
      false,
      false,
      false,
      false,
      false,
      false,
      false,
      false,
      false,
      false,
      false,
      false,
      false,
      false,
      false,
      false,
      false,
      false,
      false,
      false,
      false,
      false,
      false,
      false,
      false,
      false,
      false,
      false,
      false,
      false,
      false,
      false,
      false,
      false,
      false,
      false,
      false,
      false,
      false,
      false,
      false,
      false,
      false,
      false,
      false,
      false,
      false,
      false,
      false,
      false,
      false,
      false,
      false,
      false,
      false,
      false,
      false,
      false,
      false,
      false,
      false,
      false,
      false,
      false,
      false,
      false,
      false,
      false,
      false,
      false,
      false,
      false,
      false,
      false,
      false,
      false,
      false,
      false,
      false,
      false,
      false,
      false,
      false,
      false,
      false,
      false,
      false,
      false,
      false,
      false,
      false,
      false,
      false,
      false,
      false,
      false,
      false,
      false,
      false,
      false,
      false,
      false,
      false,
      false,
      false,
      false,
      false,
      false,
      false,
      false,
      false,
      false,
      false,
      false,
      false,
      false,
      false,
      false,
      false,
      false,
      false,
      false,
      false,
      false,
      false,
      false,
      false,
      false,
      false,
      false,
      false,
      false,
      false,
      false,
      false,
      false,
      false,
      false,
      false,
      false,
      false,
      false,
      false,
      false,
      false,
      false,
      false,
      false,
      false,
      false,
      false,
      false,
      false,
      false,
      false,
      false,
      false,
      false,
      false,
      false,
      false,
      false,
      false,
      false,
      false,
      false,
      false,
      false,
      false,
      false,
      false,
      false,
      false,
      false,
      false,
      false,
      false,
      false,
      false,
      false,
      false,
      false,
      false,
      false,
      false,
      false,
      false,
      false,
      false,
      false,
      false,
      false,
      false,
      false,
      false,
      false,
      false,
      false,
      false,
      false,
      false,
      false,
      false,
      false,
      false,
      false,
      false,
      false,
      false,
      false,
      false,
      false,
      false,
      false,
      false,
      false,
      false,
      false,
      false,
      false,
      false,
      false,
      false,
      false,
      false,
      false,
      false,
      false,
      false,
      false,
      false,
      false,
      false,
      false,
      false,
      false,
      false,
      false,
      false,
      false,
      false,
      false,
      false,
      false,
      false,
      false,
      false,
      false,
      false,
      false,
      false,
      false,
      false,
      false,
      false,
      false,
      false,
      false,
      false,
      false,
      false,
      false,
      false,
      false
    ],
    "is_embankment": [
      false,
      false,
      false,
      false,
      false,
      false,
      false,
      false,
      false,
      false,
      false,
      false,
      false,
      false,
      false,
      false,
      false,
      false,
      false,
      false,
      false,
      false,
      false,
      false,
      false,
      false,
      false,
      false,
      false,
      false,
      false,
      false,
      false,
      false,
      false,
      false,
      false,
      false,
      false,
      false,
      false,
      false,
      false,
      false,
      false,
      false,
      false,
      false,
      false,
      false,
      false,
      false,
      false,
      false,
      false,
      false,
      false,
      false,
      false,
      false,
      false,
      false,
      false,
      false,
      false,
      false,
      false,
      false,
      false,
      false,
      false,
      false,
      false,
      false,
      false,
      false,
      false,
      false,
      false,
      false,
      false,
      false,
      false,
      false,
      false,
      false,
      false,
      false,
      false,
      false,
      false,
      false,
      false,
      false,
      false,
      false,
      false,
      false,
      false,
      false,
      false,
      false,
      false,
      false,
      false,
      false,
      false,
      false,
      false,
      false,
      false,
      false,
      false,
      false,
      false,
      false,
      false,
      false,
      false,
      false,
      false,
      false,
      false,
      false,
      false,
      false,
      false,
      false,
      false,
      false,
      false,
      false,
      false,
      false,
      false,
      false,
      false,
      false,
      false,
      false,
      false,
      false,
      false,
      false,
      false,
      false,
      false,
      false,
      false,
      false,
      false,
      false,
      false,
      false,
      false,
      false,
      false,
      false,
      false,
      false,
      false,
      false,
      false,
      false,
      false,
      false,
      false,
      false,
      false,
      false,
      false,
      false,
      false,
      false,
      false,
      false,
      false,
      false,
      false,
      false,
      false,
      false,
      false,
      false,
      false,
      false,
      false,
      false,
      false,
      false,
      false,
      false,
      false,
      false,
      false,
      false,
      false,
      false,
      false,
      false,
      false,
      false,
      false,
      false,
      false,
      false,
      false,
      false,
      false,
      false,
      false,
      false,
      false,
      false,
      false,
      false,
      false,
      false,
      false,
      false,
      false,
      false,
      false,
      false,
      false,
      false,
      false,
      false,
      false,
      false,
      false,
      false,
      false,
      false,
      false,
      false,
      false,
      false,
      false,
      false,
      false,
      false,
      false,
      false,
      false,
      false,
      false,
      false,
      false,
      false,
      false,
      false,
      false,
      false,
      false,
      false,
      false,
      false,
      false,
      false,
      false,
      false,
      false,
      false,
      false,
      false,
      false,
      false,
      false,
      false,
      false,
      false,
      false,
      false,
      false,
      false,
      false,
      false,
      false,
      false,
      false,
      false,
      false,
      false,
      false,
      false,
      false,
      false,
      false,
      false,
      false,
      false,
      false,
      false,
      false,
      false,
      false,
      false,
      false,
      false,
      false,
      false,
      false,
      false,
      false,
      false,
      false,
      false,
      false,
      false,
      false,
      false,
      false,
      false,
      false,
      false,
      false,
      false,
      false,
      false,
      false,
      false,
      false,
      false,
      false,
      false,
      false,
      false,
      false,
      false,
      false,
      false,
      false,
      false,
      false,
      false,
      false,
      false,
      false,
      false,
      false,
      false,
      false,
      false,
      false,
      false,
      false,
      false,
      false,
      false,
      false,
      false,
      false,
      false,
      false,
      false,
      false,
      false,
      false,
      false,
      false,
      false,
      false,
      false,
      false,
      false,
      false,
      false,
      false,
      false,
      false,
      false,
      false,
      false,
      false,
      false,
      false,
      false,
      false,
      false,
      false,
      false,
      false,
      false,
      false,
      false,
      false,
      false,
      false,
      false,
      false,
      false,
      false,
      false,
      false,
      false,
      false,
      false,
      false,
      false,
      false,
      false,
      false,
      false,
      false,
      false,
      false,
      false,
      false,
      false,
      false,
      false,
      false,
      false,
      false,
      false,
      false,
      false,
      false,
      false,
      false,
      false,
      false,
      false,
      false,
      false,
      false,
      false,
      false,
      false,
      false,
      false,
      false,
      false,
      false,
      false,
      false,
      false,
      false,
      false,
      false,
      false,
      false,
      false,
      false,
      false,
      false,
      false,
      false,
      false,
      false,
      false,
      false,
      false,
      false,
      false,
      false,
      false,
      false,
      false,
      false,
      false,
      false,
      false,
      false,
      false,
      false,
      false,
      false,
      false,
      false,
      false,
      false,
      false,
      false,
      false,
      false,
      false,
      false,
      false,
      false,
      false,
      false,
      false,
      false,
      false,
      false,
      false,
      false,
      false,
      false,
      false,
      false,
      false,
      false,
      false,
      false
    ],
    "name": "route_line0_49km"
  }
}