{
  "type": "Feature",
  "geometry": {
    "type": "LineString",
    "coordinates": [
      [
        -104.6033289,
        38.2638509
      ],
      [
        -104.6040845,
        38.2636841
      ],
      [
        -104.6043385,
        38.2636286
      ],
      [
        -104.6049747,
        38.2634673
      ],
      [
        -104.6066161,
        38.2630423
      ],
      [
        -104.6071948,
        38.2628949
      ],
      [
        -104.6072748,
        38.2628739
      ],
      [
        -104.6080055,
        38.2626816
      ],
      [
        -104.6135257,
        38.2612478
      ],
      [
        -104.6135642,
        38.2612373
      ],
      [
        -104.6138445,
        38.2611667
      ],
      [
        -104.6140027,
        38.2611288
      ],
      [
        -104.6141355,
        38.2611067
      ],
      [
        -104.6142696,
        38.2610888
      ],
      [
        -104.614397,
        38.2610772
      ],
      [
        -104.6145606,
        38.2610688
      ],
      [
        -104.6147202,
        38.2610646
      ],
      [
        -104.6148557,
        38.2610699
      ],
      [
        -104.6150005,
        38.2610793
      ],
      [
        -104.6151011,
        38.2610909
      ],
      [
        -104.6152312,
        38.2611088
      ],
      [
        -104.6153787,
        38.2611351
      ],
      [
        -104.6155824,
        38.2611838
      ],
      [
        -104.6157591,
        38.2612307
      ],
      [
        -104.6159248,
        38.2612879
      ],
      [
        -104.6160375,
        38.261333
      ],
      [
        -104.6161811,
        38.261392
      ],
      [
        -104.6163269,
        38.2614648
      ],
      [
        -104.6164572,
        38.2615394
      ],
      [
        -104.6165787,
        38.261614
      ],
      [
        -104.6167399,
        38.261725
      ],
      [
        -104.6168769,
        38.2618291
      ],
      [
        -104.6181162,
        38.2627824
      ],
      [
        -104.6182704,
        38.2629046
      ],
      [
        -104.6183549,
        38.262973
      ],
      [
        -104.6184367,
        38.2630478
      ],
      [
        -104.6185587,
        38.2631583
      ],
      [
        -104.6186754,
        38.2632689
      ],
      [
        -104.6187804,
        38.2633805
      ],
      [
        -104.6189748,
        38.263599
      ],
      [
        -104.6191449,
        38.2638297
      ],
      [
        -104.6193856,
        38.2641593
      ],
      [
        -104.6195093,
        38.2643553
      ],
      [
        -104.619622,
        38.2645495
      ],
      [
        -104.6197625,
        38.2648535
      ],
      [
        -104.6198535,
        38.2650717
      ],
      [
        -104.6199205,
        38.2652717
      ],
      [
        -104.6199648,
        38.2654518
      ],
      [
        -104.6200008,
        38.2656043
      ],
      [
        -104.6200172,
        38.2657872
      ],
      [
        -104.6200291,
        38.2660536
      ],
      [
        -104.6200343,
        38.2661958
      ],
      [
        -104.6200409,
        38.2664657
      ],
      [
        -104.6200467,
        38.2665617
      ],
      [
        -104.6200481,
        38.2665857
      ],
      [
        -104.6200679,
        38.2667507
      ],
      [
        -104.6200863,
        38.2668414
      ],
      [
        -104.6201298,
        38.2669901
      ],
      [
        -104.620229,
        38.2671932
      ],
      [
        -104.6203218,
        38.2673389
      ],
      [
        -104.620431,
        38.267476
      ],
      [
        -104.6206857,
        38.2677417
      ],
      [
        -104.6221666,
        38.2692986
      ],
      [
        -104.6223668,
        38.2694829
      ],
      [
        -104.6225159,
        38.2696086
      ],
      [
        -104.6226779,
        38.2697443
      ],
      [
        -104.6228834,
        38.2699
      ],
      [
        -104.6234274,
        38.2702628
      ],
      [
        -104.6236912,
        38.2704371
      ],
      [
        -104.6245482,
        38.2709841
      ],
      [
        -104.6247556,
        38.2711127
      ],
      [
        -104.6249539,
        38.2712284
      ],
      [
        -104.6251867,
        38.2713583
      ],
      [
        -104.6284197,
        38.2730894
      ],
      [
        -104.6287254,
        38.2732594
      ],
      [
        -104.6289164,
        38.2733708
      ],
      [
        -104.6291074,
        38.2734936
      ],
      [
        -104.6293203,
        38.2736465
      ],
      [
        -104.6294931,
        38.273775
      ],
      [
        -104.6298315,
        38.2740678
      ],
      [
        -104.6300116,
        38.2742328
      ],
      [
        -104.6302214,
        38.2744469
      ],
      [
        -104.6304281,
        38.2746962
      ],
      [
        -104.6306559,
        38.2750044
      ],
      [
        -104.6308777,
        38.2753526
      ],
      [
        -104.631489,
        38.2763281
      ],
      [
        -104.6317401,
        38.2767366
      ],
      [
        -104.6320894,
        38.2772993
      ],
      [
        -104.6329736,
        38.2787118
      ],
      [
        -104.634178,
        38.2806427
      ],
      [
        -104.6356462,
        38.2829977
      ],
      [
        -104.6358973,
        38.2833933
      ],
      [
        -104.6378167,
        38.2864779
      ],
      [
        -104.638792,
        38.2880334
      ],
      [
        -104.638846,
        38.2881211
      ],
      [
        -104.6393631,
        38.2889413
      ],
      [
        -104.6397671,
        38.2895881
      ],
      [
        -104.6398124,
        38.2896608
      ],
      [
        -104.6422656,
        38.2935889
      ],
      [
        -104.6423891,
        38.2937721
      ],
      [
        -104.6448287,
        38.2977059
      ],
      [
        -104.6454277,
        38.2986494
      ],
      [
        -104.6459313,
        38.2994919
      ],
      [
        -104.6464192,
        38.3002551
      ],
      [
        -104.6468863,
        38.3010126
      ],
      [
        -104.6470956,
        38.3013819
      ],
      [
        -104.6473631,
        38.3019005
      ],
      [
        -104.6476006,
        38.3024256
      ],
      [
        -104.647806,
        38.3029633
      ],
      [
        -104.6479893,
        38.3035469
      ],
      [
        -104.6481351,
        38.304139
      ],
      [
        -104.6482382,
        38.3047171
      ],
      [
        -104.6483011,
        38.305312
      ],
      [
        -104.6483362,
        38.3058771
      ],
      [
        -104.6483311,
        38.3064402
      ],
      [
        -104.6482988,
        38.3069837
      ],
      [
        -104.6482236,
        38.3075315
      ],
      [
        -104.6481275,
        38.30807
      ],
      [
        -104.6479991,
        38.3086106
      ],
      [
        -104.6472506,
        38.3117596
      ],
      [
        -104.6471234,
        38.3122982
      ],
      [
        -104.6456787,
        38.3183835
      ],
      [
        -104.6453013,
        38.3199705
      ],
      [
        -104.6452023,
        38.3204468
      ],
      [
        -104.6451247,
        38.3209452
      ],
      [
        -104.6450811,
        38.3214206
      ],
      [
        -104.6450617,
        38.321915
      ],
      [
        -104.6450744,
        38.3224407
      ],
      [
        -104.645122,
        38.322977
      ],
      [
        -104.6452002,
        38.3234699
      ],
      [
        -104.6452396,
        38.3236736
      ],
      [
        -104.6453621,
        38.3241759
      ],
      [
        -104.645579,
        38.3248643
      ],
      [
        -104.6458858,
        38.3256021
      ],
      [
        -104.6462435,
        38.3262986
      ],
      [
        -104.6466858,
        38.3269941
      ],
      [
        -104.6471396,
        38.327661
      ],
      [
        -104.6476662,
        38.3284368
      ],
      [
        -104.6482803,
        38.3293424
      ],
      [
        -104.6485676,
        38.3297999
      ],
      [
        -104.6488335,
        38.3302669
      ],
      [
        -104.6490273,
        38.330641
      ],
      [
        -104.6492104,
        38.3310341
      ],
      [
        -104.6493236,
        38.3312989
      ],
      [
        -104.6494367,
        38.3315785
      ],
      [
        -104.6496031,
        38.3320434
      ],
      [
        -104.6497453,
        38.3325147
      ],
      [
        -104.6498985,
        38.3331521
      ],
      [
        -104.649997,
        38.3336797
      ],
      [
        -104.6500632,
        38.3342421
      ],
      [
        -104.6500975,
        38.3346479
      ],
      [
        -104.6501084,
        38.3351089
      ],
      [
        -104.6501033,
        38.3353337
      ],
      [
        -104.6500976,
        38.3356308
      ],
      [
        -104.6500527,
        38.3362101
      ],
      [
        -104.6500094,
        38.3365626
      ],
      [
        -104.6499553,
        38.3369131
      ],
      [
        -104.6498605,
        38.3373902
      ],
      [
        -104.649803,
        38.3376288
      ],
      [
        -104.6496039,
        38.3384682
      ],
      [
        -104.6494074,
        38.339297
      ],
      [
        -104.6492156,
        38.3400963
      ],
      [
        -104.648942,
        38.3412877
      ],
      [
        -104.6484291,
        38.34342
      ],
      [
        -104.6480741,
        38.344923
      ],
      [
        -104.6479632,
        38.3453894
      ],
      [
        -104.6478444,
        38.345842
      ],
      [
        -104.647659,
        38.3464493
      ],
      [
        -104.6474487,
        38.3470439
      ],
      [
        -104.647186,
        38.347681
      ],
      [
        -104.6469855,
        38.3481073
      ],
      [
        -104.6466042,
        38.3488977
      ],
      [
        -104.646018,
        38.350113
      ],
      [
        -104.6451272,
        38.3519705
      ],
      [
        -104.6435155,
        38.355317
      ],
      [
        -104.6399701,
        38.362689
      ],
      [
        -104.6396105,
        38.3634429
      ],
      [
        -104.6393395,
        38.3640865
      ],
      [
        -104.6392034,
        38.3644402
      ],
      [
        -104.6390692,
        38.3648309
      ],
      [
        -104.6389473,
        38.365233
      ],
      [
        -104.6388616,
        38.3655421
      ],
      [
        -104.6387538,
        38.3659607
      ],
      [
        -104.6386655,
        38.3663869
      ],
      [
        -104.6385699,
        38.3669268
      ],
      [
        -104.6384987,
        38.3674945
      ],
      [
        -104.6379668,
        38.371936
      ],
      [
        -104.6379031,
        38.3724385
      ],
      [
        -104.6378639,
        38.3726907
      ],
      [
        -104.6378149,
        38.3729315
      ],
      [
        -104.637747,
        38.3732204
      ],
      [
        -104.6376596,
        38.3734997
      ],
      [
        -104.6375734,
        38.3737622
      ],
      [
        -104.637475,
        38.3740189
      ],
      [
        -104.637291,
        38.3744297
      ],
      [
        -104.6370802,
        38.3748252
      ],
      [
        -104.6368296,
        38.3752346
      ],
      [
        -104.6365669,
        38.3756058
      ],
      [
        -104.6364045,
        38.375817
      ],
      [
        -104.6362251,
        38.3760282
      ],
      [
        -104.6360322,
        38.3762442
      ],
      [
        -104.6358223,
        38.3764583
      ],
      [
        -104.6355948,
        38.3766814
      ],
      [
        -104.6353453,
        38.3769044
      ],
      [
        -104.6348074,
        38.3773315
      ],
      [
        -104.6345472,
        38.3775148
      ],
      [
        -104.6342723,
        38.3776981
      ],
      [
        -104.6339572,
        38.3778929
      ],
      [
        -104.6336299,
        38.3780762
      ],
      [
        -104.6332722,
        38.3782609
      ],
      [
        -104.6328999,
        38.3784379
      ],
      [
        -104.6309647,
        38.3793247
      ],
      [
        -104.6307695,
        38.3794142
      ],
      [
        -104.6293951,
        38.3800443
      ],
      [
        -104.6264904,
        38.3813732
      ],
      [
        -104.6258952,
        38.3816612
      ],
      [
        -104.6254744,
        38.3818901
      ],
      [
        -104.625061,
        38.382142
      ],
      [
        -104.6247862,
        38.3823256
      ],
      [
        -104.6245151,
        38.382517
      ],
      [
        -104.6243122,
        38.3826792
      ],
      [
        -104.6239939,
        38.3829325
      ],
      [
        -104.6236093,
        38.3832854
      ],
      [
        -104.6233786,
        38.3835188
      ],
      [
        -104.6231552,
        38.3837656
      ],
      [
        -104.6229837,
        38.3839646
      ],
      [
        -104.6228194,
        38.3841694
      ],
      [
        -104.6224234,
        38.3846874
      ],
      [
        -104.6220274,
        38.3852121
      ],
      [
        -104.6197984,
        38.3881668
      ],
      [
        -104.6194503,
        38.3886355
      ],
      [
        -104.6191571,
        38.3890186
      ],
      [
        -104.6190272,
        38.3891966
      ],
      [
        -104.617569,
        38.391134
      ],
      [
        -104.6151564,
        38.3943384
      ],
      [
        -104.614636,
        38.3950418
      ],
      [
        -104.6143611,
        38.395447
      ],
      [
        -104.6140985,
        38.3958561
      ],
      [
        -104.6138553,
        38.3962719
      ],
      [
        -104.6136243,
        38.3966934
      ],
      [
        -104.6133738,
        38.3971976
      ],
      [
        -104.6132576,
        38.3974464
      ],
      [
        -104.6131513,
        38.397697
      ],
      [
        -104.6130524,
        38.397933
      ],
      [
        -104.6129588,
        38.3981711
      ],
      [
        -104.6128292,
        38.3985327
      ],
      [
        -104.6127188,
        38.3988702
      ],
      [
        -104.6125506,
        38.399431
      ],
      [
        -104.6124567,
        38.3997978
      ],
      [
        -104.6120194,
        38.4018156
      ],
      [
        -104.6119127,
        38.4023142
      ],
      [
        -104.6116587,
        38.4034991
      ],
      [
        -104.6114099,
        38.4046417
      ],
      [
        -104.6112508,
        38.4053735
      ],
      [
        -104.6111421,
        38.4058792
      ],
      [
        -104.6111151,
        38.4059915
      ],
      [
        -104.6109217,
        38.4069034
      ],
      [
        -104.6108271,
        38.4073215
      ],
      [
        -104.6106823,
        38.4080387
      ],
      [
        -104.6099143,
        38.4115607
      ],
      [
        -104.6098295,
        38.4119644
      ],
      [
        -104.6096378,
        38.4128531
      ],
      [
        -104.6095134,
        38.4134269
      ],
      [
        -104.6085725,
        38.4177652
      ],
      [
        -104.6081839,
        38.4195765
      ],
      [
        -104.6075021,
        38.4227275
      ],
      [
        -104.6068215,
        38.4258804
      ],
      [
        -104.6067101,
        38.426409
      ],
      [
        -104.6066146,
        38.4269447
      ],
      [
        -104.606503,
        38.4280587
      ],
      [
        -104.606188,
        38.4327478
      ],
      [
        -104.6060613,
        38.4345622
      ],
      [
        -104.6055391,
        38.4421738
      ],
      [
        -104.605322,
        38.4454224
      ],
      [
        -104.6052363,
        38.446664
      ],
      [
        -104.6052133,
        38.4472804
      ],
      [
        -104.6052215,
        38.4478366
      ],
      [
        -104.6052562,
        38.448391
      ],
      [
        -104.6062641,
        38.4582659
      ],
      [
        -104.6064427,
        38.4593023
      ],
      [
        -104.60656,
        38.459788
      ],
      [
        -104.6067038,
        38.4602771
      ],
      [
        -104.6074527,
        38.4628174
      ],
      [
        -104.6076692,
        38.4635743
      ],
      [
        -104.6082613,
        38.4655687
      ],
      [
        -104.6090231,
        38.468114
      ],
      [
        -104.6095596,
        38.4699117
      ],
      [
        -104.6097357,
        38.4703964
      ],
      [
        -104.6099279,
        38.4708728
      ],
      [
        -104.6104636,
        38.4722082
      ],
      [
        -104.6111788,
        38.4740274
      ],
      [
        -104.6123652,
        38.476955
      ],
      [
        -104.6128202,
        38.4781397
      ],
      [
        -104.6132673,
        38.4792538
      ],
      [
        -104.6139447,
        38.4809214
      ],
      [
        -104.6161427,
        38.4864351
      ],
      [
        -104.6168963,
        38.4883212
      ]
    ]
  },
  "properties": {
    "relation_id": -1,
    "relation_tags": {
      "line_group": "3"
    },
    "length_m": 28584.315520832817,
    "num_vertices": 297,
    "maxspeed_coverage": 1.0,
    "is_service": false,
    "service_kind": null,
    "line_group": 3,
    "group_order": null,
    "used_way_ids": [
      46822959,
      46822960,
      136556605,
      136556606,
      140807372,
      140807377,
      243723564,
      261994326,
      261994329,
      319345448,
      319345449,
      319644398,
      319644510,
      1064111838,
      1259213184,
      1259213185
    ],
    "n_gaps": 0,
    "n_branches": 0,
    "dropped_way_ids": [],
    "order": [],
    "s_m": [
      0.0,
      68.52677321119823,
      91.54543790252752,
      149.91421295418363,
      300.81169057493867,
      353.92868348139973,
      361.2933122405233,
      428.57741869022936,
      936.2258054549275,
      939.7842293558539,
      965.4854864810657,
      979.9265305000672,
      991.7788541396399,
      1003.6551080539728,
      1014.8529466773966,
      1029.167380922031,
      1043.1098936992971,
      1054.9550792457946,
      1067.64071199326,
      1076.5183085197789,
      1088.050410104558,
      1101.2565082795127,
      1119.8476909074318,
      1136.1329442724202,
      1151.9365911438247,
      1162.9806449865566,
      1177.1310379875222,
      1192.216643677562,
      1206.2961623074652,
      1219.7624667963503,
      1238.4821391483658,
      1255.1273876913126,
      1406.6003359606748,
      1425.7284324915186,
      1436.324422926684,
      1447.2872664936951,
      1463.548474117312,
      1479.5189617955978,
      1494.9472278074202,
      1524.584500132565,
      1554.225866661653,
      1596.4731415184056,
      1620.7964640080577,
      1644.5265722309373,
      1680.4866785649585,
      1706.017082933056,
      1729.012513786287,
      1749.4087986734964,
      1766.6548584645457,
      1787.042776496335,
      1816.6833588666047,
      1832.501815114858,
      1862.518898162635,
      1873.2056288355145,
      1875.8771082263002,
      1894.30554809596,
      1904.5180708228088,
      1921.4832992923095,
      1945.6706450665586,
      1963.784553469124,
      1981.764864266076,
      2018.742067449096,
      2234.8087604445386,
      2261.742671650243,
      2280.8421414464256,
      2301.5229304671793,
      2326.4546021490114,
      2388.7668626690206,
      2418.8665425581366,
      2515.2863472426775,
      2538.357858392094,
      2559.9261725767756,
      2584.8592307836725,
      2926.4820850897704,
      2959.185069050339,
      2979.956293335051,
      3001.507492407219,
      3026.6960872450754,
      3047.4736471524716,
      3091.4356697603066,
      3115.597449226269,
      3145.633773477174,
      3178.709792666148,
      3218.331588473757,
      3261.6209109744213,
      3382.506791161074,
      3432.9419387014145,
      3502.5452606461786,
      3677.547537199533,
      3916.610477244522,
      4208.15106630122,
      4257.297398102664,
      4639.016331960262,
      4831.791903681207,
      4842.622880256582,
      4944.380664356264,
      5024.479758514515,
      5033.478649507257,
      5519.914512879119,
      5542.9609748226,
      6029.440125193662,
      6146.653640483823,
      6250.131035799305,
      6345.076355776184,
      6438.650617509019,
      6483.593362950448,
      6545.804361731783,
      6607.761785339783,
      6670.180028612953,
      6737.015559641714,
      6804.072098249126,
      6868.9804403572725,
      6935.357693458432,
      6998.268628628795,
      7060.88415964022,
      7121.384366271731,
      7182.649418123531,
      7243.11222250276,
      7304.259373609353,
      7660.450886391788,
      7721.360157084444,
      8409.654638523025,
      8589.166414509134,
      8642.828209504229,
      8698.659777394987,
      8751.658580135334,
      8806.659471942801,
      8865.125223759454,
      8924.903541584632,
      8980.134510183212,
      9003.044239232764,
      9059.910620045648,
      9138.761115710358,
      9225.055834977977,
      9308.552642445635,
      9394.978815254352,
      9479.038891515152,
      9576.771717716867,
      9690.831206975412,
      9747.540679844185,
      9804.413127657808,
      9849.314831823152,
      9895.852012741603,
      9926.907947677611,
      9959.525722055147,
      10013.219241820212,
      10067.073269821007,
      10139.197692479902,
      10198.489972448124,
      10261.29208981098,
      10306.514121616463,
      10357.783869050494,
      10382.784480716207,
      10415.824279683766,
      10480.358523516114,
      10519.736308975333,
      10558.994782050928,
      10612.686420605209,
      10639.687390402329,
      10734.626143905627,
      10828.364600645675,
      10918.803326328845,
      11053.412982466643,
      11294.696822467937,
      11464.66642229578,
      11517.42190196983,
      11568.804127971336,
      11638.24150607933,
      11706.854524635843,
      11781.309006787247,
      11831.8333497683,
      11925.801688603548,
      12070.282494969751,
      12290.951634797613,
      12688.720479139716,
      13564.802509695739,
      13654.303615911645,
      13729.668277329209,
      13770.74901898598,
      13815.740915917808,
      13861.69821324864,
      13896.871369301527,
      13944.357000983993,
      13992.369535186372,
      14052.979560964952,
      14116.4094725981,
      14612.454562472929,
      14668.605358705941,
      14696.856202107609,
      14723.970566522094,
      14756.63560840363,
      14788.613327334007,
      14818.753793807433,
      14848.558633911085,
      14896.971928628775,
      14944.63446450405,
      14995.127982902342,
      15042.330693881346,
      15069.752049816494,
      15097.967009792177,
      15127.286436119906,
      15157.312373478875,
      15189.07246640355,
      15222.055656302107,
      15288.794033195836,
      15319.288058768198,
      15350.746812810474,
      15385.72729963836,
      15420.790386734308,
      15458.126916536732,
      15496.081623798327,
      15691.476548598277,
      15711.18838413372,
      15849.974761479418,
      16143.131731030546,
      16204.100198255954,
      16248.745224571265,
      16294.385101643025,
      16325.857677838478,
      16357.65924995309,
      16382.91929674895,
      16422.454676689278,
      16474.06500176546,
      16506.89647017265,
      16540.545819027113,
      16567.24962366382,
      16594.150951904303,
      16661.300078726726,
      16729.089211274608,
      17110.77950743031,
      17171.084304006145,
      17220.76004906988,
      17243.562016378564,
      17493.6848222208,
      17907.411086026375,
      17997.82332829733,
      18048.852832035314,
      18099.774920011503,
      18150.636157874516,
      18201.645312312212,
      18261.81002628477,
      18291.270411316014,
      18320.635349561595,
      18348.25647206199,
      18375.960044329066,
      18417.724244321893,
      18456.466146582083,
      18520.523858772147,
      18562.12294910153,
      18789.705455013423,
      18845.921566029978,
      18979.52276569616,
      19108.41071055716,
      19190.95578443406,
      19247.979269868778,
      19260.686172678204,
      19363.475776927193,
      19410.691528558666,
      19491.432522437368,
      19888.73740192249,
      19934.230842939196,
      20034.45149410362,
      20099.169282411243,
      20588.48243839141,
      20792.71563778235,
      21148.090210631184,
      21503.655205039737,
      21563.228620596303,
      21623.373934536252,
      21747.62613852948,
      22269.75245175293,
      22471.806410711957,
      23319.400039785483,
      23681.122856157115,
      23819.384252363103,
      23887.954160437297,
      23949.80498654173,
      24011.5255582402,
      25113.067861508247,
      25229.35495307915,
      25284.319658982473,
      25340.12783733806,
      25630.02512852463,
      25716.273744899798,
      25943.954074301822,
      26234.646234227246,
      26439.92593979375,
      26495.9602548631,
      26551.513384390935,
      26707.154599775957,
      26918.805619815565,
      27260.330501348075,
      27397.88878760025,
      27527.740843932148,
      27722.319279533654,
      28364.57288771601,
      28584.315520832817
    ],
    "way_id": [
      46822960,
      46822960,
      46822960,
      46822960,
      46822960,
      319345448,
      319345449,
      319345449,
      319345449,
      319345449,
      319345449,
      319345449,
      319345449,
      319345449,
      319345449,
      319345449,
      319345449,
      319345449,
      319345449,
      319345449,
      319345449,
      319345449,
      319345449,
      319345449,
      319345449,
      319345449,
      319345449,
      319345449,
      319345449,
      319345449,
      319345449,
      319345449,
      319345449,
      319345449,
      319345449,
      319345449,
      319345449,
      319345449,
      319345449,
      319345449,
      319345449,
      319345449,
      319345449,
      319345449,
      319345449,
      319345449,
      319345449,
      319345449,
      319345449,
      319345449,
      319345449,
      319345449,
      319345449,
      319345449,
      319345449,
      319345449,
      319345449,
      319345449,
      46822959,
      46822959,
      46822959,
      46822959,
      46822959,
      46822959,
      46822959,
      46822959,
      46822959,
      46822959,
      46822959,
      46822959,
      46822959,
      46822959,
      46822959,
      46822959,
      46822959,
      46822959,
      46822959,
      46822959,
      46822959,
      46822959,
      46822959,
      46822959,
      46822959,
      46822959,
      46822959,
      46822959,
      46822959,
      1064111838,
      1064111838,
      1064111838,
      1064111838,
      1064111838,
      1064111838,
      1064111838,
      319644510,
      319644398,
      319644398,
      319644398,
      319644398,
      319644398,
      319644398,
      319644398,
      319644398,
      319644398,
      319644398,
      319644398,
      319644398,
      319644398,
      319644398,
      319644398,
      319644398,
      319644398,
      319644398,
      319644398,
      319644398,
      319644398,
      319644398,
      319644398,
      319644398,
      319644398,
      140807377,
      140807372,
      140807372,
      140807372,
      140807372,
      140807372,
      140807372,
      140807372,
      140807372,
      140807372,
      140807372,
      140807372,
      140807372,
      140807372,
      140807372,
      140807372,
      140807372,
      140807372,
      140807372,
      140807372,
      140807372,
      140807372,
      140807372,
      140807372,
      140807372,
      140807372,
      140807372,
      140807372,
      140807372,
      140807372,
      140807372,
      140807372,
      140807372,
      140807372,
      140807372,
      140807372,
      140807372,
      140807372,
      140807372,
      140807372,
      140807372,
      140807372,
      140807372,
      140807372,
      140807372,
      140807372,
      140807372,
      140807372,
      140807372,
      140807372,
      140807372,
      140807372,
      140807372,
      140807372,
      140807372,
      140807372,
      140807372,
      140807372,
      140807372,
      140807372,
      140807372,
      140807372,
      140807372,
      140807372,
      140807372,
      140807372,
      140807372,
      140807372,
      140807372,
      140807372,
      140807372,
      140807372,
      140807372,
      140807372,
      140807372,
      140807372,
      140807372,
      140807372,
      140807372,
      140807372,
      140807372,
      140807372,
      140807372,
      140807372,
      140807372,
      140807372,
      140807372,
      140807372,
      140807372,
      140807372,
      140807372,
      140807372,
      1259213185,
      1259213184,
      1259213184,
      1259213184,
      1259213184,
      1259213184,
      1259213184,
      1259213184,
      1259213184,
      1259213184,
      1259213184,
      1259213184,
      1259213184,
      1259213184,
      1259213184,
      1259213184,
      1259213184,
      1259213184,
      136556605,
      136556606,
      136556606,
      136556606,
      136556606,
      136556606,
      136556606,
      136556606,
      136556606,
      136556606,
      136556606,
      136556606,
      136556606,
      136556606,
      136556606,
      136556606,
      136556606,
      136556606,
      136556606,
      136556606,
      136556606,
      136556606,
      136556606,
      136556606,
      261994326,
      261994326,
      261994326,
      261994329,
      243723564,
      243723564,
      243723564,
      243723564,
      243723564,
      243723564,
      243723564,
      243723564,
      243723564,
      243723564,
      243723564,
      243723564,
      243723564,
      243723564,
      243723564,
      243723564,
      243723564,
      243723564,
      243723564,
      243723564,
      243723564,
      243723564,
      243723564,
      243723564,
      243723564,
      243723564,
      243723564,
      243723564,
      243723564,
      243723564,
      243723564,
      243723564,
      243723564,
      243723564,
      243723564,
      243723564,
      243723564,
      243723564,
      243723564
    ],
    "maxspeed_kph": [
      32.18688,
      32.18688,
      32.18688,
      32.18688,
      32.18688,
      32.18688,
      32.18688,
      32.18688,
      32.18688,
      32.18688,
      32.18688,
      32.18688,
      32.18688,
      32.18688,
      32.18688,
      32.18688,
      32.18688,
      32.18688,
      32.18688,
      32.18688,
      32.18688,
      32.18688,
      32.18688,
      32.18688,
      32.18688,
      32.18688,
      32.18688,
      32.18688,
      32.18688,
      32.18688,
      32.18688,
      32.18688,
      32.18688,
      32.18688,
      32.18688,
      32.18688,
      32.18688,
      32.18688,
      32.18688,
      32.18688,
      32.18688,
      32.18688,
      32.18688,
      32.18688,
      32.18688,
      32.18688,
      32.18688,
      32.18688,
      32.18688,
      32.18688,
      32.18688,
      32.18688,
      32.18688,
      32.18688,
      32.18688,
      32.18688,
      32.18688,
      32.18688,
      32.18688,
      32.18688,
      32.18688,
      32.18688,
      32.18688,
      32.18688,
      32.18688,
      32.18688,
      32.18688,
      32.18688,
      32.18688,
      32.18688,
      32.18688,
      32.18688,
      32.18688,
      32.18688,
      32.18688,
      32.18688,
      32.18688,
      32.18688,
      32.18688,
      32.18688,
      32.18688,
      32.18688,
      32.18688,
      32.18688,
      32.18688,
      32.18688,
      32.18688,
      88.51392000000001,
      88.51392000000001,
      88.51392000000001,
      88.51392000000001,
      88.51392000000001,
      88.51392000000001,
      88.51392000000001,
      88.51392000000001,
      88.51392000000001,
      88.51392000000001,
      88.51392000000001,
      88.51392000000001,
      88.51392000000001,
      88.51392000000001,
      88.51392000000001,
      88.51392000000001,
      88.51392000000001,
      88.51392000000001,
      88.51392000000001,
      88.51392000000001,
      88.51392000000001,
      88.51392000000001,
      88.51392000000001,
      88.51392000000001,
      88.51392000000001,
      88.51392000000001,
      88.51392000000001,
      88.51392000000001,
      88.51392000000001,
      88.51392000000001,
      88.51392000000001,
      88.51392000000001,
      88.51392000000001,
      88.51392000000001,
      88.51392000000001,
      88.51392000000001,
      88.51392000000001,
      88.51392000000001,
      88.51392000000001,
      88.51392000000001,
      88.51392000000001,
      88.51392000000001,
      88.51392000000001,
      88.51392000000001,
      88.51392000000001,
      88.51392000000001,
      88.51392000000001,
      88.51392000000001,
      88.51392000000001,
      88.51392000000001,
      88.51392000000001,
      88.51392000000001,
      88.51392000000001,
      88.51392000000001,
      88.51392000000001,
      88.51392000000001,
      88.51392000000001,
      88.51392000000001,
      88.51392000000001,
      88.51392000000001,
      88.51392000000001,
      88.51392000000001,
      88.51392000000001,
      88.51392000000001,
      88.51392000000001,
      88.51392000000001,
      88.51392000000001,
      88.51392000000001,
      88.51392000000001,
      88.51392000000001,
      88.51392000000001,
      88.51392000000001,
      88.51392000000001,
      88.51392000000001,
      88.51392000000001,
      88.51392000000001,
      88.51392000000001,
      88.51392000000001,
      88.51392000000001,
      88.51392000000001,
      88.51392000000001,
      88.51392000000001,
      88.51392000000001,
      88.51392000000001,
      88.51392000000001,
      88.51392000000001,
      88.51392000000001,
      88.51392000000001,
      88.51392000000001,
      88.51392000000001,
      88.51392000000001,
      88.51392000000001,
      88.51392000000001,
      88.51392000000001,
      88.51392000000001,
      88.51392000000001,
      88.51392000000001,
      88.51392000000001,
      88.51392000000001,
      88.51392000000001,
      88.51392000000001,
      88.51392000000001,
      88.51392000000001,
      88.51392000000001,
      88.51392000000001,
      88.51392000000001,
      88.51392000000001,
      88.51392000000001,
      88.51392000000001,
      88.51392000000001,
      88.51392000000001,
      88.51392000000001,
      88.51392000000001,
      88.51392000000001,
      88.51392000000001,
      88.51392000000001,
      88.51392000000001,
      88.51392000000001,
      88.51392000000001,
      88.51392000000001,
      88.51392000000001,
      88.51392000000001,
      88.51392000000001,
      88.51392000000001,
      88.51392000000001,
      88.51392000000001,
      88.51392000000001,
      88.51392000000001,
      88.51392000000001,
      88.51392000000001,
      88.51392000000001,
      88.51392000000001,
      88.51392000000001,
      88.51392000000001,
      88.51392000000001,
      88.51392000000001,
      88.51392000000001,
      88.51392000000001,
      88.51392000000001,
      88.51392000000001,
      88.51392000000001,
      88.51392000000001,
      88.51392000000001,
      88.51392000000001,
      88.51392000000001,
      88.51392000000001,
      88.51392000000001,
      88.51392000000001,
      88.51392000000001,
      88.51392000000001,
      88.51392000000001,
      88.51392000000001,
      88.51392000000001,
      88.51392000000001,
      88.51392000000001,
      88.51392000000001,
      88.51392000000001,
      88.51392000000001,
      88.51392000000001,
      88.51392000000001,
      88.51392000000001,
      88.51392000000001,
      88.51392000000001,
      88.51392000000001,
      88.51392000000001,
      88.51392000000001,
      88.51392000000001,
      88.51392000000001,
      88.51392000000001,
      88.51392000000001,
      88.51392000000001,
      88.51392000000001,
      88.51392000000001,
      88.51392000000001,
      88.51392000000001,
      88.51392000000001,
      88.51392000000001,
      88.51392000000001,
      88.51392000000001,
      88.51392000000001,
      88.51392000000001,
      88.51392000000001,
      88.51392000000001,
      88.51392000000001,
      88.51392000000001,
      88.51392000000001,
      88.51392000000001,
      88.51392000000001,
      88.51392000000001,
      88.51392000000001,
      88.51392000000001,
      88.51392000000001,
      88.51392000000001,
      88.51392000000001,
      88.51392000000001,
      88.51392000000001,
      88.51392000000001,
      88.51392000000001,
      88.51392000000001,
      88.51392000000001,
      88.51392000000001,
      88.51392000000001,
      88.51392000000001,
      88.51392000000001,
      88.51392000000001,
      88.51392000000001,
      88.51392000000001,
      88.51392000000001,
      88.51392000000001,
      88.51392000000001
    ],
    "is_bridge": [
      false,
      false,
      false,
      false,
      false,
      true,
      false,
      false,
      false,
      false,
      false,
      false,
      false,
      false,
      false,
      false,
      false,
      false,
      false,
      false,
      false,
      false,
      false,
      false,
      false,
      false,
      false,
      false,
      false,
      false,
      false,
      false,
      false,
      false,
      false,
      false,
      false,
      false,
      false,
      false,
      false,
      false,
      false,
      false,
      false,
      false,
      false,
      false,
      false,
      false,
      false,
      false,
      false,
      false,
      false,
      false,
      false,
      false,
      false,
      false,
      false,
      false,
      false,
      false,
      false,
      false,
      false,
      false,
      false,
      false,
      false,
      false,
      false,
      false,
      false,
      false,
      false,
      false,
      false,
      false,
      false,
      false,
      false,
      false,
      false,
      false,
      false,
      false,
      false,
      false,
      false,
      false,
      false,
      false,
      true,
      false,
      false,
      false,
      false,
      false,
      false,
      false,
      false,
      false,
      false,
      false,
      false,
      false,
      false,
      false,
      false,
      false,
      false,
      false,
      false,
      false,
      false,
      false,
      false,
      false,
      true,
      false,
      false,
      false,
      false,
      false,
      false,
      false,
      false,
      false,
      false,
      false,
      false,
      false,
      false,
      false,
      false,
      false,
      false,
      false,
      false,
      false,
      false,
      false,
      false,
      false,
      false,
      false,
      false,
      false,
      false,
      false,
      false,
      false,
      false,
      false,
      false,
      false,
      false,
      false,
      false,
      false,
      false,
      false,
      false,
      false,
      false,
      false,
      false,
      false,
      false,
      false,
      false,
      false,
      false,
      false,
      false,
      false,
      false,
      false,
      false,
      false,
      false,
      false,
      false,
      false,
      false,
      false,
      false,
      false,
      false,
      false,
      false,
      false,
      false,
      false,
      false,
      false,
      false,
      false,
      false,
      false,
      false,
      false,
      false,
      false,
      false,
      false,
      false,
      false,
      false,
      false,
      true,
      false,
      false,
      false,
      false,
      false,
      false,
      false,
      false,
      false,
      false,
      false,
      false,
      false,
      false,
      false,
      false,
      false,
      true,
      false,
      false,
      false,
      false,
      false,
      false,
      false,
      false,
      false,
      false,
      false,
      false,
      false,
      false,
      false,
      false,
      false,
      false,
      false,
      false,
      false,
      false,
      false,
      false,
      false,
      false,
      true,
      false,
      false,
      false,
      false,
      false,
      false,
      false,
      false,
      false,
      false,
      false,
      false,
      false,
      false,
      false,
      false,
      false,
      false,
      false,
      false,
      false,
      false,
      false,
      false,
      false,
      false,
      false,
      false,
      false,
      false,
      false,
      false,
      false,
      false,
      false,
      false,
      false,
      false,
      false
    ],
    "is_tunnel": [
      false,
      false,
      false,
      false,
      false,
      false,
      false,
      false,
      false,
      false,
      false,
      false,
      false,
      false,
      false,
      false,
      false,
      false,
      false,
      false,
      false,
      false,
      false,
      false,
      false,
      false,
      false,
      false,
      false,
      false,
      false,
      false,
      false,
      false,
      false,
      false,
      false,
      false,
      false,
      false,
      false,
      false,
      false,
      false,
      false,
      false,
      false,
      false,
      false,
      false,
      false,
      false,
      false,
      false,
      false,
      false,
      false,
      false,
      false,
      false,
      false,
      false,
      false,
      false,
      false,
      false,
      false,
      false,
      false,
      false,
      false,
      false,
      false,
      false,
      false,
      false,
      false,
      false,
      false,
      false,
      false,
      false,
      false,
      false,
      false,
      false,
      false,
      false,
      false,
      false,
      false,
      false,
      false,
      false,
      false,
      false,
      false,
      false,
      false,
      false,
      false,
      false,
      false,
      false,
      false,
      false,
      false,
      false,
      false,
      false,
      false,
      false,
      false,
      false,
      false,
      false,
      false,
      false,
      false,
      false,
      false,
      false,
      false,
      false,
      false,
      false,
      false,
      false,
      false,
      false,
      false,
      false,
      false,
      false,
      false,
      false,
      false,
      false,
      false,
      false,
      false,
      false,
      false,
      false,
      false,
      false,
      false,
      false,
      false,
      false,
      false,
      false,
      false,
      false,
      false,
      false,
      false,
      false,
      false,
      false,
      false,
      false,
      false,
      false,
      false,
      false,
      false,
      false,
      false,
      false,
      false,
      false,
      false,
      false,
      false,
      false,
      false,
      false,
      false,
      false,
      false,
      false,
      false,
      false,
      false,
      false,
      false,
      false,
      false,
      false,
      false,
      false,
      false,
      false,
      false,
      false,
      false,
      false,
      false,
      false,
      false,
      false,
      false,
      false,
      false,
      false,
      false,
      false,
      false,
      false,
      false,
      false,
      false,
      false,
      false,
      false,
      false,
      false,
      false,
      false,
      false,
      false,
      false,
      false,
      false,
      false,
      false,
      false,
      false,
      false,
      false,
      false,
      false,
      false,
      false,
      false,
      false,
      false,
      false,
      false,
      false,
      false,
      false,
      false,
      false,
      false,
      false,
      false,
      false,
      false,
      false,
      false,
      false,
      false,
      false,
      false,
      false,
      false,
      false,
      false,
      false,
      false,
      false,
      false,
      false,
      false,
      false,
      false,
      false,
      false,
      false,
      false,
      false,
      false,
      false,
      false,
      false,
      false,
      false,
      false,
      false,
      false,
      false,
      false,
      false,
      false,
      false,
      false,
      false,
      false,
      false,
      false,
      false,
      false,
      false,
      false,
      false
    ],
    "is_cutting": [
      false,
      false,
      false,
      false,
      false,
      false,
      false,
      false,
      false,
      false,
      false,
      false,
      false,
      false,
      false,
      false,
      false,
      false,
      false,
      false,
      false,
      false,
      false,
      false,
      false,
      false,
      false,
      false,
      false,
      false,
      false,
      false,
      false,
      false,
      false,
      false,
      false,
      false,
      false,
      false,
      false,
      false,
      false,
      false,
      false,
      false,
      false,
      false,
      false,
      false,
      false,
      false,
      false,
      false,
      false,
      false,
      false,
      false,
      false,
      false,
      false,
      false,
      false,
      false,
      false,
      false,
      false,
      false,
      false,
      false,
      false,
      false,
      false,
      false,
      false,
      false,
      false,
      false,
      false,
      false,
      false,
      false,
      false,
      false,
      false,
      false,
      false,
      false,
      false,
      false,
      false,
      false,
      false,
      false,
      false,
      false,
      false,
      false,
      false,
      false,
      false,
      false,
      false,
      false,
      false,
      false,
      false,
      false,
      false,
      false,
      false,
      false,
      false,
      false,
      false,
      false,
      false,
      false,
      false,
      false,
      false,
      false,
      false,
      false,
      false,
      false,
      false,
      false,
      false,
      false,
      false,
      false,
      false,
      false,
      false,
      false,
      false,
      false,
      false,
      false,
      false,
      false,
      false,
      false,
      false,
      false,
      false,
      false,
      false,
      false,
      false,
      false,
      false,
      false,
      false,
      false,
      false,
      false,
      false,
      false,
      false,
      false,
      false,
      false,
      false,
      false,
      false,
      false,
      false,
      false,
      false,
      false,
      false,
      false,
      false,
      false,
      false,
      false,
      false,
      false,
      false,
      false,
      false,
      false,
      false,
      false,
      false,
      false,
      false,
      false,
      false,
      false,
      false,
      false,
      false,
      false,
      false,
      false,
      false,
      false,
      false,
      false,
      false,
      false,
      false,
      false,
      false,
      false,
      false,
      false,
      false,
      false,
      false,
      false,
      false,
      false,
      false,
      false,
      false,
      false,
      false,
      false,
      false,
      false,
      false,
      false,
      false,
      false,
      false,
      false,
      false,
      false,
      false,
      false,
      false,
      false,
      false,
      false,
      false,
      false,
      false,
      false,
      false,
      false,
      false,
      false,
      false,
      false,
      false,
      false,
      false,
      false,
      false,
      false,
      false,
      false,
      false,
      false,
      false,
      false,
      false,
      false,
      false,
      false,
      false,
      false,
      false,
      false,
      false,
      false,
      false,
      false,
      false,
      false,
      false,
      false,
      false,
      false,
      false,
      false,
      false,
      false,
      false,
      false,
      false,
      false,
      false,
      false,
      false,
      false,
      false,
      false,
      false,
      false,
      false,
      false,
      false
    ],
    "is_embankment": [
      false,
      false,
      false,
      false,
      false,
      false,
      false,
      false,
      false,
      false,
      false,
      false,
      false,
      false,
      false,
      false,
      false,
      false,
      false,
      false,
      false,
      false,
      false,
      false,
      false,
      false,
      false,
      false,
      false,
      false,
      false,
      false,
      false,
      false,
      false,
      false,
      false,
      false,
      false,
      false,
      false,
      false,
      false,
      false,
      false,
      false,
      false,
      false,
      false,
      false,
      false,
      false,
      false,
      false,
      false,
      false,
      false,
      false,
      false,
      false,
      false,
      false,
      false,
      false,
      false,
      false,
      false,
      false,
      false,
      false,
      false,
      false,
      false,
      false,
      false,
      false,
      false,
      false,
      false,
      false,
      false,
      false,
      false,
      false,
      false,
      false,
      false,
      false,
      false,
      false,
      false,
      false,
      false,
      false,
      false,
      false,
      false,
      false,
      false,
      false,
      false,
      false,
      false,
      false,
      false,
      false,
      false,
      false,
      false,
      false,
      false,
      false,
      false,
      false,
      false,
      false,
      false,
      false,
      false,
      false,
      false,
      false,
      false,
      false,
      false,
      false,
      false,
      false,
      false,
      false,
      false,
      false,
      false,
      false,
      false,
      false,
      false,
      false,
      false,
      false,
      false,
      false,
      false,
      false,
      false,
      false,
      false,
      false,
      false,
      false,
      false,
      false,
      false,
      false,
      false,
      false,
      false,
      false,
      false,
      false,
      false,
      false,
      false,
      false,
      false,
      false,
      false,
      false,
      false,
      false,
      false,
      false,
      false,
      false,
      false,
      false,
      false,
      false,
      false,
      false,
      false,
      false,
      false,
      false,
      false,
      false,
      false,
      false,
      false,
      false,
      false,
      false,
      false,
      false,
      false,
      false,
      false,
      false,
      false,
      false,
      false,
      false,
      false,
      false,
      false,
      false,
      false,
      false,
      false,
      false,
      false,
      false,
      false,
      false,
      false,
      false,
      false,
      false,
      false,
      false,
      false,
      false,
      false,
      false,
      false,
      false,
      false,
      false,
      false,
      false,
      false,
      false,
      false,
      false,
      false,
      false,
      false,
      false,
      false,
      false,
      false,
      false,
      false,
      false,
      false,
      false,
      false,
      false,
      false,
      false,
      false,
      false,
      false,
      false,
      false,
      false,
      false,
      false,
      false,
      false,
      false,
      false,
      false,
      false,
      false,
      false,
      false,
      false,
      false,
      false,
      false,
      false,
      false,
      false,
      false,
      false,
      false,
      false,
      false,
      false,
      false,
      false,
      false,
      false,
      false,
      false,
      false,
      false,
      false,
      false,
      false,
      false,
      false,
      false,
      false,
      false,
      false
    ],
    "name": "route_line3_29km"
  }
}