{
  "type": "Feature",
  "geometry": {
    "type": "LineString",
    "coordinates": [
      [
        -104.598541,
        38.2628839
      ],
      [
        -104.5980375,
        38.2625919
      ],
      [
        -104.5978643,
        38.2625
      ],
      [
        -104.5976754,
        38.2624155
      ],
      [
        -104.5974942,
        38.2623421
      ],
      [
        -104.5972919,
        38.262285
      ],
      [
        -104.5968085,
        38.2621733
      ],
      [
        -104.5966154,
        38.2621465
      ],
      [
        -104.5964701,
        38.2621264
      ],
      [
        -104.5960577,
        38.2621171
      ],
      [
        -104.5956966,
        38.2621373
      ],
      [
        -104.5953462,
        38.2621969
      ],
      [
        -104.5944014,
        38.2623607
      ],
      [
        -104.5941895,
        38.262397
      ],
      [
        -104.5935203,
        38.2624928
      ],
      [
        -104.5933899,
        38.2625163
      ],
      [
        -104.5921926,
        38.2627364
      ],
      [
        -104.5920631,
        38.2627556
      ],
      [
        -104.5915956,
        38.2628255
      ],
      [
        -104.5894671,
        38.2631876
      ],
      [
        -104.5877721,
        38.2634903
      ],
      [
        -104.5804769,
        38.2647127
      ],
      [
        -104.5802672,
        38.2647513
      ],
      [
        -104.5759956,
        38.2654756
      ],
      [
        -104.5733925,
        38.2659144
      ],
      [
        -104.5726195,
        38.2660687
      ],
      [
        -104.572255,
        38.266152
      ],
      [
        -104.5718994,
        38.2662491
      ],
      [
        -104.5712441,
        38.2664498
      ],
      [
        -104.5699606,
        38.2668531
      ],
      [
        -104.5692049,
        38.2670914
      ],
      [
        -104.567898,
        38.2675037
      ],
      [
        -104.5666659,
        38.2678941
      ],
      [
        -104.5663932,
        38.2679731
      ],
      [
        -104.5661155,
        38.2680611
      ],
      [
        -104.5619727,
        38.2693739
      ],
      [
        -104.560154,
        38.2699432
      ],
      [
        -104.5571514,
        38.2708893
      ],
      [
        -104.5553273,
        38.2714641
      ],
      [
        -104.5542412,
        38.2717619
      ],
      [
        -104.5531612,
        38.2720123
      ],
      [
        -104.5529975,
        38.2720502
      ],
      [
        -104.5523484,
        38.2721695
      ],
      [
        -104.551838,
        38.2722632
      ],
      [
        -104.5498491,
        38.2726049
      ],
      [
        -104.5476922,
        38.2729714
      ],
      [
        -104.5458937,
        38.2732863
      ],
      [
        -104.5442248,
        38.2735746
      ],
      [
        -104.5414014,
        38.2740637
      ],
      [
        -104.5397876,
        38.2743388
      ],
      [
        -104.5378761,
        38.2746544
      ],
      [
        -104.5367312,
        38.2747916
      ],
      [
        -104.535915,
        38.2748563
      ],
      [
        -104.5351184,
        38.2748981
      ],
      [
        -104.5344508,
        38.2749055
      ],
      [
        -104.534268,
        38.2749089
      ],
      [
        -104.5327086,
        38.2749298
      ],
      [
        -104.5297033,
        38.2749676
      ],
      [
        -104.5275123,
        38.2749936
      ],
      [
        -104.5262528,
        38.2750051
      ],
      [
        -104.5261227,
        38.2750083
      ],
      [
        -104.5231063,
        38.2750355
      ],
      [
        -104.5195963,
        38.2750777
      ],
      [
        -104.5177376,
        38.2750988
      ],
      [
        -104.516805,
        38.2751167
      ],
      [
        -104.5140721,
        38.2752035
      ],
      [
        -104.5107162,
        38.2753052
      ],
      [
        -104.5104722,
        38.2753134
      ],
      [
        -104.5084619,
        38.2753684
      ],
      [
        -104.5063883,
        38.2754368
      ],
      [
        -104.5058704,
        38.2754546
      ],
      [
        -104.501352,
        38.27561
      ],
      [
        -104.5005267,
        38.2756152
      ],
      [
        -104.4960016,
        38.2757498
      ],
      [
        -104.4774954,
        38.2763126
      ],
      [
        -104.4753768,
        38.2763751
      ],
      [
        -104.4736051,
        38.2764284
      ],
      [
        -104.472737,
        38.2764353
      ],
      [
        -104.4719405,
        38.2764131
      ],
      [
        -104.4715209,
        38.2763902
      ],
      [
        -104.4710717,
        38.2763589
      ],
      [
        -104.4689307,
        38.2761727
      ],
      [
        -104.4676361,
        38.2760645
      ],
      [
        -104.4661556,
        38.2759304
      ],
      [
        -104.4643858,
        38.2757763
      ],
      [
        -104.4642362,
        38.2757621
      ],
      [
        -104.4576461,
        38.2751933
      ],
      [
        -104.4454556,
        38.2741226
      ],
      [
        -104.4109991,
        38.2711184
      ],
      [
        -104.4087309,
        38.270925
      ],
      [
        -104.4068062,
        38.2707559
      ],
      [
        -104.404892,
        38.2705869
      ],
      [
        -104.4022731,
        38.2703491
      ],
      [
        -104.3991968,
        38.270078
      ],
      [
        -104.3938032,
        38.2695999
      ],
      [
        -104.3908421,
        38.2693403
      ],
      [
        -104.3872745,
        38.2690233
      ],
      [
        -104.3859574,
        38.268911
      ],
      [
        -104.3829089,
        38.268634
      ],
      [
        -104.3791699,
        38.2683017
      ],
      [
        -104.3783954,
        38.2681998
      ],
      [
        -104.3775956,
        38.2680739
      ],
      [
        -104.3764619,
        38.2678522
      ],
      [
        -104.3748576,
        38.2675124
      ],
      [
        -104.3743883,
        38.267413
      ],
      [
        -104.3731615,
        38.2671573
      ],
      [
        -104.3719148,
        38.266904
      ],
      [
        -104.3702815,
        38.2665558
      ],
      [
        -104.3692985,
        38.2663441
      ],
      [
        -104.3537662,
        38.2630974
      ],
      [
        -104.3501099,
        38.262326
      ],
      [
        -104.3476315,
        38.2618121
      ],
      [
        -104.3435103,
        38.2609474
      ],
      [
        -104.3425836,
        38.2607528
      ],
      [
        -104.3406341,
        38.2603437
      ],
      [
        -104.3392274,
        38.2600572
      ],
      [
        -104.3375121,
        38.2597024
      ],
      [
        -104.3365268,
        38.2595408
      ],
      [
        -104.3333945,
        38.2590869
      ],
      [
        -104.3312391,
        38.258762
      ],
      [
        -104.3284629,
        38.2583597
      ],
      [
        -104.3251581,
        38.2578812
      ],
      [
        -104.3226366,
        38.2575059
      ],
      [
        -104.3190554,
        38.2569875
      ],
      [
        -104.3146066,
        38.2563325
      ],
      [
        -104.3115123,
        38.2558812
      ],
      [
        -104.3088019,
        38.2554817
      ],
      [
        -104.3015967,
        38.2544218
      ],
      [
        -104.2994113,
        38.2541234
      ],
      [
        -104.2986926,
        38.2540346
      ],
      [
        -104.2976853,
        38.2539149
      ]
    ]
  },
  "properties": {
    "relation_id": -1,
    "relation_tags": {
      "line_group": "4"
    },
    "length_m": 26728.435929072148,
    "num_vertices": 131,
    "maxspeed_coverage": 1.0,
    "is_service": false,
    "service_kind": null,
    "line_group": 4,
    "group_order": null,
    "used_way_ids": [
      99197606,
      99279331,
      170684337,
      170684338,
      170684390,
      170685235,
      172470002,
      172470003,
      242782679,
      242782680,
      242782681,
      242782684,
      251422074,
      251422078,
      251422079,
      251422081,
      251422083,
      251424957,
      251424958,
      251424959,
      251424960,
      306417090,
      306417095,
      420330034,
      420330035,
      1064010245,
      1064010246,
      1064010247
    ],
    "n_gaps": 0,
    "n_branches": 0,
    "dropped_way_ids": [],
    "order": [],
    "s_m": [
      0.0,
      54.65053792336251,
      72.90137958878701,
      91.88266001452317,
      109.68422110518101,
      128.45328262508562,
      172.4479654115937,
      189.5686353145568,
      202.44998239744314,
      238.47098396782582,
      270.07810531253295,
      301.3806788548537,
      385.8567524860479,
      404.7926242566588,
      464.18257471770994,
      475.8636125633057,
      583.2244986196231,
      594.7306943752915,
      636.2806465672513,
      826.4270291835165,
      978.1924911098545,
      1629.4527878982062,
      1648.257182428065,
      2029.787604995985,
      2262.22876590315,
      2331.8617496919637,
      2365.0046911711884,
      2397.873901011814,
      2459.282707518368,
      2579.977125544849,
      2651.0743512062495,
      2774.0364310779187,
      2890.030787647454,
      2915.406938991679,
      2941.550886394488,
      3331.569505694777,
      3502.496049634068,
      3784.94272408503,
      3956.5310249887552,
      4056.960950657889,
      4155.267225032166,
      4170.166176130443,
      4228.362609856132,
      4274.120804173225,
      4451.853432724955,
      4644.501950003704,
      4805.3603370160035,
      4954.532673636829,
      5206.929706354188,
      5351.088123251482,
      5521.600817515612,
      5622.701023026421,
      5694.312314556302,
      5764.0054644207885,
      5822.288381538138,
      5838.250101277932,
      5974.395313321245,
      6236.771822985512,
      6428.053417442346,
      6538.006808183095,
      6549.369242674391,
      6812.698144585292,
      7119.133436381628,
      7281.402321035128,
      7362.836291173034,
      7601.594880371605,
      7894.75974149536,
      7916.078731644981,
      8091.670231982003,
      8272.840404548377,
      8318.092650618306,
      8712.89428923391,
      8784.939190024796,
      9180.22998720285,
      10796.8866313069,
      10981.953399922952,
      11136.721533775883,
      11212.503266466756,
      11282.07485083375,
      11318.790832259703,
      11358.156412837536,
      11546.191544517651,
      11659.838399381446,
      11789.931791649677,
      11945.369081540108,
      11958.523136993355,
      12537.25758943323,
      13608.051241186315,
      16634.465194183744,
      16833.639155643916,
      17002.71109089077,
      17170.871254395493,
      17401.022060253857,
      17671.266796655374,
      18145.117230702315,
      18405.227907934735,
      18718.668864119838,
      18834.328532552103,
      19102.241515109756,
      19430.745339041016,
      19499.30313051201,
      19570.51653412918,
      19672.514473395087,
      19817.580343762776,
      19860.016037821835,
      19970.82862624801,
      20083.254472836456,
      20231.01000356473,
      20319.999382035585,
      21723.290888052383,
      22053.838707463547,
      22277.643039262322,
      22650.088837535415,
      22733.842854251638,
      22910.028922587186,
      23036.913839534187,
      23191.788450266613,
      23279.673396041457,
      23557.779551854164,
      23749.409529357035,
      23995.90130584493,
      24289.319799001878,
      24513.402563800686,
      24831.362666375044,
      25226.580283973537,
      25501.38311285725,
      25742.178930898113,
      26382.26214490329,
      26575.950672336792,
      26639.47852062127,
      26728.435929072148
    ],
    "way_id": [
      99197606,
      99197606,
      99197606,
      99197606,
      99197606,
      99197606,
      170685235,
      170685235,
      170685235,
      170685235,
      170685235,
      170685235,
      1064010245,
      170684390,
      170684390,
      170684390,
      170684390,
      170684390,
      170684337,
      170684338,
      170684338,
      170684338,
      172470002,
      1064010247,
      1064010247,
      1064010246,
      1064010246,
      1064010246,
      1064010246,
      172470003,
      172470003,
      172470003,
      172470003,
      172470003,
      420330034,
      420330035,
      420330035,
      420330035,
      420330035,
      420330035,
      420330035,
      420330035,
      306417090,
      306417095,
      306417095,
      306417095,
      306417095,
      306417095,
      306417095,
      306417095,
      306417095,
      306417095,
      306417095,
      306417095,
      306417095,
      242782680,
      242782679,
      242782679,
      242782679,
      242782679,
      242782684,
      242782681,
      242782681,
      242782681,
      242782681,
      242782681,
      242782681,
      251424958,
      251424960,
      251424960,
      251424959,
      251424957,
      251424957,
      251424957,
      251424957,
      251424957,
      251424957,
      251424957,
      251424957,
      251424957,
      251424957,
      251424957,
      251424957,
      251424957,
      251424957,
      251422078,
      251422074,
      251422074,
      251422074,
      251422074,
      251422074,
      251422074,
      251422074,
      251422074,
      251422074,
      251422074,
      251422074,
      251422074,
      251422074,
      251422074,
      99279331,
      99279331,
      99279331,
      99279331,
      99279331,
      251422083,
      251422079,
      251422081,
      251422081,
      251422081,
      251422081,
      251422081,
      251422081,
      251422081,
      251422081,
      251422081,
      251422081,
      251422081,
      251422081,
      251422081,
      251422081,
      251422081,
      251422081,
      251422081,
      251422081,
      251422081,
      251422081,
      251422081,
      251422081,
      251422081,
      251422081
    ],
    "maxspeed_kph": [
      24.14016,
      24.14016,
      24.14016,
      24.14016,
      24.14016,
      24.14016,
      40.2336,
      40.2336,
      40.2336,
      40.2336,
      40.2336,
      40.2336,
      40.2336,
      88.51392000000001,
      88.51392000000001,
      88.51392000000001,
      88.51392000000001,
      88.51392000000001,
      88.51392000000001,
      88.51392000000001,
      88.51392000000001,
      88.51392000000001,
      88.51392000000001,
      88.51392000000001,
      88.51392000000001,
      80.4672,
      80.4672,
      80.4672,
      80.4672,
      88.51392000000001,
      88.51392000000001,
      88.51392000000001,
      88.51392000000001,
      88.51392000000001,
      88.51392000000001,
      88.51392000000001,
      88.51392000000001,
      88.51392000000001,
      88.51392000000001,
      88.51392000000001,
      88.51392000000001,
      88.51392000000001,
      88.51392000000001,
      88.51392000000001,
      88.51392000000001,
      88.51392000000001,
      88.51392000000001,
      88.51392000000001,
      88.51392000000001,
      88.51392000000001,
      88.51392000000001,
      88.51392000000001,
      88.51392000000001,
      88.51392000000001,
      88.51392000000001,
      88.51392000000001,
      88.51392000000001,
      88.51392000000001,
      88.51392000000001,
      88.51392000000001,
      88.51392000000001,
      88.51392000000001,
      88.51392000000001,
      88.51392000000001,
      88.51392000000001,
      88.51392000000001,
      88.51392000000001,
      88.51392000000001,
      88.51392000000001,
      88.51392000000001,
      88.51392000000001,
      88.51392000000001,
      88.51392000000001,
      88.51392000000001,
      88.51392000000001,
      88.51392000000001,
      88.51392000000001,
      88.51392000000001,
      88.51392000000001,
      88.51392000000001,
      88.51392000000001,
      88.51392000000001,
      88.51392000000001,
      88.51392000000001,
      88.51392000000001,
      88.51392000000001,
      88.51392000000001,
      88.51392000000001,
      88.51392000000001,
      88.51392000000001,
      88.51392000000001,
      88.51392000000001,
      88.51392000000001,
      88.51392000000001,
      88.51392000000001,
      88.51392000000001,
      88.51392000000001,
      88.51392000000001,
      88.51392000000001,
      88.51392000000001,
      88.51392000000001,
      88.51392000000001,
      88.51392000000001,
      88.51392000000001,
      88.51392000000001,
      88.51392000000001,
      88.51392000000001,
      88.51392000000001,
      88.51392000000001,
      88.51392000000001,
      88.51392000000001,
      88.51392000000001,
      88.51392000000001,
      88.51392000000001,
      88.51392000000001,
      88.51392000000001,
      88.51392000000001,
      88.51392000000001,
      88.51392000000001,
      88.51392000000001,
      88.51392000000001,
      88.51392000000001,
      88.51392000000001,
      88.51392000000001,
      88.51392000000001,
      88.51392000000001,
      88.51392000000001,
      88.51392000000001,
      88.51392000000001,
      88.51392000000001,
      88.51392000000001
    ],
    "is_bridge": [
      false,
      false,
      false,
      false,
      false,
      false,
      true,
      true,
      true,
      true,
      true,
      true,
      false,
      false,
      false,
      false,
      false,
      false,
      true,
      false,
      false,
      false,
      true,
      false,
      false,
      false,
      false,
      false,
      false,
      false,
      false,
      false,
      false,
      false,
      true,
      false,
      false,
      false,
      false,
      false,
      false,
      false,
      true,
      false,
      false,
      false,
      false,
      false,
      false,
      false,
      false,
      false,
      false,
      false,
      false,
      true,
      false,
      false,
      false,
      false,
      true,
      false,
      false,
      false,
      false,
      false,
      false,
      true,
      false,
      false,
      true,
      false,
      false,
      false,
      false,
      false,
      false,
      false,
      false,
      false,
      false,
      false,
      false,
      false,
      false,
      true,
      false,
      false,
      false,
      false,
      false,
      false,
      false,
      false,
      false,
      false,
      false,
      false,
      false,
      false,
      false,
      false,
      false,
      false,
      false,
      false,
      true,
      false,
      false,
      false,
      false,
      false,
      false,
      false,
      false,
      false,
      false,
      false,
      false,
      false,
      false,
      false,
      false,
      false,
      false,
      false,
      false,
      false,
      false,
      false,
      false
    ],
    "is_tunnel": [
      false,
      false,
      false,
      false,
      false,
      false,
      false,
      false,
      false,
      false,
      false,
      false,
      false,
      false,
      false,
      false,
      false,
      false,
      false,
      false,
      false,
      false,
      false,
      false,
      false,
      false,
      false,
      false,
      false,
      false,
      false,
      false,
      false,
      false,
      false,
      false,
      false,
      false,
      false,
      false,
      false,
      false,
      false,
      false,
      false,
      false,
      false,
      false,
      false,
      false,
      false,
      false,
      false,
      false,
      false,
      false,
      false,
      false,
      false,
      false,
      false,
      false,
      false,
      false,
      false,
      false,
      false,
      false,
      false,
      false,
      false,
      false,
      false,
      false,
      false,
      false,
      false,
      false,
      false,
      false,
      false,
      false,
      false,
      false,
      false,
      false,
      false,
      false,
      false,
      false,
      false,
      false,
      false,
      false,
      false,
      false,
      false,
      false,
      false,
      false,
      false,
      false,
      false,
      false,
      false,
      false,
      false,
      false,
      false,
      false,
      false,
      false,
      false,
      false,
      false,
      false,
      false,
      false,
      false,
      false,
      false,
      false,
      false,
      false,
      false,
      false,
      false,
      false,
      false,
      false,
      false
    ],
    "is_cutting": [
      false,
      false,
      false,
      false,
      false,
      false,
      false,
      false,
      false,
      false,
      false,
      false,
      false,
      false,
      false,
      false,
      false,
      false,
      false,
      false,
      false,
      false,
      false,
      false,
      false,
      false,
      false,
      false,
      false,
      false,
      false,
      false,
      false,
      false,
      false,
      false,
      false,
      false,
      false,
      false,
      false,
      false,
      false,
      false,
      false,
      false,
      false,
      false,
      false,
      false,
      false,
      false,
      false,
      false,
      false,
      false,
      false,
      false,
      false,
      false,
      false,
      false,
      false,
      false,
      false,
      false,
      false,
      false,
      false,
      false,
      false,
      false,
      false,
      false,
      false,
      false,
      false,
      false,
      false,
      false,
      false,
      false,
      false,
      false,
      false,
      false,
      false,
      false,
      false,
      false,
      false,
      false,
      false,
      false,
      false,
      false,
      false,
      false,
      false,
      false,
      false,
      false,
      false,
      false,
      false,
      false,
      false,
      false,
      false,
      false,
      false,
      false,
      false,
      false,
      false,
      false,
      false,
      false,
      false,
      false,
      false,
      false,
      false,
      false,
      false,
      false,
      false,
      false,
      false,
      false,
      false
    ],
    "is_embankment": [
      false,
      false,
      false,
      false,
      false,
      false,
      false,
      false,
      false,
      false,
      false,
      false,
      false,
      false,
      false,
      false,
      false,
      false,
      false,
      false,
      false,
      false,
      false,
      false,
      false,
      false,
      false,
      false,
      false,
      false,
      false,
      false,
      false,
      false,
      false,
      false,
      false,
      false,
      false,
      false,
      false,
      false,
      false,
      false,
      false,
      false,
      false,
      false,
      false,
      false,
      false,
      false,
      false,
      false,
      false,
      false,
      false,
      false,
      false,
      false,
      false,
      false,
      false,
      false,
      false,
      false,
      false,
      false,
      false,
      false,
      false,
      false,
      false,
      false,
      false,
      false,
      false,
      false,
      false,
      false,
      false,
      false,
      false,
      false,
      false,
      false,
      false,
      false,
      false,
      false,
      false,
      false,
      false,
      false,
      false,
      false,
      false,
      false,
      false,
      false,
      false,
      false,
      false,
      false,
      false,
      false,
      false,
      false,
      false,
      false,
      false,
      false,
      false,
      false,
      false,
      false,
      false,
      false,
      false,
      false,
      false,
      false,
      false,
      false,
      false,
      false,
      false,
      false,
      false,
      false,
      false
    ],
    "name": "route_line4_27km"
  }
}