{
  "type": "Feature",
  "geometry": {
    "type": "LineString",
    "coordinates": [
      [
        -104.8918181,
        38.3185834
      ],
      [
        -104.8908674,
        38.3183197
      ],
      [
        -104.8899312,
        38.3180071
      ],
      [
        -104.889235,
        38.3177132
      ],
      [
        -104.8887741,
        38.3174571
      ],
      [
        -104.8883014,
        38.3171722
      ],
      [
        -104.8873385,
        38.3164211
      ],
      [
        -104.8867111,
        38.3157712
      ],
      [
        -104.8854948,
        38.3142927
      ],
      [
        -104.8849042,
        38.3136598
      ],
      [
        -104.880807,
        38.310043
      ],
      [
        -104.8798101,
        38.3093575
      ],
      [
        -104.8793011,
        38.3090938
      ],
      [
        -104.8788018,
        38.3088414
      ],
      [
        -104.8783025,
        38.3086191
      ],
      [
        -104.8776687,
        38.3083855
      ],
      [
        -104.8772654,
        38.3082574
      ],
      [
        -104.8647772,
        38.3050173
      ],
      [
        -104.863865,
        38.3048289
      ],
      [
        -104.86302,
        38.3047159
      ],
      [
        -104.8620933,
        38.3046443
      ],
      [
        -104.8610178,
        38.3046706
      ],
      [
        -104.8604705,
        38.3047046
      ],
      [
        -104.8598559,
        38.3047686
      ],
      [
        -104.8578053,
        38.3050969
      ],
      [
        -104.8555925,
        38.3054612
      ],
      [
        -104.8542175,
        38.305561
      ],
      [
        -104.8536615,
        38.30557
      ],
      [
        -104.8526324,
        38.3054999
      ],
      [
        -104.8518878,
        38.3054117
      ],
      [
        -104.8510359,
        38.3052339
      ],
      [
        -104.8503412,
        38.3050531
      ],
      [
        -104.8358909,
        38.3000381
      ],
      [
        -104.8353678,
        38.2998571
      ],
      [
        -104.8345795,
        38.2996002
      ],
      [
        -104.8341555,
        38.2994782
      ],
      [
        -104.833652,
        38.2993518
      ],
      [
        -104.8331175,
        38.299234
      ],
      [
        -104.8326268,
        38.2991372
      ],
      [
        -104.8320768,
        38.2990614
      ],
      [
        -104.8315189,
        38.2989983
      ],
      [
        -104.8309475,
        38.2989478
      ],
      [
        -104.8300987,
        38.2988868
      ],
      [
        -104.8289683,
        38.2988159
      ],
      [
        -104.8273759,
        38.2986956
      ],
      [
        -104.8261237,
        38.29862
      ],
      [
        -104.8252934,
        38.2985048
      ],
      [
        -104.8245656,
        38.2983873
      ],
      [
        -104.8239845,
        38.2982506
      ],
      [
        -104.8234427,
        38.2981079
      ],
      [
        -104.8223315,
        38.2977972
      ],
      [
        -104.8209623,
        38.2974153
      ],
      [
        -104.8203169,
        38.2972663
      ],
      [
        -104.819395,
        38.2971184
      ],
      [
        -104.8188246,
        38.2970595
      ],
      [
        -104.8179076,
        38.2970279
      ],
      [
        -104.8148932,
        38.2969789
      ],
      [
        -104.8132283,
        38.2969407
      ],
      [
        -104.8117056,
        38.2969215
      ],
      [
        -104.8095986,
        38.2968925
      ],
      [
        -104.8078562,
        38.2969013
      ],
      [
        -104.806498,
        38.2968279
      ],
      [
        -104.8041759,
        38.2967745
      ],
      [
        -104.8025385,
        38.2967193
      ],
      [
        -104.8023396,
        38.2967042
      ],
      [
        -104.8003921,
        38.2965567
      ],
      [
        -104.7988074,
        38.2963631
      ],
      [
        -104.7976978,
        38.2962028
      ],
      [
        -104.797015,
        38.2960953
      ],
      [
        -104.7960472,
        38.2959202
      ],
      [
        -104.7952268,
        38.2957702
      ],
      [
        -104.7945021,
        38.2956393
      ],
      [
        -104.7935695,
        38.2954709
      ],
      [
        -104.7923492,
        38.2952401
      ],
      [
        -104.7906928,
        38.2949368
      ],
      [
        -104.7894559,
        38.294711
      ],
      [
        -104.7878494,
        38.2944148
      ],
      [
        -104.7863097,
        38.2941251
      ],
      [
        -104.7857046,
        38.2940205
      ],
      [
        -104.7824351,
        38.2934167
      ],
      [
        -104.7744769,
        38.2919498
      ],
      [
        -104.7722138,
        38.2915292
      ],
      [
        -104.7714843,
        38.2913839
      ],
      [
        -104.7710043,
        38.2912609
      ],
      [
        -104.770354,
        38.2910619
      ],
      [
        -104.7699545,
        38.2909226
      ],
      [
        -104.769018,
        38.2905229
      ],
      [
        -104.768222,
        38.290105
      ],
      [
        -104.7673282,
        38.2895113
      ],
      [
        -104.766334,
        38.28864
      ],
      [
        -104.765608,
        38.28777
      ],
      [
        -104.764039,
        38.285389
      ],
      [
        -104.763502,
        38.284592
      ],
      [
        -104.763276,
        38.28431
      ],
      [
        -104.763021,
        38.284021
      ],
      [
        -104.76273,
        38.283732
      ],
      [
        -104.761761,
        38.282909
      ],
      [
        -104.760929,
        38.282338
      ],
      [
        -104.7604,
        38.282049
      ],
      [
        -104.759904,
        38.281832
      ],
      [
        -104.759324,
        38.281592
      ],
      [
        -104.758604,
        38.281359
      ],
      [
        -104.757966,
        38.281173
      ],
      [
        -104.757182,
        38.281006
      ],
      [
        -104.756701,
        38.280926
      ],
      [
        -104.756061,
        38.280857
      ],
      [
        -104.755277,
        38.280792
      ],
      [
        -104.753757,
        38.280705
      ],
      [
        -104.752382,
        38.28064
      ],
      [
        -104.746307,
        38.280301
      ],
      [
        -104.7454458,
        38.2802772
      ],
      [
        -104.744888,
        38.280225
      ],
      [
        -104.744669,
        38.280212
      ],
      [
        -104.743779,
        38.28016
      ],
      [
        -104.74333,
        38.280134
      ],
      [
        -104.741194,
        38.280027
      ],
      [
        -104.739958,
        38.28002
      ],
      [
        -104.73939,
        38.28005
      ],
      [
        -104.7387327,
        38.28013
      ],
      [
        -104.7381709,
        38.2802002
      ],
      [
        -104.7374373,
        38.2803251
      ],
      [
        -104.7366437,
        38.2804983
      ],
      [
        -104.7358897,
        38.2806963
      ],
      [
        -104.734075,
        38.281292
      ],
      [
        -104.7332893,
        38.2815455
      ],
      [
        -104.7327713,
        38.2817123
      ],
      [
        -104.7320973,
        38.2818976
      ],
      [
        -104.7314694,
        38.2820243
      ],
      [
        -104.730988,
        38.2821099
      ],
      [
        -104.7304836,
        38.2821761
      ],
      [
        -104.7299486,
        38.2822176
      ],
      [
        -104.7293964,
        38.2822352
      ],
      [
        -104.7287687,
        38.2822284
      ],
      [
        -104.7250827,
        38.2821773
      ],
      [
        -104.7176463,
        38.2820752
      ],
      [
        -104.7165464,
        38.2820338
      ],
      [
        -104.7161682,
        38.2820072
      ],
      [
        -104.7148293,
        38.2818434
      ],
      [
        -104.7116155,
        38.2814281
      ],
      [
        -104.70975,
        38.2811934
      ],
      [
        -104.7091082,
        38.2810878
      ],
      [
        -104.7084062,
        38.2809323
      ],
      [
        -104.7077866,
        38.2807565
      ],
      [
        -104.7071099,
        38.2805193
      ],
      [
        -104.7064535,
        38.2802396
      ],
      [
        -104.7059861,
        38.2800108
      ],
      [
        -104.705547,
        38.2797732
      ],
      [
        -104.7046994,
        38.2792205
      ],
      [
        -104.7038974,
        38.2785657
      ],
      [
        -104.703306,
        38.2779592
      ],
      [
        -104.7028192,
        38.2773698
      ],
      [
        -104.7022532,
        38.276418
      ],
      [
        -104.7009256,
        38.2737565
      ],
      [
        -104.7004132,
        38.272931
      ],
      [
        -104.7000423,
        38.2724801
      ],
      [
        -104.6996514,
        38.2720739
      ],
      [
        -104.6990024,
        38.2715223
      ],
      [
        -104.6981655,
        38.2709579
      ],
      [
        -104.6975934,
        38.2706808
      ],
      [
        -104.6970168,
        38.2704379
      ],
      [
        -104.6965463,
        38.2702749
      ],
      [
        -104.6959918,
        38.2701119
      ],
      [
        -104.6955588,
        38.2700078
      ],
      [
        -104.6950552,
        38.2699211
      ],
      [
        -104.694567,
        38.269857
      ],
      [
        -104.6941185,
        38.2698205
      ],
      [
        -104.693542,
        38.2698015
      ],
      [
        -104.6931046,
        38.2698067
      ],
      [
        -104.6926274,
        38.2698448
      ],
      [
        -104.6921569,
        38.2698951
      ],
      [
        -104.6916599,
        38.2699732
      ],
      [
        -104.6908624,
        38.2701622
      ],
      [
        -104.6903941,
        38.2703027
      ],
      [
        -104.6898087,
        38.2705264
      ],
      [
        -104.6893448,
        38.2707276
      ],
      [
        -104.6888654,
        38.2709808
      ],
      [
        -104.688618,
        38.2711265
      ],
      [
        -104.6883088,
        38.2713207
      ],
      [
        -104.6878073,
        38.2716797
      ],
      [
        -104.6868663,
        38.2723647
      ],
      [
        -104.6854282,
        38.2734226
      ],
      [
        -104.6841027,
        38.2743834
      ],
      [
        -104.683292,
        38.2749817
      ],
      [
        -104.6804755,
        38.2770402
      ],
      [
        -104.67841,
        38.2785489
      ],
      [
        -104.6768615,
        38.279676
      ],
      [
        -104.6763804,
        38.280047
      ],
      [
        -104.675974,
        38.2803544
      ],
      [
        -104.6756687,
        38.2805704
      ],
      [
        -104.6753395,
        38.2807872
      ],
      [
        -104.675006,
        38.2809848
      ],
      [
        -104.6746857,
        38.2811617
      ],
      [
        -104.6743631,
        38.2813368
      ],
      [
        -104.6741201,
        38.2814496
      ],
      [
        -104.6738153,
        38.2815935
      ],
      [
        -104.6734618,
        38.2817461
      ],
      [
        -104.673104,
        38.2818779
      ],
      [
        -104.6726909,
        38.2820287
      ],
      [
        -104.6722093,
        38.2821744
      ],
      [
        -104.6715665,
        38.2823495
      ],
      [
        -104.6711269,
        38.2824466
      ],
      [
        -104.6706718,
        38.2825368
      ],
      [
        -104.6702764,
        38.2825975
      ],
      [
        -104.6698567,
        38.2826512
      ],
      [
        -104.6694546,
        38.2826911
      ],
      [
        -104.6690968,
        38.2827137
      ],
      [
        -104.6686285,
        38.2827379
      ],
      [
        -104.6682198,
        38.2827449
      ],
      [
        -104.667789,
        38.2827397
      ],
      [
        -104.6674267,
        38.2827258
      ],
      [
        -104.6670379,
        38.2826981
      ],
      [
        -104.6666226,
        38.2826599
      ],
      [
        -104.6662162,
        38.2826044
      ],
      [
        -104.6657191,
        38.2825247
      ],
      [
        -104.6652994,
        38.2824466
      ],
      [
        -104.6649018,
        38.2823513
      ],
      [
        -104.6644887,
        38.2822368
      ],
      [
        -104.6640889,
        38.2821206
      ],
      [
        -104.663572,
        38.2819524
      ],
      [
        -104.6630219,
        38.2817391
      ],
      [
        -104.6626773,
        38.2816004
      ],
      [
        -104.6621891,
        38.2813646
      ],
      [
        -104.6617141,
        38.2811236
      ],
      [
        -104.6612304,
        38.2808392
      ],
      [
        -104.6606451,
        38.2804555
      ],
      [
        -104.6604353,
        38.2803099
      ],
      [
        -104.6601061,
        38.280055
      ],
      [
        -104.6599184,
        38.2799024
      ],
      [
        -104.6597063,
        38.2797186
      ],
      [
        -104.659439,
        38.2794758
      ],
      [
        -104.6592314,
        38.2792746
      ],
      [
        -104.6588916,
        38.2789404
      ],
      [
        -104.6581546,
        38.2782111
      ],
      [
        -104.6568294,
        38.2769258
      ],
      [
        -104.6566686,
        38.2767845
      ],
      [
        -104.6564453,
        38.2765998
      ],
      [
        -104.6562148,
        38.2764226
      ],
      [
        -104.6559028,
        38.2761965
      ],
      [
        -104.6554874,
        38.2759326
      ],
      [
        -104.6553049,
        38.2758241
      ],
      [
        -104.6550455,
        38.2756788
      ],
      [
        -104.6547671,
        38.2755324
      ],
      [
        -104.6544596,
        38.2753848
      ],
      [
        -104.6540632,
        38.2752097
      ],
      [
        -104.6537819,
        38.2750965
      ],
      [
        -104.653419,
        38.2749672
      ],
      [
        -104.6530925,
        38.2748573
      ],
      [
        -104.6527296,
        38.2747509
      ],
      [
        -104.652393,
        38.2746617
      ],
      [
        -104.6520315,
        38.2745782
      ],
      [
        -104.6516628,
        38.2745026
      ],
      [
        -104.651366,
        38.2744528
      ],
      [
        -104.6510923,
        38.2744076
      ],
      [
        -104.6508379,
        38.2743755
      ],
      [
        -104.6506583,
        38.2743537
      ],
      [
        -104.6503097,
        38.2743265
      ],
      [
        -104.6500049,
        38.2743079
      ],
      [
        -104.6497732,
        38.2742999
      ],
      [
        -104.6494977,
        38.2742965
      ],
      [
        -104.6492339,
        38.2742976
      ],
      [
        -104.6489453,
        38.2743045
      ],
      [
        -104.648718,
        38.2743159
      ],
      [
        -104.6484746,
        38.2743331
      ],
      [
        -104.6482647,
        38.2743491
      ],
      [
        -104.6479255,
        38.2743841
      ],
      [
        -104.6475661,
        38.2744326
      ],
      [
        -104.6471933,
        38.2744915
      ],
      [
        -104.6468338,
        38.2745631
      ],
      [
        -104.6465334,
        38.2746326
      ],
      [
        -104.6461383,
        38.2747312
      ],
      [
        -104.6457332,
        38.2748445
      ],
      [
        -104.6454445,
        38.2749295
      ],
      [
        -104.6433416,
        38.2755486
      ],
      [
        -104.6429205,
        38.2756665
      ],
      [
        -104.6425316,
        38.2757591
      ],
      [
        -104.6421051,
        38.2758518
      ],
      [
        -104.6416143,
        38.275936
      ],
      [
        -104.640874,
        38.2760497
      ],
      [
        -104.6396748,
        38.276225
      ],
      [
        -104.6385627,
        38.2763792
      ],
      [
        -104.6383688,
        38.2764034
      ],
      [
        -104.6381274,
        38.2764245
      ],
      [
        -104.6378404,
        38.2764308
      ],
      [
        -104.6375218,
        38.2764198
      ],
      [
        -104.6366709,
        38.2764102
      ],
      [
        -104.6365557,
        38.276404
      ],
      [
        -104.6364828,
        38.2764001
      ],
      [
        -104.6362843,
        38.2763864
      ],
      [
        -104.6361234,
        38.2763685
      ],
      [
        -104.6359852,
        38.2763485
      ],
      [
        -104.6358243,
        38.2763211
      ],
      [
        -104.6356768,
        38.2762874
      ],
      [
        -104.6355454,
        38.2762537
      ],
      [
        -104.6353777,
        38.2762043
      ],
      [
        -104.6352087,
        38.2761463
      ],
      [
        -104.634418,
        38.2758313
      ],
      [
        -104.6342192,
        38.2757513
      ],
      [
        -104.6331731,
        38.2753333
      ],
      [
        -104.6325877,
        38.2750922
      ],
      [
        -104.6322983,
        38.2749587
      ],
      [
        -104.6320244,
        38.274813
      ],
      [
        -104.629468,
        38.2734475
      ],
      [
        -104.6253357,
        38.2712403
      ],
      [
        -104.6249929,
        38.2710507
      ],
      [
        -104.6246947,
        38.2708686
      ],
      [
        -104.6238796,
        38.2703465
      ],
      [
        -104.6235423,
        38.2701195
      ],
      [
        -104.6232475,
        38.2699131
      ],
      [
        -104.6229846,
        38.2697068
      ],
      [
        -104.6227041,
        38.2694622
      ],
      [
        -104.6225627,
        38.26932
      ],
      [
        -104.6224279,
        38.2691743
      ],
      [
        -104.6221632,
        38.2688808
      ],
      [
        -104.6217346,
        38.2683532
      ],
      [
        -104.6211212,
        38.2676297
      ],
      [
        -104.6210193,
        38.2674886
      ],
      [
        -104.6208575,
        38.2672392
      ],
      [
        -104.6207646,
        38.2670721
      ],
      [
        -104.6208972,
        38.2672737
      ],
      [
        -104.6209664,
        38.2673622
      ],
      [
        -104.621267,
        38.2677208
      ],
      [
        -104.6222059,
        38.268855
      ],
      [
        -104.6224116,
        38.269091
      ],
      [
        -104.622548,
        38.2692416
      ],
      [
        -104.6227101,
        38.2694014
      ],
      [
        -104.6228841,
        38.2695644
      ],
      [
        -104.6230423,
        38.2696995
      ],
      [
        -104.6231312,
        38.2697709
      ],
      [
        -104.6232736,
        38.2698827
      ],
      [
        -104.6234733,
        38.2700208
      ],
      [
        -104.6239122,
        38.2703126
      ],
      [
        -104.6244164,
        38.2706324
      ],
      [
        -104.6248474,
        38.2709102
      ],
      [
        -104.6249937,
        38.2710003
      ],
      [
        -104.62514,
        38.2710841
      ],
      [
        -104.6254584,
        38.2712548
      ],
      [
        -104.6295084,
        38.2734147
      ],
      [
        -104.6321181,
        38.2748127
      ],
      [
        -104.6323475,
        38.2749307
      ],
      [
        -104.6325195,
        38.2750145
      ],
      [
        -104.6327133,
        38.2750968
      ],
      [
        -104.6338145,
        38.2755454
      ],
      [
        -104.6339198,
        38.2755861
      ],
      [
        -104.6342258,
        38.2757099
      ],
      [
        -104.6343246,
        38.275744
      ],
      [
        -104.6344215,
        38.2757689
      ],
      [
        -104.6345342,
        38.2757968
      ],
      [
        -104.634641,
        38.2758263
      ],
      [
        -104.6348772,
        38.2758927
      ],
      [
        -104.6351674,
        38.2760036
      ],
      [
        -104.6354774,
        38.2761129
      ],
      [
        -104.6357536,
        38.2761992
      ],
      [
        -104.6358192,
        38.2762154
      ],
      [
        -104.6360433,
        38.2762708
      ],
      [
        -104.6362928,
        38.2763171
      ],
      [
        -104.6364751,
        38.2763424
      ],
      [
        -104.6365529,
        38.2763483
      ],
      [
        -104.6367379,
        38.2763655
      ],
      [
        -104.6368744,
        38.2763726
      ],
      [
        -104.637379,
        38.2763782
      ],
      [
        -104.6377948,
        38.2763697
      ],
      [
        -104.6380281,
        38.2763487
      ],
      [
        -104.6384481,
        38.2763005
      ],
      [
        -104.6385315,
        38.2762902
      ],
      [
        -104.639652,
        38.2761292
      ],
      [
        -104.6397507,
        38.2761146
      ],
      [
        -104.639885,
        38.2761055
      ],
      [
        -104.6407157,
        38.2760181
      ],
      [
        -104.6414104,
        38.2759128
      ],
      [
        -104.6419388,
        38.2758265
      ],
      [
        -104.6425262,
        38.2757107
      ],
      [
        -104.6430627,
        38.2755801
      ],
      [
        -104.6436098,
        38.2754243
      ],
      [
        -104.6450689,
        38.2749927
      ],
      [
        -104.6456487,
        38.2748216
      ],
      [
        -104.6460218,
        38.2747175
      ],
      [
        -104.6463108,
        38.274641
      ],
      [
        -104.6465829,
        38.2745733
      ],
      [
        -104.6468928,
        38.2745063
      ],
      [
        -104.6471411,
        38.2744589
      ],
      [
        -104.6473998,
        38.2744136
      ],
      [
        -104.6478477,
        38.2743483
      ],
      [
        -104.64825,
        38.2743041
      ],
      [
        -104.6486845,
        38.2742724
      ],
      [
        -104.6490882,
        38.2742541
      ],
      [
        -104.6495269,
        38.2742495
      ],
      [
        -104.6499612,
        38.274261
      ],
      [
        -104.6503197,
        38.274285
      ],
      [
        -104.6506703,
        38.2743107
      ],
      [
        -104.650789,
        38.2743251
      ],
      [
        -104.6512146,
        38.2743823
      ],
      [
        -104.6515614,
        38.2744383
      ],
      [
        -104.6518864,
        38.274499
      ],
      [
        -104.6522333,
        38.2745756
      ],
      [
        -104.6525787,
        38.2746626
      ],
      [
        -104.6529984,
        38.2747804
      ],
      [
        -104.6533657,
        38.2748983
      ],
      [
        -104.6537782,
        38.275047
      ],
      [
        -104.6541119,
        38.2751809
      ],
      [
        -104.6545215,
        38.2753628
      ],
      [
        -104.6549733,
        38.2755859
      ],
      [
        -104.6553697,
        38.275809
      ],
      [
        -104.6556262,
        38.2759646
      ],
      [
        -104.6561202,
        38.2762941
      ],
      [
        -104.6565793,
        38.2766431
      ],
      [
        -104.6569058,
        38.276928
      ],
      [
        -104.6572104,
        38.2772117
      ],
      [
        -104.6577599,
        38.2777494
      ],
      [
        -104.6583034,
        38.2782864
      ],
      [
        -104.659185,
        38.279155
      ],
      [
        -104.6596489,
        38.2796058
      ],
      [
        -104.6601967,
        38.2800688
      ],
      [
        -104.660453,
        38.2802683
      ],
      [
        -104.6608484,
        38.2805388
      ],
      [
        -104.661152,
        38.2807402
      ],
      [
        -104.6614484,
        38.2809192
      ],
      [
        -104.6618976,
        38.2811697
      ],
      [
        -104.662181,
        38.2813092
      ],
      [
        -104.6624409,
        38.2814413
      ],
      [
        -104.663002,
        38.2816876
      ],
      [
        -104.6632781,
        38.2817951
      ],
      [
        -104.663636,
        38.2819286
      ],
      [
        -104.6639695,
        38.2820396
      ],
      [
        -104.6646035,
        38.2822199
      ],
      [
        -104.6650674,
        38.28235
      ],
      [
        -104.6654871,
        38.2824367
      ],
      [
        -104.6658848,
        38.2825095
      ],
      [
        -104.6664414,
        38.2825892
      ],
      [
        -104.6668059,
        38.2826343
      ],
      [
        -104.667272,
        38.2826725
      ],
      [
        -104.6677426,
        38.282695
      ],
      [
        -104.6683545,
        38.2827002
      ],
      [
        -104.6689178,
        38.2826916
      ],
      [
        -104.6694214,
        38.2826499
      ],
      [
        -104.6698853,
        38.2826083
      ],
      [
        -104.6705083,
        38.2825182
      ],
      [
        -104.6711533,
        38.2823968
      ],
      [
        -104.6715819,
        38.2822997
      ],
      [
        -104.6718977,
        38.2822259
      ],
      [
        -104.6723109,
        38.2821055
      ],
      [
        -104.6728388,
        38.2819321
      ],
      [
        -104.6732961,
        38.2817604
      ],
      [
        -104.6739721,
        38.2814725
      ],
      [
        -104.6744382,
        38.2812471
      ],
      [
        -104.6749617,
        38.2809575
      ],
      [
        -104.6753174,
        38.2807442
      ],
      [
        -104.6759337,
        38.2803315
      ],
      [
        -104.6764059,
        38.2799986
      ],
      [
        -104.6768615,
        38.279676
      ]
    ]
  },
  "properties": {
    "relation_id": -1,
    "relation_tags": {
      "line_group": "2"
    },
    "length_m": 32605.442164620385,
    "num_vertices": 449,
    "maxspeed_coverage": 1.0,
    "is_service": false,
    "service_kind": null,
    "line_group": 2,
    "group_order": null,
    "used_way_ids": [
      46721080,
      46822956,
      52341508,
      52341523,
      99210829,
      99210840,
      319337872,
      319337875,
      319337876,
      319338255,
      319338256,
      319338257,
      319652506,
      319654242,
      319948239,
      507667352,
      507667358
    ],
    "n_gaps": 0,
    "n_branches": 0,
    "dropped_way_ids": [],
    "order": [],
    "s_m": [
      0.0,
      87.97071263473256,
      176.73502038516966,
      245.70653342133647,
      294.9790236296186,
      346.9817722879591,
      465.4403176720211,
      556.095980300796,
      751.7708818250364,
      838.9935969505318,
      1377.0740439625251,
      1492.7280475798002,
      1545.9460579053648,
      1597.7688682881117,
      1647.858273488654,
      1708.9558003767663,
      1746.9186338786108,
      2894.5972070653193,
      2976.9040402717465,
      3051.699619263906,
      3132.9522751677337,
      3226.8434530258714,
      3274.748969479382,
      3328.8475914768514,
      3511.4634405236297,
      3708.7490994831633,
      3829.2391065607076,
      3877.7640839070104,
      3967.897544975076,
      4033.604933672607,
      4110.523295905684,
      4174.387640733491,
      5553.1284389365865,
      5603.015892794592,
      5677.501239142808,
      5716.909623028269,
      5763.040315487147,
      5811.487369195491,
      5855.640035381683,
      5904.369893145774,
      5953.557723880428,
      6003.735855292824,
      6078.115945678313,
      6177.074446176816,
      6316.677223115105,
      6426.273185216375,
      6499.8529277162315,
      6564.694462910313,
      6617.633496500138,
      6667.505508092823,
      6770.445808238456,
      6897.252475829083,
      6955.960598862954,
      7038.075433084919,
      7088.281418570229,
      7168.38220506844,
      7431.4958956951505,
      7576.8486823387775,
      7709.747235921084,
      7893.6470615033495,
      8045.704237463931,
      8164.511010878918,
      8367.240963624217,
      8510.264020117558,
      8527.702492297172,
      8698.44517230382,
      8838.403526760438,
      8936.862691434866,
      8997.636364659094,
      9084.309611410186,
      9157.821690154882,
      9222.718477521064,
      9306.231542753705,
      9415.77442824156,
      9564.209198323224,
      9675.034437751667,
      9819.050148338922,
      9957.227401407123,
      10011.300437697937,
      10304.42507960796,
      11017.850282482736,
      11220.82001963116,
      11286.504137980048,
      11330.571675871377,
      11391.48704134513,
      11429.638871304567,
      11522.673977816954,
      11606.253350980827,
      11708.445582738661,
      11838.505688875028,
      11954.149530545352,
      12252.224040519304,
      12352.47745561041,
      12389.522920706726,
      12428.613279366815,
      12469.574293302101,
      12594.186056271976,
      12690.648537319345,
      12746.904059086071,
      12796.467546141119,
      12853.69623506253,
      12921.672824971884,
      12981.077775904383,
      13051.984756360285,
      13094.901444286495,
      13151.289065386172,
      13220.102175942813,
      13353.129757712164,
      13473.366147104269,
      14004.971324761054,
      14080.189437673258,
      14129.222899536326,
      14148.393343226238,
      14226.293746955449,
      14265.59216364307,
      14452.416918835868,
      14560.306822326456,
      14609.998094537608,
      14668.057500364923,
      14717.71279457566,
      14783.235346578078,
      14855.133580186657,
      14924.532625831938,
      15096.222935161546,
      15170.370217507982,
      15219.240384176823,
      15281.574442834648,
      15338.16248281262,
      15381.245979710695,
      15425.883544365097,
      15472.808300493623,
      15521.04659673094,
      15575.840382084438,
      15897.621861789969,
      16546.80557545909,
      16642.92049088388,
      16676.063881148475,
      16794.340585029702,
      17078.633912765607,
      17243.54357217506,
      17300.78109051016,
      17364.44882143619,
      17421.955822861255,
      17486.64395064777,
      17551.836105036833,
      17599.916718178323,
      17646.468230415107,
      17742.64953674564,
      17843.655202659065,
      17928.584930043427,
      18006.693318565744,
      18123.49303622216,
      18441.320767388166,
      18543.430858012565,
      18603.11458995052,
      18659.723438958856,
      18743.22131502234,
      18839.535026491292,
      18898.218340433148,
      18955.343256716227,
      19000.238615796465,
      19051.927885022607,
      19091.461089801585,
      19136.469668875587,
      19179.68116581404,
      19219.044801330474,
      19269.417328840907,
      19307.60654248607,
      19349.48075167217,
      19390.934225224093,
      19435.18261540508,
      19507.906566033653,
      19551.672141871677,
      19608.508993064468,
      19654.77560772923,
      19705.21539118669,
      19732.214100709723,
      19766.781421622465,
      19826.028302157596,
      19938.053703141315,
      20110.09417918296,
      20267.58248878749,
      20364.712455618403,
      20700.627971683018,
      20946.901378387916,
      21131.22980302463,
      21190.096923623656,
      21239.358804989504,
      21275.233886299564,
      21312.741698355305,
      21349.213131680666,
      21383.39732257337,
      21417.631615030437,
      21442.273115593507,
      21473.31883706993,
      21508.532168675407,
      21543.030515393242,
      21582.796215131097,
      21627.84653985562,
      21687.235386535856,
      21727.095785466492,
      21768.06554571186,
      21803.231542838712,
      21840.348166028372,
      21875.724421208397,
      21907.05560686046,
      21948.019204827662,
      21983.700677200173,
      22021.307080749644,
      22052.9678365721,
      22087.043371361437,
      22123.54047922122,
      22159.54559064335,
      22203.830400089137,
      22241.478927181626,
      22277.76504063356,
      22316.004093939035,
      22353.215775781166,
      22402.05629296366,
      22455.610292997095,
      22489.41234604919,
      22539.445621871393,
      22588.812906897267,
      22641.563491496272,
      22708.124863939804,
      22732.568150692387,
      22772.929721964567,
      22796.51691366055,
      22824.09325258979,
      22859.776366223676,
      22888.566943068916,
      22936.11397601379,
      23039.62696185809,
      23223.493835385983,
      23244.562377962004,
      23272.87743063977,
      23301.039121550948,
      23338.104295517987,
      23384.75149800018,
      23404.73518773462,
      23432.551951714733,
      23461.80266861919,
      23493.265156101854,
      23532.969741904733,
      23560.563497872186,
      23595.352225397495,
      23626.36288877829,
      23660.178934232896,
      23691.19090880002,
      23724.085178174173,
      23757.350135408207,
      23783.844143510258,
      23808.259432481842,
      23830.752060037412,
      23846.616370291857,
      23877.197036192127,
      23903.88455690866,
      23924.130168594274,
      23948.182685865235,
      23971.21121503346,
      23996.415993992905,
      24016.298407697384,
      24037.631707131935,
      24056.04091561563,
      24085.90573980534,
      24117.73935824081,
      24150.935052378678,
      24183.3113768214,
      24210.649480197244,
      24246.839925593034,
      24284.379711740483,
      24311.29540016029,
      24507.34763142661,
      24546.374382837388,
      24581.8495995835,
      24620.480387064235,
      24664.33451912936,
      24730.182019463893,
      24836.661923629606,
      24935.24170334028,
      24952.380126775806,
      24973.582540793563,
      24998.64502723068,
      25026.483021690976,
      25100.76714208629,
      25110.846743487415,
      25117.225063970833,
      25134.619294497137,
      25148.80485660185,
      25161.07184114741,
      25175.44373734148,
      25188.853490389254,
      25200.920231958396,
      25216.555743361325,
      25232.65621030082,
      25310.056951633145,
      25329.557813309395,
      25432.02302449065,
      25489.729865042547,
      25519.03112030138,
      25547.912762739492,
      25817.828554531927,
      26254.137885963755,
      26290.744245867834,
      26323.72436843411,
      26415.559602807334,
      26454.343462589943,
      26488.82630626709,
      26521.275863623447,
      26557.87355862853,
      26577.933406386943,
      26597.95749058581,
      26637.946149467218,
      26707.529256487036,
      26804.172121718064,
      26822.208335049905,
      26853.330639418702,
      26873.604301040363,
      26898.833855143424,
      26910.381080310974,
      26958.116590991078,
      27108.53018660379,
      27140.328372689906,
      27160.87643185687,
      27183.59200589248,
      27207.240479408083,
      27227.646681535014,
      27238.74916459438,
      27256.33000731272,
      27279.562345763177,
      27329.770658630212,
      27386.356336221386,
      27435.03773710923,
      27451.270138953852,
      27467.079771228255,
      27500.73801362846,
      27928.148874727034,
      28203.944673131617,
      28227.88557595,
      28245.556508509755,
      28264.790512520784,
      28373.089285154394,
      28383.334905811145,
      28413.384977314552,
      28422.806192701293,
      28431.70644772761,
      28442.021867009094,
      28451.904939215878,
      28473.8054878366,
      28501.979710554227,
      28531.64422315013,
      28557.593781867352,
      28563.596777314142,
      28584.10589620742,
      28606.48542197142,
      28622.645461557135,
      28629.4683713331,
      28645.73019585633,
      28657.67163745069,
      28701.723420500733,
      28738.03160588309,
      28758.53019497106,
      28795.582408742615,
      28802.952082188705,
      28902.387488664222,
      28911.154825563455,
      28922.921729043443,
      28996.08358848013,
      29057.845499795752,
      29104.9583860086,
      29157.82600016029,
      29206.85833423241,
      29257.66128846095,
      29393.77212801498,
      29447.84262113858,
      29482.407717129543,
      29509.031116934824,
      29533.94812934423,
      29562.007612067646,
      29584.31431977195,
      29607.45222948572,
      29647.219752028548,
      29682.680432873236,
      29720.773194912297,
      29756.07257116839,
      29794.371966950242,
      29832.305410036177,
      29863.713963399376,
      29894.45242926911,
      29904.93723266546,
      29942.630110174727,
      29973.537453448887,
      30002.69982486589,
      30034.157148814913,
      30065.82235296157,
      30104.730694002552,
      30139.370264248704,
      30178.993611413298,
      30211.70790018131,
      30252.787604367062,
      30299.37990668128,
      30341.956521115604,
      30370.252998363947,
      30426.838574000096,
      30482.624236260388,
      30525.23728574566,
      30566.494003267584,
      30643.146057411428,
      30719.410289809115,
      30842.90269672492,
      30907.34156717018,
      30977.604730431787,
      31009.11023022999,
      31054.8908409873,
      31089.586411023003,
      31122.228548591098,
      31170.324325199264,
      31199.522317895466,
      31226.548173558225,
      31282.66146816582,
      31309.56256561355,
      31344.149503895696,
      31375.7676258857,
      31434.625889295305,
      31477.623861223496,
      31515.50444655254,
      31551.148806916743,
      31600.532921201688,
      31632.74082090162,
      31673.64509873204,
      31714.797117389855,
      31768.20937523885,
      31817.385796868923,
      31861.585962684523,
      31902.340450110943,
      31957.633756025818,
      32015.527944158028,
      32054.46500136544,
      32083.225079182164,
      32121.695784821353,
      32171.644956993983,
      32215.89150786368,
      32283.021355037414,
      32330.805755772588,
      32386.7068884781,
      32425.777353552905,
      32496.486543300933,
      32551.885875851352,
      32605.442164620385
    ],
    "way_id": [
      99210829,
      99210829,
      99210829,
      99210829,
      99210829,
      99210829,
      99210829,
      99210829,
      99210829,
      99210829,
      99210829,
      99210829,
      99210829,
      99210829,
      99210829,
      99210829,
      99210829,
      99210829,
      99210829,
      99210829,
      99210829,
      99210829,
      99210829,
      99210829,
      99210829,
      99210829,
      99210829,
      99210829,
      99210829,
      99210829,
      99210829,
      99210829,
      99210829,
      99210829,
      99210829,
      99210829,
      99210829,
      99210829,
      99210829,
      99210829,
      99210829,
      99210829,
      99210829,
      52341508,
      52341523,
      52341523,
      52341523,
      52341523,
      52341523,
      52341523,
      52341523,
      52341523,
      52341523,
      52341523,
      52341523,
      52341523,
      52341523,
      52341523,
      52341523,
      52341523,
      52341523,
      52341523,
      52341523,
      52341523,
      52341523,
      52341523,
      52341523,
      52341523,
      52341523,
      52341523,
      52341523,
      52341523,
      52341523,
      52341523,
      52341523,
      52341523,
      52341523,
      52341523,
      52341523,
      52341523,
      52341523,
      52341523,
      52341523,
      52341523,
      52341523,
      507667352,
      507667358,
      507667358,
      507667358,
      507667358,
      507667358,
      507667358,
      46721080,
      46721080,
      46721080,
      46721080,
      46721080,
      46721080,
      46721080,
      46721080,
      46721080,
      46721080,
      46721080,
      46721080,
      46721080,
      46721080,
      46721080,
      46721080,
      46721080,
      46721080,
      46721080,
      46721080,
      46721080,
      46721080,
      46721080,
      46721080,
      46721080,
      46721080,
      46721080,
      46721080,
      46721080,
      46721080,
      46721080,
      46721080,
      46721080,
      46721080,
      46721080,
      46721080,
      46721080,
      46721080,
      46721080,
      46721080,
      46721080,
      46721080,
      46721080,
      46721080,
      46721080,
      46721080,
      46721080,
      46721080,
      46721080,
      46721080,
      46721080,
      46721080,
      46721080,
      46721080,
      46721080,
      46721080,
      46721080,
      46721080,
      46721080,
      46721080,
      46721080,
      46721080,
      46721080,
      46721080,
      46721080,
      46721080,
      46721080,
      46721080,
      46721080,
      46721080,
      46721080,
      46721080,
      46721080,
      46721080,
      46721080,
      46721080,
      46721080,
      46721080,
      46721080,
      46721080,
      46721080,
      46721080,
      46721080,
      46721080,
      46721080,
      46721080,
      46721080,
      46721080,
      46721080,
      46721080,
      46721080,
      46721080,
      46721080,
      46721080,
      319338256,
      319338256,
      319338256,
      319338256,
      319338256,
      319338256,
      319338256,
      319338256,
      319338256,
      319338256,
      319338256,
      319338256,
      319338256,
      319338256,
      319338256,
      319338256,
      319338256,
      319338256,
      319338256,
      319338256,
      319338256,
      319338256,
      319338256,
      319338256,
      319338256,
      319338256,
      319338256,
      319338256,
      319338256,
      319338256,
      319338256,
      319338256,
      319338256,
      319338256,
      319338256,
      319338256,
      319338256,
      319338256,
      319338256,
      319338256,
      319338256,
      319338256,
      319338256,
      319338256,
      319338256,
      319338256,
      319338256,
      319338256,
      319338256,
      319338256,
      319338256,
      319338256,
      319338256,
      319338256,
      319338256,
      319338256,
      319338256,
      319338256,
      319338256,
      319338256,
      319338256,
      319338256,
      319338256,
      319338256,
      319338256,
      319338256,
      319338256,
      319338256,
      319338256,
      319338256,
      319338256,
      319338256,
      319338256,
      319338256,
      319338256,
      319338256,
      319338256,
      319338256,
      319338256,
      319338256,
      319338256,
      319338256,
      319338256,
      319338256,
      319338256,
      319338256,
      319338256,
      319338256,
      319338256,
      319338256,
      319338256,
      319338256,
      319338256,
      319338255,
      319338257,
      319338257,
      319338257,
      319338257,
      319338257,
      319338257,
      319338257,
      319338257,
      319338257,
      319338257,
      319338257,
      319338257,
      319338257,
      319338257,
      319338257,
      319338257,
      319338257,
      319338257,
      319338257,
      319338257,
      319338257,
      319338257,
      319338257,
      319338257,
      319338257,
      319338257,
      319338257,
      319338257,
      319338257,
      319338257,
      319338257,
      319338257,
      319338257,
      46822956,
      46822956,
      46822956,
      46822956,
      46822956,
      319652506,
      319652506,
      319652506,
      319652506,
      319652506,
      319652506,
      319652506,
      319652506,
      319652506,
      319652506,
      319652506,
      319652506,
      319652506,
      319652506,
      319652506,
      319652506,
      319652506,
      319652506,
      319652506,
      319652506,
      319652506,
      319652506,
      319652506,
      319652506,
      319652506,
      319652506,
      319652506,
      319652506,
      319652506,
      319652506,
      319652506,
      319654242,
      319654242,
      319654242,
      319654242,
      319654242,
      319654242,
      319654242,
      319654242,
      319654242,
      319654242,
      319337872,
      319337872,
      319337872,
      319337872,
      319337872,
      319337876,
      319337875,
      99210840,
      99210840,
      99210840,
      99210840,
      99210840,
      99210840,
      99210840,
      99210840,
      99210840,
      99210840,
      99210840,
      99210840,
      99210840,
      99210840,
      99210840,
      99210840,
      99210840,
      99210840,
      99210840,
      99210840,
      99210840,
      319948239,
      319948239,
      319948239,
      319948239,
      319948239,
      319948239,
      319948239,
      319948239,
      319948239,
      319948239,
      319948239,
      319948239,
      319948239,
      319948239,
      319948239,
      319948239,
      319948239,
      319948239,
      319948239,
      319948239,
      319948239,
      319948239,
      319948239,
      319948239,
      319948239,
      319948239,
      319948239,
      319948239,
      319948239,
      319948239,
      319948239,
      319948239,
      319948239,
      319948239,
      319948239,
      319948239,
      319948239,
      319948239,
      319948239,
      319948239,
      319948239,
      319948239,
      319948239,
      319948239,
      319948239,
      319948239,
      319948239,
      319948239,
      319948239,
      319948239,
      319948239,
      319948239,
      319948239,
      319948239,
      319948239,
      319948239,
      319948239,
      319948239,
      319948239,
      319948239,
      319948239,
      319948239
    ],
    "maxspeed_kph": [
      64.37376,
      64.37376,
      64.37376,
      64.37376,
      64.37376,
      64.37376,
      64.37376,
      64.37376,
      64.37376,
      64.37376,
      64.37376,
      64.37376,
      64.37376,
      64.37376,
      64.37376,
      64.37376,
      64.37376,
      64.37376,
      64.37376,
      64.37376,
      64.37376,
      64.37376,
      64.37376,
      64.37376,
      64.37376,
      64.37376,
      64.37376,
      64.37376,
      64.37376,
      64.37376,
      64.37376,
      64.37376,
      64.37376,
      64.37376,
      64.37376,
      64.37376,
      64.37376,
      64.37376,
      64.37376,
      64.37376,
      64.37376,
      64.37376,
      64.37376,
      64.37376,
      64.37376,
      64.37376,
      64.37376,
      64.37376,
      64.37376,
      64.37376,
      64.37376,
      64.37376,
      64.37376,
      64.37376,
      64.37376,
      64.37376,
      64.37376,
      64.37376,
      64.37376,
      64.37376,
      64.37376,
      64.37376,
      64.37376,
      64.37376,
      64.37376,
      64.37376,
      64.37376,
      64.37376,
      64.37376,
      64.37376,
      64.37376,
      64.37376,
      64.37376,
      64.37376,
      64.37376,
      64.37376,
      64.37376,
      64.37376,
      64.37376,
      64.37376,
      64.37376,
      64.37376,
      64.37376,
      64.37376,
      64.37376,
      64.37376,
      64.37376,
      64.37376,
      64.37376,
      64.37376,
      64.37376,
      64.37376,
      64.37376,
      64.37376,
      64.37376,
      64.37376,
      64.37376,
      64.37376,
      64.37376,
      64.37376,
      64.37376,
      64.37376,
      64.37376,
      64.37376,
      64.37376,
      64.37376,
      64.37376,
      64.37376,
      64.37376,
      64.37376,
      64.37376,
      64.37376,
      64.37376,
      64.37376,
      64.37376,
      64.37376,
      64.37376,
      64.37376,
      64.37376,
      64.37376,
      64.37376,
      64.37376,
      64.37376,
      64.37376,
      64.37376,
      64.37376,
      64.37376,
      64.37376,
      64.37376,
      64.37376,
      64.37376,
      64.37376,
      64.37376,
      64.37376,
      64.37376,
      64.37376,
      64.37376,
      64.37376,
      64.37376,
      64.37376,
      64.37376,
      64.37376,
      64.37376,
      64.37376,
      64.37376,
      64.37376,
      64.37376,
      64.37376,
      64.37376,
      64.37376,
      64.37376,
      64.37376,
      64.37376,
      64.37376,
      64.37376,
      64.37376,
      64.37376,
      64.37376,
      64.37376,
      64.37376,
      64.37376,
      64.37376,
      64.37376,
      64.37376,
      64.37376,
      64.37376,
      64.37376,
      64.37376,
      64.37376,
      64.37376,
      64.37376,
      64.37376,
      64.37376,
      64.37376,
      64.37376,
      64.37376,
      64.37376,
      64.37376,
      64.37376,
      64.37376,
      64.37376,
      64.37376,
      64.37376,
      64.37376,
      64.37376,
      64.37376,
      64.37376,
      64.37376,
      64.37376,
      64.37376,
      64.37376,
      64.37376,
      64.37376,
      64.37376,
      64.37376,
      64.37376,
      64.37376,
      64.37376,
      64.37376,
      64.37376,
      64.37376,
      64.37376,
      64.37376,
      64.37376,
      64.37376,
      64.37376,
      64.37376,
      64.37376,
      64.37376,
      64.37376,
      64.37376,
      64.37376,
      64.37376,
      64.37376,
      64.37376,
      64.37376,
      64.37376,
      64.37376,
      64.37376,
      64.37376,
      64.37376,
      64.37376,
      64.37376,
      64.37376,
      64.37376,
      64.37376,
      64.37376,
      64.37376,
      64.37376,
      64.37376,
      64.37376,
      64.37376,
      64.37376,
      64.37376,
      64.37376,
      64.37376,
      64.37376,
      64.37376,
      64.37376,
      64.37376,
      64.37376,
      64.37376,
      64.37376,
      64.37376,
      64.37376,
      64.37376,
      64.37376,
      64.37376,
      64.37376,
      64.37376,
      64.37376,
      64.37376,
      64.37376,
      64.37376,
      64.37376,
      64.37376,
      64.37376,
      64.37376,
      64.37376,
      64.37376,
      64.37376,
      64.37376,
      64.37376,
      64.37376,
      64.37376,
      64.37376,
      64.37376,
      64.37376,
      64.37376,
      64.37376,
      64.37376,
      64.37376,
      64.37376,
      64.37376,
      64.37376,
      64.37376,
      64.37376,
      64.37376,
      64.37376,
      64.37376,
      64.37376,
      64.37376,
      64.37376,
      64.37376,
      64.37376,
      64.37376,
      64.37376,
      64.37376,
      64.37376,
      64.37376,
      64.37376,
      64.37376,
      64.37376,
      64.37376,
      64.37376,
      64.37376,
      64.37376,
      64.37376,
      64.37376,
      64.37376,
      64.37376,
      64.37376,
      64.37376,
      64.37376,
      64.37376,
      64.37376,
      64.37376,
      64.37376,
      64.37376,
      64.37376,
      64.37376,
      64.37376,
      64.37376,
      64.37376,
      64.37376,
      64.37376,
      64.37376,
      64.37376,
      64.37376,
      64.37376,
      64.37376,
      64.37376,
      64.37376,
      64.37376,
      64.37376,
      64.37376,
      64.37376,
      64.37376,
      64.37376,
      64.37376,
      64.37376,
      64.37376,
      64.37376,
      64.37376,
      64.37376,
      64.37376,
      64.37376,
      64.37376,
      64.37376,
      64.37376,
      64.37376,
      64.37376,
      64.37376,
      64.37376,
      64.37376,
      64.37376,
      64.37376,
      64.37376,
      64.37376,
      64.37376,
      64.37376,
      64.37376,
      64.37376,
      64.37376,
      64.37376,
      64.37376,
      64.37376,
      64.37376,
      64.37376,
      64.37376,
      64.37376,
      64.37376,
      64.37376,
      64.37376,
      64.37376,
      64.37376,
      64.37376,
      64.37376,
      64.37376,
      64.37376,
      64.37376,
      64.37376,
      64.37376,
      64.37376,
      64.37376,
      64.37376,
      64.37376,
      64.37376,
      64.37376,
      64.37376,
      64.37376,
      64.37376,
      64.37376,
      64.37376,
      64.37376,
      64.37376,
      64.37376,
      64.37376,
      64.37376,
      64.37376,
      64.37376,
      64.37376,
      64.37376,
      64.37376,
      64.37376,
      64.37376,
      64.37376,
      64.37376,
      64.37376,
      64.37376,
      64.37376,
      64.37376,
      64.37376,
      64.37376,
      64.37376,
      64.37376,
      64.37376,
      64.37376,
      64.37376,
      64.37376,
      64.37376,
      64.37376,
      64.37376,
      64.37376,
      64.37376,
      64.37376,
      64.37376,
      64.37376,
      64.37376,
      64.37376,
      64.37376,
      64.37376,
      64.37376,
      64.37376,
      64.37376,
      64.37376,
      64.37376,
      64.37376,
      64.37376,
      64.37376,
      64.37376,
      64.37376,
      64.37376,
      64.37376,
      64.37376,
      64.37376,
      64.37376,
      64.37376,
      64.37376,
      64.37376,
      64.37376,
      64.37376,
      64.37376,
      64.37376,
      64.37376,
      64.37376,
      64.37376,
      64.37376,
      64.37376
    ],
    "is_bridge": [
      false,
      false,
      false,
      false,
      false,
      false,
      false,
      false,
      false,
      false,
      false,
      false,
      false,
      false,
      false,
      false,
      false,
      false,
      false,
      false,
      false,
      false,
      false,
      false,
      false,
      false,
      false,
      false,
      false,
      false,
      false,
      false,
      false,
      false,
      false,
      false,
      false,
      false,
      false,
      false,
      false,
      false,
      false,
      true,
      false,
      false,
      false,
      false,
      false,
      false,
      false,
      false,
      false,
      false,
      false,
      false,
      false,
      false,
      false,
      false,
      false,
      false,
      false,
      false,
      false,
      false,
      false,
      false,
      false,
      false,
      false,
      false,
      false,
      false,
      false,
      false,
      false,
      false,
      false,
      false,
      false,
      false,
      false,
      false,
      false,
      true,
      false,
      false,
      false,
      false,
      false,
      false,
      false,
      false,
      false,
      false,
      false,
      false,
      false,
      false,
      false,
      false,
      false,
      false,
      false,
      false,
      false,
      false,
      false,
      false,
      false,
      false,
      false,
      false,
      false,
      false,
      false,
      false,
      false,
      false,
      false,
      false,
      false,
      false,
      false,
      false,
      false,
      false,
      false,
      false,
      false,
      false,
      false,
      false,
      false,
      false,
      false,
      false,
      false,
      false,
      false,
      false,
      false,
      false,
      false,
      false,
      false,
      false,
      false,
      false,
      false,
      false,
      false,
      false,
      false,
      false,
      false,
      false,
      false,
      false,
      false,
      false,
      false,
      false,
      false,
      false,
      false,
      false,
      false,
      false,
      false,
      false,
      false,
      false,
      false,
      false,
      false,
      false,
      false,
      false,
      false,
      false,
      false,
      false,
      false,
      false,
      false,
      false,
      false,
      false,
      false,
      false,
      false,
      false,
      false,
      false,
      false,
      false,
      false,
      false,
      false,
      false,
      false,
      false,
      false,
      false,
      false,
      false,
      false,
      false,
      false,
      false,
      false,
      false,
      false,
      false,
      false,
      false,
      false,
      false,
      false,
      false,
      false,
      false,
      false,
      false,
      false,
      false,
      false,
      false,
      false,
      false,
      false,
      false,
      false,
      false,
      false,
      false,
      false,
      false,
      false,
      false,
      false,
      false,
      false,
      false,
      false,
      false,
      false,
      false,
      false,
      false,
      false,
      false,
      false,
      false,
      false,
      false,
      false,
      false,
      false,
      false,
      false,
      false,
      false,
      false,
      false,
      false,
      false,
      false,
      false,
      false,
      false,
      false,
      false,
      false,
      false,
      false,
      false,
      true,
      false,
      false,
      false,
      false,
      false,
      false,
      false,
      false,
      false,
      false,
      false,
      false,
      false,
      false,
      false,
      false,
      false,
      false,
      false,
      false,
      false,
      false,
      false,
      false,
      false,
      false,
      false,
      false,
      false,
      false,
      false,
      false,
      false,
      false,
      false,
      false,
      false,
      false,
      false,
      false,
      false,
      false,
      false,
      false,
      false,
      false,
      false,
      false,
      false,
      false,
      false,
      false,
      false,
      false,
      false,
      false,
      false,
      false,
      false,
      false,
      false,
      false,
      false,
      false,
      false,
      false,
      false,
      false,
      false,
      false,
      false,
      false,
      false,
      false,
      false,
      false,
      false,
      false,
      false,
      false,
      false,
      false,
      false,
      false,
      true,
      false,
      false,
      false,
      false,
      false,
      false,
      false,
      false,
      false,
      false,
      false,
      false,
      false,
      false,
      false,
      false,
      false,
      false,
      false,
      false,
      false,
      false,
      false,
      false,
      false,
      false,
      false,
      false,
      false,
      false,
      false,
      false,
      false,
      false,
      false,
      false,
      false,
      false,
      false,
      false,
      false,
      false,
      false,
      false,
      false,
      false,
      false,
      false,
      false,
      false,
      false,
      false,
      false,
      false,
      false,
      false,
      false,
      false,
      false,
      false,
      false,
      false,
      false,
      false,
      false,
      false,
      false,
      false,
      false,
      false,
      false,
      false,
      false,
      false,
      false,
      false,
      false,
      false,
      false,
      false,
      false,
      false,
      false,
      false
    ],
    "is_tunnel": [
      false,
      false,
      false,
      false,
      false,
      false,
      false,
      false,
      false,
      false,
      false,
      false,
      false,
      false,
      false,
      false,
      false,
      false,
      false,
      false,
      false,
      false,
      false,
      false,
      false,
      false,
      false,
      false,
      false,
      false,
      false,
      false,
      false,
      false,
      false,
      false,
      false,
      false,
      false,
      false,
      false,
      false,
      false,
      false,
      false,
      false,
      false,
      false,
      false,
      false,
      false,
      false,
      false,
      false,
      false,
      false,
      false,
      false,
      false,
      false,
      false,
      false,
      false,
      false,
      false,
      false,
      false,
      false,
      false,
      false,
      false,
      false,
      false,
      false,
      false,
      false,
      false,
      false,
      false,
      false,
      false,
      false,
      false,
      false,
      false,
      false,
      false,
      false,
      false,
      false,
      false,
      false,
      false,
      false,
      false,
      false,
      false,
      false,
      false,
      false,
      false,
      false,
      false,
      false,
      false,
      false,
      false,
      false,
      false,
      false,
      false,
      false,
      false,
      false,
      false,
      false,
      false,
      false,
      false,
      false,
      false,
      false,
      false,
      false,
      false,
      false,
      false,
      false,
      false,
      false,
      false,
      false,
      false,
      false,
      false,
      false,
      false,
      false,
      false,
      false,
      false,
      false,
      false,
      false,
      false,
      false,
      false,
      false,
      false,
      false,
      false,
      false,
      false,
      false,
      false,
      false,
      false,
      false,
      false,
      false,
      false,
      false,
      false,
      false,
      false,
      false,
      false,
      false,
      false,
      false,
      false,
      false,
      false,
      false,
      false,
      false,
      false,
      false,
      false,
      false,
      false,
      false,
      false,
      false,
      false,
      false,
      false,
      false,
      false,
      false,
      false,
      false,
      false,
      false,
      false,
      false,
      false,
      false,
      false,
      false,
      false,
      false,
      false,
      false,
      false,
      false,
      false,
      false,
      false,
      false,
      false,
      false,
      false,
      false,
      false,
      false,
      false,
      false,
      false,
      false,
      false,
      false,
      false,
      false,
      false,
      false,
      false,
      false,
      false,
      false,
      false,
      false,
      false,
      false,
      false,
      false,
      false,
      false,
      false,
      false,
      false,
      false,
      false,
      false,
      false,
      false,
      false,
      false,
      false,
      false,
      false,
      false,
      false,
      false,
      false,
      false,
      false,
      false,
      false,
      false,
      false,
      false,
      false,
      false,
      false,
      false,
      false,
      false,
      false,
      false,
      false,
      false,
      false,
      false,
      false,
      false,
      false,
      false,
      false,
      false,
      false,
      false,
      false,
      false,
      false,
      false,
      false,
      false,
      false,
      false,
      false,
      false,
      false,
      false,
      false,
      false,
      false,
      false,
      false,
      false,
      false,
      false,
      false,
      false,
      false,
      false,
      false,
      false,
      false,
      false,
      false,
      false,
      false,
      false,
      false,
      false,
      false,
      false,
      false,
      false,
      false,
      false,
      false,
      false,
      false,
      false,
      false,
      false,
      false,
      false,
      false,
      false,
      false,
      false,
      false,
      false,
      false,
      false,
      false,
      false,
      false,
      false,
      false,
      false,
      false,
      false,
      false,
      false,
      false,
      false,
      false,
      false,
      false,
      false,
      false,
      false,
      false,
      false,
      false,
      false,
      false,
      false,
      false,
      false,
      false,
      false,
      false,
      false,
      false,
      false,
      false,
      false,
      false,
      false,
      false,
      false,
      false,
      false,
      false,
      false,
      false,
      false,
      false,
      false,
      false,
      false,
      false,
      false,
      false,
      false,
      false,
      false,
      false,
      false,
      false,
      false,
      false,
      false,
      false,
      false,
      false,
      false,
      false,
      false,
      false,
      false,
      false,
      false,
      false,
      false,
      false,
      false,
      false,
      false,
      false,
      false,
      false,
      false,
      false,
      false,
      false,
      false,
      false,
      false,
      false,
      false,
      false,
      false,
      false,
      false,
      false,
      false,
      false,
      false,
      false,
      false,
      false,
      false,
      false,
      false,
      false,
      false,
      false,
      false,
      false,
      false,
      false,
      false,
      false
    ],
    "is_cutting": [
      false,
      false,
      false,
      false,
      false,
      false,
      false,
      false,
      false,
      false,
      false,
      false,
      false,
      false,
      false,
      false,
      false,
      false,
      false,
      false,
      false,
      false,
      false,
      false,
      false,
      false,
      false,
      false,
      false,
      false,
      false,
      false,
      false,
      false,
      false,
      false,
      false,
      false,
      false,
      false,
      false,
      false,
      false,
      false,
      false,
      false,
      false,
      false,
      false,
      false,
      false,
      false,
      false,
      false,
      false,
      false,
      false,
      false,
      false,
      false,
      false,
      false,
      false,
      false,
      false,
      false,
      false,
      false,
      false,
      false,
      false,
      false,
      false,
      false,
      false,
      false,
      false,
      false,
      false,
      false,
      false,
      false,
      false,
      false,
      false,
      false,
      false,
      false,
      false,
      false,
      false,
      false,
      false,
      false,
      false,
      false,
      false,
      false,
      false,
      false,
      false,
      false,
      false,
      false,
      false,
      false,
      false,
      false,
      false,
      false,
      false,
      false,
      false,
      false,
      false,
      false,
      false,
      false,
      false,
      false,
      false,
      false,
      false,
      false,
      false,
      false,
      false,
      false,
      false,
      false,
      false,
      false,
      false,
      false,
      false,
      false,
      false,
      false,
      false,
      false,
      false,
      false,
      false,
      false,
      false,
      false,
      false,
      false,
      false,
      false,
      false,
      false,
      false,
      false,
      false,
      false,
      false,
      false,
      false,
      false,
      false,
      false,
      false,
      false,
      false,
      false,
      false,
      false,
      false,
      false,
      false,
      false,
      false,
      false,
      false,
      false,
      false,
      false,
      false,
      false,
      false,
      false,
      false,
      false,
      false,
      false,
      false,
      false,
      false,
      false,
      false,
      false,
      false,
      false,
      false,
      false,
      false,
      false,
      false,
      false,
      false,
      false,
      false,
      false,
      false,
      false,
      false,
      false,
      false,
      false,
      false,
      false,
      false,
      false,
      false,
      false,
      false,
      false,
      false,
      false,
      false,
      false,
      false,
      false,
      false,
      false,
      false,
      false,
      false,
      false,
      false,
      false,
      false,
      false,
      false,
      false,
      false,
      false,
      false,
      false,
      false,
      false,
      false,
      false,
      false,
      false,
      false,
      false,
      false,
      false,
      false,
      false,
      false,
      false,
      false,
      false,
      false,
      false,
      false,
      false,
      false,
      false,
      false,
      false,
      false,
      false,
      false,
      false,
      false,
      false,
      false,
      false,
      false,
      false,
      false,
      false,
      false,
      false,
      false,
      false,
      false,
      false,
      false,
      false,
      false,
      false,
      false,
      false,
      false,
      false,
      false,
      false,
      false,
      false,
      false,
      false,
      false,
      false,
      false,
      false,
      false,
      false,
      false,
      false,
      false,
      false,
      false,
      false,
      false,
      false,
      false,
      false,
      false,
      false,
      false,
      false,
      false,
      false,
      false,
      false,
      false,
      false,
      false,
      false,
      false,
      false,
      false,
      false,
      false,
      false,
      false,
      false,
      false,
      false,
      false,
      false,
      false,
      false,
      false,
      false,
      false,
      false,
      false,
      false,
      false,
      false,
      false,
      false,
      false,
      false,
      false,
      false,
      false,
      false,
      false,
      false,
      false,
      false,
      false,
      false,
      false,
      false,
      false,
      false,
      false,
      false,
      false,
      false,
      false,
      false,
      false,
      false,
      false,
      false,
      false,
      false,
      false,
      false,
      false,
      false,
      false,
      false,
      false,
      false,
      false,
      false,
      false,
      false,
      false,
      false,
      false,
      false,
      false,
      false,
      false,
      false,
      false,
      false,
      false,
      false,
      false,
      false,
      false,
      false,
      false,
      false,
      false,
      false,
      false,
      false,
      false,
      false,
      false,
      false,
      false,
      false,
      false,
      false,
      false,
      false,
      false,
      false,
      false,
      false,
      false,
      false,
      false,
      false,
      false,
      false,
      false,
      false,
      false,
      false,
      false,
      false,
      false,
      false,
      false,
      false,
      false,
      false,
      false,
      false,
      false,
      false,
      false,
      false,
      false
    ],
    "is_embankment": [
      false,
      false,
      false,
      false,
      false,
      false,
      false,
      false,
      false,
      false,
      false,
      false,
      false,
      false,
      false,
      false,
      false,
      false,
      false,
      false,
      false,
      false,
      false,
      false,
      false,
      false,
      false,
      false,
      false,
      false,
      false,
      false,
      false,
      false,
      false,
      false,
      false,
      false,
      false,
      false,
      false,
      false,
      false,
      false,
      false,
      false,
      false,
      false,
      false,
      false,
      false,
      false,
      false,
      false,
      false,
      false,
      false,
      false,
      false,
      false,
      false,
      false,
      false,
      false,
      false,
      false,
      false,
      false,
      false,
      false,
      false,
      false,
      false,
      false,
      false,
      false,
      false,
      false,
      false,
      false,
      false,
      false,
      false,
      false,
      false,
      false,
      false,
      false,
      false,
      false,
      false,
      false,
      false,
      false,
      false,
      false,
      false,
      false,
      false,
      false,
      false,
      false,
      false,
      false,
      false,
      false,
      false,
      false,
      false,
      false,
      false,
      false,
      false,
      false,
      false,
      false,
      false,
      false,
      false,
      false,
      false,
      false,
      false,
      false,
      false,
      false,
      false,
      false,
      false,
      false,
      false,
      false,
      false,
      false,
      false,
      false,
      false,
      false,
      false,
      false,
      false,
      false,
      false,
      false,
      false,
      false,
      false,
      false,
      false,
      false,
      false,
      false,
      false,
      false,
      false,
      false,
      false,
      false,
      false,
      false,
      false,
      false,
      false,
      false,
      false,
      false,
      false,
      false,
      false,
      false,
      false,
      false,
      false,
      false,
      false,
      false,
      false,
      false,
      false,
      false,
      false,
      false,
      false,
      false,
      false,
      false,
      false,
      false,
      false,
      false,
      false,
      false,
      false,
      false,
      false,
      false,
      false,
      false,
      false,
      false,
      false,
      false,
      false,
      false,
      false,
      false,
      false,
      false,
      false,
      false,
      false,
      false,
      false,
      false,
      false,
      false,
      false,
      false,
      false,
      false,
      false,
      false,
      false,
      false,
      false,
      false,
      false,
      false,
      false,
      false,
      false,
      false,
      false,
      false,
      false,
      false,
      false,
      false,
      false,
      false,
      false,
      false,
      false,
      false,
      false,
      false,
      false,
      false,
      false,
      false,
      false,
      false,
      false,
      false,
      false,
      false,
      false,
      false,
      false,
      false,
      false,
      false,
      false,
      false,
      false,
      false,
      false,
      false,
      false,
      false,
      false,
      false,
      false,
      false,
      false,
      false,
      false,
      false,
      false,
      false,
      false,
      false,
      false,
      false,
      false,
      false,
      false,
      false,
      false,
      false,
      false,
      false,
      false,
      false,
      false,
      false,
      false,
      false,
      false,
      false,
      false,
      false,
      false,
      false,
      false,
      false,
      false,
      false,
      false,
      false,
      false,
      false,
      false,
      false,
      false,
      false,
      false,
      false,
      false,
      false,
      false,
      false,
      false,
      false,
      false,
      false,
      false,
      false,
      false,
      false,
      false,
      false,
      false,
      false,
      false,
      false,
      false,
      false,
      false,
      false,
      false,
      false,
      false,
      false,
      false,
      false,
      false,
      false,
      false,
      false,
      false,
      false,
      false,
      false,
      false,
      false,
      false,
      false,
      false,
      false,
      false,
      false,
      false,
      false,
      false,
      false,
      false,
      false,
      false,
      false,
      false,
      false,
      false,
      false,
      false,
      false,
      false,
      false,
      false,
      false,
      false,
      false,
      false,
      false,
      false,
      false,
      false,
      false,
      false,
      false,
      false,
      false,
      false,
      false,
      false,
      false,
      false,
      false,
      false,
      false,
      false,
      false,
      false,
      false,
      false,
      false,
      false,
      false,
      false,
      false,
      false,
      false,
      false,
      false,
      false,
      false,
      false,
      false,
      false,
      false,
      false,
      false,
      false,
      false,
      false,
      false,
      false,
      false,
      false,
      false,
      false,
      false,
      false,
      false,
      false,
      false,
      false,
      false,
      false,
      false,
      false,
      false,
      false,
      false,
      false,
      false,
      false,
      false,
      false
    ],
    "name": "route_line2_33km"
  }
}