{
  "type": "Feature",
  "geometry": {
    "type": "LineString",
    "coordinates": [
      [
        -104.600897,
        38.267047
      ],
      [
        -104.6009927,
        38.2673767
      ],
      [
        -104.6013621,
        38.2685962
      ],
      [
        -104.6014332,
        38.268831
      ],
      [
        -104.6016021,
        38.2694362
      ],
      [
        -104.60177,
        38.2700116
      ],
      [
        -104.6019706,
        38.2706801
      ],
      [
        -104.6020204,
        38.2708512
      ],
      [
        -104.6024697,
        38.2723661
      ],
      [
        -104.6028794,
        38.2737348
      ],
      [
        -104.6030186,
        38.2742163
      ],
      [
        -104.6042764,
        38.2784883
      ],
      [
        -104.6046592,
        38.2797826
      ],
      [
        -104.604777,
        38.2802121
      ],
      [
        -104.6048368,
        38.2805092
      ],
      [
        -104.6048851,
        38.2809529
      ],
      [
        -104.6049279,
        38.2830183
      ],
      [
        -104.6049393,
        38.2840325
      ],
      [
        -104.6050009,
        38.2872485
      ],
      [
        -104.6050251,
        38.2883842
      ],
      [
        -104.605037,
        38.2886352
      ],
      [
        -104.6050809,
        38.2889822
      ],
      [
        -104.6051254,
        38.2892189
      ],
      [
        -104.605226,
        38.2895732
      ],
      [
        -104.6053563,
        38.2898878
      ],
      [
        -104.6054593,
        38.2900795
      ],
      [
        -104.6057383,
        38.2905258
      ],
      [
        -104.6060172,
        38.2909722
      ],
      [
        -104.6061995,
        38.291245
      ],
      [
        -104.607847,
        38.293699
      ],
      [
        -104.6079885,
        38.2939108
      ],
      [
        -104.6087928,
        38.2951104
      ],
      [
        -104.609566,
        38.2962803
      ],
      [
        -104.6098178,
        38.2967015
      ],
      [
        -104.6100252,
        38.2970732
      ],
      [
        -104.6101992,
        38.2974234
      ],
      [
        -104.6104356,
        38.2979681
      ],
      [
        -104.6105874,
        38.2983957
      ],
      [
        -104.6107713,
        38.299035
      ],
      [
        -104.6109002,
        38.2995579
      ],
      [
        -104.6109843,
        38.3001548
      ],
      [
        -104.611015,
        38.3003945
      ],
      [
        -104.6110482,
        38.3008321
      ],
      [
        -104.6110402,
        38.3015483
      ],
      [
        -104.6108594,
        38.3036846
      ],
      [
        -104.610743,
        38.3048072
      ],
      [
        -104.6106838,
        38.305556
      ],
      [
        -104.6106651,
        38.3057432
      ],
      [
        -104.610529,
        38.307102
      ],
      [
        -104.6103844,
        38.3086126
      ],
      [
        -104.6103595,
        38.3088528
      ],
      [
        -104.6103286,
        38.3090778
      ],
      [
        -104.6102593,
        38.3093847
      ],
      [
        -104.6101956,
        38.3096245
      ],
      [
        -104.6101131,
        38.3098759
      ],
      [
        -104.6099709,
        38.3102058
      ],
      [
        -104.6096676,
        38.3107584
      ],
      [
        -104.6092308,
        38.3115204
      ],
      [
        -104.608849,
        38.312194
      ],
      [
        -104.6074431,
        38.3146662
      ],
      [
        -104.6071412,
        38.3152252
      ],
      [
        -104.6069945,
        38.3155857
      ],
      [
        -104.6068535,
        38.3159977
      ],
      [
        -104.6067842,
        38.3163351
      ],
      [
        -104.6067351,
        38.3167049
      ],
      [
        -104.6067249,
        38.3170272
      ],
      [
        -104.6067532,
        38.3174289
      ],
      [
        -104.6067799,
        38.3176864
      ],
      [
        -104.606897,
        38.318193
      ],
      [
        -104.6070229,
        38.3185684
      ],
      [
        -104.6071349,
        38.3188237
      ],
      [
        -104.6073779,
        38.3192569
      ],
      [
        -104.6076139,
        38.3196297
      ],
      [
        -104.608257,
        38.320609
      ],
      [
        -104.6090983,
        38.3219091
      ],
      [
        -104.6096103,
        38.3226991
      ],
      [
        -104.6100964,
        38.3234531
      ],
      [
        -104.611729,
        38.325953
      ],
      [
        -104.6125079,
        38.3271645
      ],
      [
        -104.6129238,
        38.3278351
      ],
      [
        -104.6131358,
        38.3282145
      ],
      [
        -104.613397,
        38.3287344
      ],
      [
        -104.613713,
        38.329425
      ],
      [
        -104.6141341,
        38.3303965
      ],
      [
        -104.6143083,
        38.3308092
      ],
      [
        -104.6145249,
        38.3313151
      ],
      [
        -104.6146192,
        38.3315403
      ],
      [
        -104.6148556,
        38.3320852
      ],
      [
        -104.615033,
        38.3325012
      ],
      [
        -104.6152778,
        38.3330606
      ],
      [
        -104.615563,
        38.3336895
      ],
      [
        -104.6157586,
        38.3340736
      ],
      [
        -104.6160221,
        38.3345455
      ],
      [
        -104.6162781,
        38.3349853
      ],
      [
        -104.6173368,
        38.3366705
      ],
      [
        -104.6180775,
        38.3378467
      ],
      [
        -104.6184776,
        38.338509
      ],
      [
        -104.6186983,
        38.3389139
      ],
      [
        -104.6188477,
        38.3393027
      ],
      [
        -104.6189347,
        38.3395908
      ],
      [
        -104.6190403,
        38.3400797
      ],
      [
        -104.6190942,
        38.3405614
      ],
      [
        -104.6192336,
        38.3431259
      ],
      [
        -104.6195721,
        38.3496457
      ],
      [
        -104.6196494,
        38.3509178
      ],
      [
        -104.6196926,
        38.3516961
      ],
      [
        -104.619833,
        38.3543443
      ],
      [
        -104.6199412,
        38.3563609
      ],
      [
        -104.6200429,
        38.3582588
      ],
      [
        -104.620115,
        38.3598401
      ],
      [
        -104.6201401,
        38.3604649
      ],
      [
        -104.620141,
        38.3610854
      ],
      [
        -104.6201413,
        38.3616412
      ],
      [
        -104.6201072,
        38.3625177
      ],
      [
        -104.6200517,
        38.3633942
      ],
      [
        -104.6199149,
        38.3646651
      ],
      [
        -104.6198175,
        38.3653266
      ],
      [
        -104.619714,
        38.3659438
      ],
      [
        -104.6195212,
        38.3669172
      ],
      [
        -104.6194486,
        38.3672272
      ],
      [
        -104.6192321,
        38.3681141
      ],
      [
        -104.6185806,
        38.3704155
      ],
      [
        -104.6183493,
        38.3712465
      ],
      [
        -104.6178054,
        38.3731399
      ],
      [
        -104.6172987,
        38.3749685
      ],
      [
        -104.617248,
        38.3751487
      ],
      [
        -104.6169658,
        38.3761542
      ],
      [
        -104.6157755,
        38.3803226
      ],
      [
        -104.6153092,
        38.3819935
      ],
      [
        -104.6149796,
        38.3831708
      ],
      [
        -104.61462,
        38.384462
      ],
      [
        -104.6143252,
        38.3854857
      ],
      [
        -104.614234,
        38.3858283
      ],
      [
        -104.6140048,
        38.3866521
      ],
      [
        -104.6136309,
        38.3883432
      ],
      [
        -104.6133928,
        38.38942
      ],
      [
        -104.6131461,
        38.3904923
      ],
      [
        -104.6128896,
        38.3916605
      ],
      [
        -104.6126427,
        38.3927758
      ],
      [
        -104.6124042,
        38.3938309
      ],
      [
        -104.6122358,
        38.394608
      ],
      [
        -104.6117515,
        38.3968082
      ],
      [
        -104.6113722,
        38.3984662
      ],
      [
        -104.6111155,
        38.3996328
      ],
      [
        -104.6108964,
        38.4006153
      ],
      [
        -104.6106523,
        38.4016958
      ],
      [
        -104.6102257,
        38.4036154
      ],
      [
        -104.6099127,
        38.4050021
      ],
      [
        -104.6096176,
        38.4063795
      ],
      [
        -104.6095537,
        38.4066143
      ],
      [
        -104.609346,
        38.4075475
      ],
      [
        -104.6090765,
        38.4087391
      ],
      [
        -104.6085609,
        38.4111134
      ],
      [
        -104.6084508,
        38.4116019
      ],
      [
        -104.6083652,
        38.4119724
      ],
      [
        -104.60816,
        38.4129128
      ],
      [
        -104.608039,
        38.4134525
      ],
      [
        -104.6079202,
        38.4139758
      ],
      [
        -104.6074786,
        38.4159589
      ],
      [
        -104.6072387,
        38.4170214
      ],
      [
        -104.6068357,
        38.4188287
      ],
      [
        -104.6066894,
        38.4196153
      ],
      [
        -104.606644,
        38.4199797
      ],
      [
        -104.6065938,
        38.4204043
      ],
      [
        -104.6059201,
        38.4294799
      ],
      [
        -104.6056667,
        38.4327337
      ],
      [
        -104.6056288,
        38.4332325
      ],
      [
        -104.6052688,
        38.4382005
      ],
      [
        -104.6052001,
        38.4390923
      ],
      [
        -104.6051855,
        38.4392812
      ],
      [
        -104.6047535,
        38.4448856
      ],
      [
        -104.6046388,
        38.4464848
      ],
      [
        -104.6046153,
        38.4470048
      ],
      [
        -104.6046106,
        38.4473029
      ],
      [
        -104.6047297,
        38.4485862
      ],
      [
        -104.6050329,
        38.4515408
      ],
      [
        -104.6050673,
        38.4518658
      ],
      [
        -104.6051598,
        38.4527282
      ],
      [
        -104.6052968,
        38.4540566
      ],
      [
        -104.605342,
        38.4545483
      ],
      [
        -104.6056241,
        38.4572616
      ],
      [
        -104.6056869,
        38.4578167
      ],
      [
        -104.6057726,
        38.458303
      ],
      [
        -104.6059118,
        38.4588367
      ]
    ]
  },
  "properties": {
    "relation_id": -1,
    "relation_tags": {
      "line_group": "5"
    },
    "length_m": 21893.542901824007,
    "num_vertices": 184,
    "maxspeed_coverage": 1.0,
    "is_service": false,
    "service_kind": null,
    "line_group": 5,
    "group_order": null,
    "used_way_ids": [
      99090997,
      170696256,
      170696257,
      261991103,
      261991104,
      261994324,
      261994328,
      781163315,
      781163316,
      1064111837
    ],
    "n_gaps": 0,
    "n_branches": 0,
    "dropped_way_ids": [],
    "order": [],
    "s_m": [
      0.0,
      37.60098477126032,
      176.98544052951164,
      203.82174530282234,
      272.7134605011704,
      338.35260373713606,
      414.7214865930558,
      434.23735816773063,
      607.1929355419945,
      763.5315355978267,
      818.4335790215343,
      1305.9827235337084,
      1453.7304850034736,
      1502.5831480738846,
      1536.0290297741437,
      1585.5460879258235,
      1815.238788731027,
      1928.0172286765292,
      2285.661021478746,
      2411.962935698318,
      2439.892218512943,
      2478.6666755579445,
      2505.2715574379436,
      2545.6344798551127,
      2582.418458368437,
      2605.552514196257,
      2660.8307581120735,
      2716.115075780968,
      2750.368282004333,
      3058.803925193432,
      3085.396183447117,
      3236.126369976628,
      3382.6721503358663,
      3434.4061464466795,
      3479.5265332909585,
      3521.322818095641,
      3585.3076758246093,
      3634.66554276058,
      3707.541478221751,
      3766.7634271445004,
      3833.540270209086,
      3860.3280260229703,
      3909.0731628269086,
      3988.7141389311337,
      4226.78351514998,
      4352.023646891535,
      4435.44660613378,
      4456.326179655458,
      4607.884029063636,
      4776.32850028268,
      4803.125775479809,
      4828.289518737095,
      4862.946830487628,
      4890.184498513887,
      4919.050841000418,
      4957.775483789622,
      5024.6780791283745,
      5117.585086558273,
      5199.559644424188,
      5500.580782018713,
      5568.089186719657,
      5610.1686691479945,
      5657.60387774482,
      5695.605139311085,
      5736.947601561606,
      5772.796822264219,
      5817.53206972844,
      5846.259397331831,
      5903.509693690347,
      5946.673199654287,
      5976.69579528777,
      6029.324074446352,
      6075.60890715238,
      6198.10525941102,
      6360.2333028548055,
      6458.780527401443,
      6552.735451627784,
      6865.071364049381,
      7015.948799547515,
      7098.873274370869,
      7144.935802688352,
      7207.073986851481,
      7288.662520750034,
      7402.762553498001,
      7451.102958216153,
      7510.444485339372,
      7536.801929288652,
      7600.804711741591,
      7649.58131352622,
      7715.346647581011,
      7789.56998492174,
      7835.561450545632,
      7892.8469579745315,
      7946.606906399091,
      8155.50919573838,
      8301.382149748164,
      8382.87582620507,
      8431.84085237461,
      8476.994427422254,
      8509.916075949706,
      8565.053981458008,
      8618.822539745195,
      8904.241365905118,
      9629.811801378653,
      9771.423585568837,
      9858.048666233453,
      10152.76987231821,
      10377.204264292222,
      10588.427631892451,
      10764.372758167394,
      10833.881905083823,
      10902.878496992482,
      10964.680728121597,
      11062.188553614016,
      11159.771090697728,
      11301.591341064759,
      11375.63544505834,
      11444.855726222071,
      11554.390431751648,
      11589.43719482685,
      11689.846114628439,
      11951.977797481026,
      12046.555453209594,
      12262.365399775148,
      12470.43922284992,
      12490.958213761865,
      12605.439161730932,
      13080.416009037835,
      13270.60576193454,
      13404.631083874647,
      13551.587628912068,
      13668.282087013607,
      13707.198006787155,
      13800.953527141623,
      13991.798475447526,
      14113.318345579384,
      14234.475932497087,
      14366.283580704103,
      14492.15238631291,
      14611.301334805687,
      14698.948477259948,
      14947.213746527383,
      15134.514928537526,
      15266.149787661587,
      15377.054799898067,
      15499.069532153873,
      15715.732460802577,
      15872.320240296947,
      16027.623873515504,
      16054.319586084253,
      16159.653209602713,
      16294.21801265732,
      16562.02346536291,
      16617.18283271229,
      16659.050263682246,
      16765.135519959225,
      16826.06646224595,
      16885.168266556193,
      17109.010528227063,
      17228.989821597348,
      17432.996627592252,
      17521.386448707897,
      17562.09851655829,
      17609.514065238363,
      18620.38119360452,
      18982.860401467282,
      19038.422664048172,
      19591.729008659782,
      19691.07313886856,
      19712.116344561753,
      20336.43276290848,
      20514.536272268015,
      20572.393920137314,
      20605.543700513103,
      20748.61678571797,
      21078.213038332313,
      21114.47538059027,
      21210.707716764435,
      21358.90022433834,
      21413.716330163355,
      21716.420252819822,
      21778.386385121496,
      21832.973005637203,
      21893.542901824007
    ],
    "way_id": [
      99090997,
      99090997,
      99090997,
      99090997,
      99090997,
      99090997,
      99090997,
      99090997,
      99090997,
      99090997,
      99090997,
      99090997,
      99090997,
      99090997,
      99090997,
      99090997,
      99090997,
      99090997,
      99090997,
      99090997,
      99090997,
      99090997,
      99090997,
      99090997,
      99090997,
      99090997,
      99090997,
      99090997,
      99090997,
      99090997,
      99090997,
      99090997,
      99090997,
      99090997,
      99090997,
      99090997,
      99090997,
      261991103,
      1064111837,
      1064111837,
      1064111837,
      1064111837,
      1064111837,
      1064111837,
      1064111837,
      1064111837,
      1064111837,
      1064111837,
      1064111837,
      1064111837,
      1064111837,
      1064111837,
      1064111837,
      1064111837,
      1064111837,
      1064111837,
      1064111837,
      1064111837,
      261991104,
      261991104,
      261991104,
      261991104,
      261991104,
      261991104,
      261991104,
      261991104,
      261991104,
      261991104,
      261991104,
      261991104,
      261991104,
      261991104,
      261991104,
      261991104,
      261991104,
      261991104,
      261991104,
      261991104,
      261991104,
      261991104,
      261991104,
      261991104,
      261991104,
      261991104,
      261991104,
      261991104,
      261991104,
      261991104,
      261991104,
      261991104,
      261991104,
      261991104,
      261991104,
      261991104,
      261991104,
      261991104,
      261991104,
      261991104,
      261991104,
      261991104,
      261991104,
      261991104,
      261991104,
      261991104,
      261991104,
      261991104,
      261991104,
      261991104,
      261991104,
      261991104,
      261991104,
      261991104,
      261991104,
      261991104,
      261991104,
      261991104,
      261991104,
      261991104,
      261991104,
      261991104,
      261991104,
      261991104,
      261991104,
      261991104,
      261991104,
      170696256,
      170696257,
      170696257,
      170696257,
      170696257,
      170696257,
      170696257,
      170696257,
      170696257,
      170696257,
      170696257,
      170696257,
      170696257,
      170696257,
      170696257,
      170696257,
      170696257,
      170696257,
      170696257,
      170696257,
      170696257,
      170696257,
      170696257,
      170696257,
      261994324,
      261994328,
      261994328,
      261994328,
      261994328,
      261994328,
      261994328,
      261994328,
      261994328,
      261994328,
      261994328,
      261994328,
      261994328,
      261994328,
      261994328,
      261994328,
      261994328,
      261994328,
      261994328,
      261994328,
      781163316,
      781163315,
      781163315,
      781163315,
      781163315,
      781163315,
      781163315,
      781163315,
      781163315,
      781163315,
      781163315,
      781163315,
      781163315,
      781163315,
      781163315
    ],
    "maxspeed_kph": [
      72.42048,
      72.42048,
      72.42048,
      72.42048,
      72.42048,
      72.42048,
      72.42048,
      72.42048,
      72.42048,
      72.42048,
      72.42048,
      72.42048,
      72.42048,
      72.42048,
      72.42048,
      72.42048,
      72.42048,
      72.42048,
      72.42048,
      72.42048,
      72.42048,
      72.42048,
      72.42048,
      72.42048,
      72.42048,
      72.42048,
      72.42048,
      72.42048,
      72.42048,
      72.42048,
      72.42048,
      72.42048,
      72.42048,
      72.42048,
      72.42048,
      72.42048,
      72.42048,
      72.42048,
      72.42048,
      72.42048,
      72.42048,
      72.42048,
      72.42048,
      72.42048,
      72.42048,
      72.42048,
      72.42048,
      72.42048,
      72.42048,
      72.42048,
      72.42048,
      72.42048,
      72.42048,
      72.42048,
      72.42048,
      72.42048,
      72.42048,
      72.42048,
      80.4672,
      80.4672,
      80.4672,
      80.4672,
      80.4672,
      80.4672,
      80.4672,
      80.4672,
      80.4672,
      80.4672,
      80.4672,
      80.4672,
      80.4672,
      80.4672,
      80.4672,
      80.4672,
      80.4672,
      80.4672,
      80.4672,
      80.4672,
      80.4672,
      80.4672,
      80.4672,
      80.4672,
      80.4672,
      80.4672,
      80.4672,
      80.4672,
      80.4672,
      80.4672,
      80.4672,
      80.4672,
      80.4672,
      80.4672,
      80.4672,
      80.4672,
      80.4672,
      80.4672,
      80.4672,
      80.4672,
      80.4672,
      80.4672,
      80.4672,
      80.4672,
      80.4672,
      80.4672,
      80.4672,
      80.4672,
      80.4672,
      80.4672,
      80.4672,
      80.4672,
      80.4672,
      80.4672,
      80.4672,
      80.4672,
      80.4672,
      80.4672,
      80.4672,
      80.4672,
      80.4672,
      80.4672,
      80.4672,
      80.4672,
      80.4672,
      80.4672,
      80.4672,
      80.4672,
      80.4672,
      80.4672,
      80.4672,
      80.4672,
      80.4672,
      80.4672,
      80.4672,
      80.4672,
      80.4672,
      80.4672,
      80.4672,
      80.4672,
      80.4672,
      80.4672,
      80.4672,
      80.4672,
      80.4672,
      80.4672,
      80.4672,
      80.4672,
      80.4672,
      80.4672,
      80.4672,
      80.4672,
      80.4672,
      80.4672,
      80.4672,
      80.4672,
      80.4672,
      80.4672,
      80.4672,
      80.4672,
      80.4672,
      80.4672,
      80.4672,
      80.4672,
      80.4672,
      80.4672,
      80.4672,
      80.4672,
      80.4672,
      80.4672,
      80.4672,
      80.4672,
      80.4672,
      80.4672,
      80.4672,
      80.4672,
      80.4672,
      80.4672,
      80.4672,
      80.4672,
      80.4672,
      80.4672,
      80.4672,
      80.4672,
      80.4672,
      80.4672
    ],
    "is_bridge": [
      false,
      false,
      false,
      false,
      false,
      false,
      false,
      false,
      false,
      false,
      false,
      false,
      false,
      false,
      false,
      false,
      false,
      false,
      false,
      false,
      false,
      false,
      false,
      false,
      false,
      false,
      false,
      false,
      false,
      false,
      false,
      false,
      false,
      false,
      false,
      false,
      false,
      true,
      false,
      false,
      false,
      false,
      false,
      false,
      false,
      false,
      false,
      false,
      false,
      false,
      false,
      false,
      false,
      false,
      false,
      false,
      false,
      false,
      false,
      false,
      false,
      false,
      false,
      false,
      false,
      false,
      false,
      false,
      false,
      false,
      false,
      false,
      false,
      false,
      false,
      false,
      false,
      false,
      false,
      false,
      false,
      false,
      false,
      false,
      false,
      false,
      false,
      false,
      false,
      false,
      false,
      false,
      false,
      false,
      false,
      false,
      false,
      false,
      false,
      false,
      false,
      false,
      false,
      false,
      false,
      false,
      false,
      false,
      false,
      false,
      false,
      false,
      false,
      false,
      false,
      false,
      false,
      false,
      false,
      false,
      false,
      false,
      false,
      false,
      false,
      true,
      false,
      false,
      false,
      false,
      false,
      false,
      false,
      false,
      false,
      false,
      false,
      false,
      false,
      false,
      false,
      false,
      false,
      false,
      false,
      false,
      false,
      false,
      false,
      true,
      false,
      false,
      false,
      false,
      false,
      false,
      false,
      false,
      false,
      false,
      false,
      false,
      false,
      false,
      false,
      false,
      false,
      false,
      false,
      true,
      false,
      false,
      false,
      false,
      false,
      false,
      false,
      false,
      false,
      false,
      false,
      false,
      false,
      false
    ],
    "is_tunnel": [
      false,
      false,
      false,
      false,
      false,
      false,
      false,
      false,
      false,
      false,
      false,
      false,
      false,
      false,
      false,
      false,
      false,
      false,
      false,
      false,
      false,
      false,
      false,
      false,
      false,
      false,
      false,
      false,
      false,
      false,
      false,
      false,
      false,
      false,
      false,
      false,
      false,
      false,
      false,
      false,
      false,
      false,
      false,
      false,
      false,
      false,
      false,
      false,
      false,
      false,
      false,
      false,
      false,
      false,
      false,
      false,
      false,
      false,
      false,
      false,
      false,
      false,
      false,
      false,
      false,
      false,
      false,
      false,
      false,
      false,
      false,
      false,
      false,
      false,
      false,
      false,
      false,
      false,
      false,
      false,
      false,
      false,
      false,
      false,
      false,
      false,
      false,
      false,
      false,
      false,
      false,
      false,
      false,
      false,
      false,
      false,
      false,
      false,
      false,
      false,
      false,
      false,
      false,
      false,
      false,
      false,
      false,
      false,
      false,
      false,
      false,
      false,
      false,
      false,
      false,
      false,
      false,
      false,
      false,
      false,
      false,
      false,
      false,
      false,
      false,
      false,
      false,
      false,
      false,
      false,
      false,
      false,
      false,
      false,
      false,
      false,
      false,
      false,
      false,
      false,
      false,
      false,
      false,
      false,
      false,
      false,
      false,
      false,
      false,
      false,
      false,
      false,
      false,
      false,
      false,
      false,
      false,
      false,
      false,
      false,
      false,
      false,
      false,
      false,
      false,
      false,
      false,
      false,
      false,
      false,
      false,
      false,
      false,
      false,
      false,
      false,
      false,
      false,
      false,
      false,
      false,
      false,
      false,
      false
    ],
    "is_cutting": [
      false,
      false,
      false,
      false,
      false,
      false,
      false,
      false,
      false,
      false,
      false,
      false,
      false,
      false,
      false,
      false,
      false,
      false,
      false,
      false,
      false,
      false,
      false,
      false,
      false,
      false,
      false,
      false,
      false,
      false,
      false,
      false,
      false,
      false,
      false,
      false,
      false,
      false,
      false,
      false,
      false,
      false,
      false,
      false,
      false,
      false,
      false,
      false,
      false,
      false,
      false,
      false,
      false,
      false,
      false,
      false,
      false,
      false,
      false,
      false,
      false,
      false,
      false,
      false,
      false,
      false,
      false,
      false,
      false,
      false,
      false,
      false,
      false,
      false,
      false,
      false,
      false,
      false,
      false,
      false,
      false,
      false,
      false,
      false,
      false,
      false,
      false,
      false,
      false,
      false,
      false,
      false,
      false,
      false,
      false,
      false,
      false,
      false,
      false,
      false,
      false,
      false,
      false,
      false,
      false,
      false,
      false,
      false,
      false,
      false,
      false,
      false,
      false,
      false,
      false,
      false,
      false,
      false,
      false,
      false,
      false,
      false,
      false,
      false,
      false,
      false,
      false,
      false,
      false,
      false,
      false,
      false,
      false,
      false,
      false,
      false,
      false,
      false,
      false,
      false,
      false,
      false,
      false,
      false,
      false,
      false,
      false,
      false,
      false,
      false,
      false,
      false,
      false,
      false,
      false,
      false,
      false,
      false,
      false,
      false,
      false,
      false,
      false,
      false,
      false,
      false,
      false,
      false,
      false,
      false,
      false,
      false,
      false,
      false,
      false,
      false,
      false,
      false,
      false,
      false,
      false,
      false,
      false,
      false
    ],
    "is_embankment": [
      false,
      false,
      false,
      false,
      false,
      false,
      false,
      false,
      false,
      false,
      false,
      false,
      false,
      false,
      false,
      false,
      false,
      false,
      false,
      false,
      false,
      false,
      false,
      false,
      false,
      false,
      false,
      false,
      false,
      false,
      false,
      false,
      false,
      false,
      false,
      false,
      false,
      false,
      false,
      false,
      false,
      false,
      false,
      false,
      false,
      false,
      false,
      false,
      false,
      false,
      false,
      false,
      false,
      false,
      false,
      false,
      false,
      false,
      false,
      false,
      false,
      false,
      false,
      false,
      false,
      false,
      false,
      false,
      false,
      false,
      false,
      false,
      false,
      false,
      false,
      false,
      false,
      false,
      false,
      false,
      false,
      false,
      false,
      false,
      false,
      false,
      false,
      false,
      false,
      false,
      false,
      false,
      false,
      false,
      false,
      false,
      false,
      false,
      false,
      false,
      false,
      false,
      false,
      false,
      false,
      false,
      false,
      false,
      false,
      false,
      false,
      false,
      false,
      false,
      false,
      false,
      false,
      false,
      false,
      false,
      false,
      false,
      false,
      false,
      false,
      false,
      false,
      false,
      false,
      false,
      false,
      false,
      false,
      false,
      false,
      false,
      false,
      false,
      false,
      false,
      false,
      false,
      false,
      false,
      false,
      false,
      false,
      false,
      false,
      false,
      false,
      false,
      false,
      false,
      false,
      false,
      false,
      false,
      false,
      false,
      false,
      false,
      false,
      false,
      false,
      false,
      false,
      false,
      false,
      false,
      false,
      false,
      false,
      false,
      false,
      false,
      false,
      false,
      false,
      false,
      false,
      false,
      false,
      false
    ],
    "name": "route_line5_22km"
  }
}